Clinic,street1,street2,city,state,zip,county,phone,website,lat,lon,treatment
48th Street Physicians,4714 Marshall Ave,NA,Newport News,VA,23607,,757-380-8709,,36.99787291,-76.42444569,HC
5th Street Community Health Center,800 5th St STE A,NA,Lynchburg,VA,24504,,434-200-3366,http://www.communityaccessnetwork.org,37.41498663,-79.15083555,HC
"AaronEGoldberg, ",1250 East Marshall Street,"Main Hospital, 8th Floor",Richmond,VA,23220,,804-628-4530,,37.54,-77.4297,BUPREN
AddictionAlliesLLC,2137 Lakeside Drive,Suite 103,Lynchburg,VA,24501,Lynchburg City,434-400-9668,http://www.addictionallies.com,37.3989393,-79.2073548,SU
AddictionAlliesLLC,631 Berkmar Circle,NA,Charlottesville,VA,22901,Albemarle,434-400-9668,http://www.addictionallies.com,38.0858606,-78.4790842,SU
"Addiction Recovery Systems, LLC",103 S. Pantops Drive,NA,Charlottesville,VA,22911,,434 220-0080,,38.031712,-78.4538564,OTP
"AdrianScottThacker,NP",198 Ross Carter Blvd.,NA,Duffield,VA,24293,WYTHE,276-227-0206,,36.7154,-82.8139,BUPREN
"AFUABIYAHAddo,NP",12163 Formby Street,NA,BRISTOW,VA,20136,PRINCE WILLIAM,804-503-7874,,38.7664,-77.5572,BUPREN
"AlbenGGoldstein,MD",611 S Carlin Spring Road,Suite 202,ARLINGTON,VA,22204,ARLINGTON,703-379-5828,,38.8605,-77.128,BUPREN
"Alessandro Dellai,MD",1901 Tate Springs Road,LGH Emergency Department,Lynchburg,VA,24501,,434-200-7387,,37.4159,-79.1711,BUPREN
"AlexandraMalooleyPartridge,NP",1954 Opitz Boulevard,#007,Woodbridge,VA,22191,PRINCE WILLIAM,703-492-2924,,38.6352,-77.2747,BUPREN
AlexandriaCommunityServicesBoard,4850 Mark Center Drive,NA,Alexandria,VA,22311,Alexandria City,703-746-3400,http://www.alexandriava.gov/DCHS,38.8299012,-77.1191228,MH
"AlfredaWCurtis,NP",6160 Kempsville Circle,Suite 325 A,Norfolk,VA,23502,,757-354-2885,,36.8514,-76.1927,BUPREN
"AliciaNicoleRose,NP",19056 Greenbush Road,NA,Parksley,VA,23421,ACCOMACK,757-665-1260,,36.8618,-76.1302,BUPREN
"AliciaScottDevine,MD",Carilion Stonewall Jackson Hospital,1 Health Circle,Lexington,VA,24450,,757-439-9770,,37.7789,-79.4411,BUPREN
AlleghanyHighlandsCommunityServices,311 South Monroe Avenue,NA,Covington,VA,24426,Covington City,540-965-2100 x100,http://www.ahcsb.org,37.7889194,-79.9893907,SU
"AllisonHeatherStanley,NP",23743 Dickenson Highway,NA,Haysi,VA,24256,TAZEWELL,276-865-7811,,37.2058,-82.2904,BUPREN
"AlvaroMarcellRoberts,NP",1201 Broadrock Boulevard,NA,Richmond,VA,23249,RICHMOND CITY,804-675-5000,,37.498,-77.4668,BUPREN
"AmandaBrookeFisher,NP",600 Jackson Street,NA,Fredericksburg,VA,22401,FREDERICKSBURG CITY,540-373-3223,,38.2972,-77.4622,BUPREN
"AmandaCHiggs,NP","508 pegasus Court, suite 508",NA,winchester,VA,22602,FREDERICK,,,39.1446,-78.1503,BUPREN
"AmandaKayKubin,PA",101 N. Lynnhaven Road,NA,Virginia Beach,VA,23452,VIRGINIA BEACH CITY,757-347-8996,,36.8395,-76.0692,BUPREN
"Ameanthea Blanco-Knezovich,NP",205 Greenbrier Road,Suite 104,Chesapeake,VA,23320,CHESAPEAKE CITY,757-413-5444,,36.7477,-76.2257,BUPREN
Amelia Health Care Center ,8920 Otterburn Rd,NA,Amelia Court House,VA,23002,,804-561-5150,http://www.sdhsinc.com,37.33790409,-77.98971448,HC
AmelonSquareImmediate,200 Amelon Sq,NA,Madison Heights,VA,24572,,434-929-4357,,37.46799529,-79.11694014,HC
AmericanAddictionTreatmentCenter,5583 Mooretown Road,NA,Williamsburg,VA,23188,,757 585-7611,,37.31644,-76.732407,OTP
AmericanAddictionTreatmentCenter,6983 Suite C Mid County Drive,NA,Hayes,VA,23072,,804 824-2816,,37.333831,-76.5155429,OTP
"AmericanAddictionTreatmentCenter,Inc.",12695 McManus Blvd Building 2,NA,Newport News,VA,23602,,757 234-4139,,37.1410399,-76.513025,OTP
AmherstCountyCommunity,134 Elon Rd,NA,Madison Heights,VA,24572,,434-455-2480,http://www.jhcvirginia.org,37.46711683,-79.12084577,HC
"Aminata Kamara,NP",SaVida Health,"6330 Five Mile Centre Park, Suite 400",Fredericksburg,VA,22191,SPOTSYLVANIA,540-548-2960,,38.2885,-77.5548,BUPREN
"Aminata Kamara,NP",4001 Prince William Parkway,Suite 300,Woodbridge,VA,22192,SPOTSYLVANIA,540-735-9350,,38.6653,-77.3315,BUPREN
"Amrita Rampertaap,NP",2070 Chain Bridge Road,NA,Vienna,VA,22182,FAIRFAX,703-383-4836,,38.9173,-77.2374,BUPREN
"AmyNicoleNeuhs,PA",85 Sangers Lane,NA,Staunton,VA,24401,AUGUSTA,540-887-3200,,38.1274,-79.0301,BUPREN
"AndreaMarieJackson, ",541 SUNSET Lane,STE 103,CULPEPER,VA,22701,CULPEPER,540-321-3002,,38.455,-78.0129,BUPREN
"AndreaWarrenRupe,FNP",101 1st Street NW,NA,Pulaski,VA,24301,PULASKI,540-980-0550,,37.0464,-80.7831,BUPREN
"AndrewBenjaminMoore,MD",CMC Emergency Department,1906 Belleview Avenue SE,Roanoke,VA,24014,,540-682-6251,,37.2517,-79.9411,BUPREN
"AndrewP.Meyer,DO",Winchester Medical Center Behavioral Health Service,1890 Amherst Street,Winchester,VA,22601,WARREN,304-886-5229,,39.1949,-78.1945,BUPREN
"AngelaHendricksHarrison,NP",460 Front Street,NA,Richlands,VA,24641,TAZEWELL,276-598-4448,,37.0926,-81.7839,BUPREN
"AngeliaMichelleHopkins, ",Hopkins Medical Association,460 Front Street,Richlands,VA,24641,TAZEWELL,276-598-4448,,37.0932,-81.7937,BUPREN
"AnilLorrolGanga, ",601 Campbell Ave SW,NA,Roanoke,VA,24016,,540-339-9195,,37.2713,-79.9526,BUPREN
"AnilLorrolGanga, ",Center for Emotional Care,400  East Burwell Street,Salem,VA,24153,SALEM,540-387-3105,,37.2919,-80.0528,BUPREN
"AnnaMarieHembrick, ",3974 Springfield Road,NA,Glen Allen,VA,23060,HENRICO,804-495-8661,,37.6441,-77.5598,BUPREN
"Annelee Boyle,MD",1204 W Main Street,3rd Floor Battle Building,Charlottesville,VA,22903,CHARLOTTESVILLE CITY,434-924-2500,,38.0328,-78.4974,BUPREN
"AnnElizabethRawlings,M.D.",7510 Major Ave,NA,Norfolk,VA,23505,NORFOLK CITY,757-489-0703,,36.9151,-76.2983,BUPREN
"AnnetteGayTarpley,NP",1605 North Franklin Street,NA,Christiansburg,VA,24073,MONTGOMERY,540-381-2425,,37.1266,-80.4138,BUPREN
"Antonio Quidgley-Nevares,MD",721 Fairfax Avenue,3rd Floor,Norfolk,VA,23507,NORFOLK CITY,757-446-5915,,36.8601,-76.3019,BUPREN
AppalachiaFamilyHealth,536 E Main St,NA,Appalachia,VA,24216,,276-565-2761,http://www.stonemountainhealthservices.com,36.90819676,-82.77069332,HC
ArlingtonCountyCommunityServsBoard,2100 Washington Boulevard,NA,Arlington,VA,22204,Arlington,703-228-5150,http://health.arlingtonva.us/behavioral-healthcare/,38.8734688,-77.0832363,MH
ARSVirginia,210 Front Royal Pike,NA,Winchester,VA,22601,,540 545-8794,,39.158833,-78.158231,OTP
"Arthur Webb,MD",3046 Valley Avenue,Suite 100,Winchester,VA,22601,WINCHESTER CITY,703-725-4052,,39.1433,-78.1895,BUPREN
"AshleyAnnWinegar, ",1716 Overhill Road,NA,Bristol,VA,24201,BRISTOL CITY,423-418-0750,,36.6205,-82.1685,BUPREN
"AshleyMarieLyons, ",260 Grayson Road,Suite 100,Virginia Beach,VA,23462,VIRGINIA BEACH CITY,757-497-3670,,36.8323,-76.1558,BUPREN
AtlanticCommunityHealth,5219 Lankford Hwy,NA,New Church,VA,23415,,757-824-5676,,37.96544134,-75.53251824,HC
AtlanticCommunityPharmacy,7001 Lankford Hwy,NA,Oak Hall,VA,23416,,757-824-4477,http://www.esrh.org,37.94468737,-75.54074952,HC
AtlasCounselingCenter,174 Costello Drive,NA,Winchester,VA,22602,Frederick,540-722-6238,http://www.atlascounselingcenter.com,39.1561377,-78.1568674,SU
AugustaHealth,79 North Medical Park Drive,NA,Fishersville,VA,22939,Augusta,540-213-2525,http://www.augustahealth.com,38.0908147,-78.9934153,SU
"AuryanaJessamynMalek,NP",5105Q Backlick Rd,NA,Annandale,VA,22003,FAIRFAX,571-232-8802,,38.8138,-77.1844,BUPREN
AVillageYouthAndFamilyServices,2025 East Main Street,Suite 7,Richmond,VA,23223,Richmond City,804-225-0749,http://www.wearethevillage.net/,37.531271,-77.4253284,MH
"AyniAhmedSharif,PA",5922 W. Broad Street,NA,Richmond,VA,23230,RICHMOND CITY,804-282-6953,,37.5927,-77.5066,BUPREN
BaconStreetYouthAndFamilyServices,247 McLaws Circle,NA,Williamsburg,VA,23185,James City,757-253-0111,http://www.baconstreet.org,37.245271,-76.660555,SU
BaconStreetYouthAndFamilyServices,6523 Main Street,NA,Gloucester,VA,23061,Gloucester,757-253-0111,http://www.baconstreet.org,37.4153056,-76.529472,SU
BaconStreetYouthAndFamilyServices,4034 George Washington Highway,Suite B,Williamsburg,VA,23185,York,757-253-0111,http://www.baconstreet.org,36.805556,-76.321356,SU
"BarbaraJohnsonKimmer-Lynch, ",9001 Diggges Road,Suite 104,Manassas,VA,20115,MANASSAS CITY,703-973-9007,,38.7698,-77.4877,BUPREN
BarbaraL.WillisWellness,1541 High St,NA,Portsmouth,VA,23704,,757-393-6363,,36.83488012,-76.3179267,HC
BassettFamilyPractice,324 T B Stanley Hwy,NA,Bassett,VA,24055,,276-629-1076,http://www.healthycommunitymhc.org,36.7360285,-79.95913952,HC
"BeccaJoWard,NP",Scott Co Behavioral Health Services,1006 US Highway 23N,Weber City,VA,24290,SCOTT,276-225-0976,,36.6078,-82.5689,BUPREN
Bedford CommunityDental,600 Bedford Ave,NA,Bedford,VA,24523,,434-455-2480,http://www.jhcvirginia.org,37.3378854,-79.52975524,HC
Bedford CommunityHealth,582 Blue Ridge Ave,NA,Bedford,VA,24523,,540-425-7910,http://www.jhcvirginia.org,37.33751199,-79.53269201,HC
"BenAlanFickenscher,MD",1041 Briarwood Pt,NA,Virginia Beach,VA,23452,VIRGINIA BEACH CITY,757-754-2716,,36.8716,-76.0956,BUPREN
BermudaMedicalCenter,2740 Bensley Commons Blvd,NA,North Chesterfield,VA,23237,,804-780-0840,http://www.cahealthnet.org,37.4241312,-77.44045758,HC
"BethEzzellLevin,MD",825 Fairfax Avenue,Suite 310,Norfolk,VA,23507,NORFOLK CITY,757-446-7900,,36.8605,-76.3036,BUPREN
"BHGXLII,LLC",13100 Mountain Road,NA,Glen Allen,VA,23059,,804 230-0999,,37.690883,-77.545447,OTP
"BHGXLII,LLC",1333 Carrsville Highway,NA,Franklin,VA,23851,,757 304-9857,,36.688289,-76.906231,OTP
"BHGXLII,LLC",6000 Jefferson Avenue,NA,Newport News,VA,23605,,757 933-2660,,37.0144052,-76.4407382,OTP
"BHGXLII,LLC",109 WIMBLEDON SQUARE,NA,CHESAPEAKE,VA,23320,,757 410-8244,,36.742645,-76.244727,OTP
"BHGXLII,LLC",5715 Princess Anne Road Suite,NA,Virginia Beach,VA,23462,,757 962-0748,,36.840091,-76.1839339,OTP
"BHGXLI,LLC",3322 Western Branch Blvd.,NA,Chesapeake,VA,23321,,757 673-3644,,36.8660329,-76.4135083,OTP
BLANDCOUNTYMEDICAL,12301 Grapefield Rd,NA,Bastian,VA,24314,,276-688-4331,http://blandclinic.com,37.17716936,-81.14393193,HC
BlandCountyMedicalClinic,8487 S Scenic Hwy,NA,Bland,VA,24315,,276-688-4711,http://BlandClinic.com,37.10090842,-81.12308898,HC
BlueRidgeBehavioralHealthcare,1315 Franklin Road SW,NA,Roanoke,VA,24016,Roanoke City,540-981-1102,http://www.brbh.org/,37.2655777,-80.0056012,MH
BlueRidgeDentalCenter,4038 Thomas Nelson Hwy STE B,NA,Arrington,VA,22922,,434-263-6310,,37.70763541,-78.93390603,HC
BlueRidgeMedical,624 Jones St,NA,Appomattox,VA,24522,,434-263-4000,,37.36748228,-78.82697155,HC
BlueRidgeMedical,210 S Main St,NA,Amherst,VA,24521,,434-263-4000,,37.58471439,-79.05260291,HC
"BLUERIDGEMEDICALCENTER,",4038 Thomas Nelson Hwy,NA,Arrington,VA,22922,,434-263-4000,http://www.brmedical.org,37.70757506,-78.93401382,HC
BluestoneHealthClinic,562 Virginia Ave,NA,Bluefield,VA,24605,,304-431-5499,,37.25282006,-81.27103209,HC
"Bogdan Ionescu, ","Rock Landing Psychological Group, P.C.","11825 Rock Landing Drive, James Building",Newport News,VA,23606,NEWPORT NEWS CITY,757-873-1736,,37.091,-76.4667,BUPREN
"BradfordRolandClower,NP",52 Medical Group Unit 3690,ATTN CREDENTIAL OFFICE,APO,AE,9126,ARLINGTON,314-452-8595,,38.8958,-77.0706,BUPREN
"BrendaJeanKozak,NP",134 Elon Road,NA,MADISON HEIGHTS,VA,24572,AMHERST,434-929-1400,,37.4676,-79.1206,BUPREN
"BrianJosephMasterson,M.D.",3580 Joseph Siewick Drive,Suite 306,Fairfax,VA,22033,FAIRFAX,703-391-4520,,38.8863,-77.3801,BUPREN
"BrianWGravley,NP",4521 Brambleton Avenue,Suite 205,Roanoke,VA,24018,ROANOKE,540-904-7771,,37.2233,-80.0146,BUPREN
"BridgetteMichaelleVest,NP",4346 Starkey Rd,Suite 1,Roanoke,VA,24018,ROANOKE,15407728043,,37.2345,-80.0204,BUPREN
"BridgetteMichaelleVest,NP","Blue Ridge Telehealth, LLC",Suite 1,Roanoke,VA,24018,ROANOKE CITY,15407728043,,37.2919,-80.0528,BUPREN
"Brightview,LLC",1345 Plantation Rd. NE,NA,Roanoke,VA,24012,,330 809-0572,,37.2840161,-79.9286172,OTP
"BrightView,LLC",209 Research Drive Suite 102,NA,Chesapeake,VA,23320,,513 843-7063,,36.7731569,-76.2590463,OTP
"Brightview,LLC (Winchester)",200 Faraday Plaza,NA,Winchester,VA,22603,,833 510-4357,,39.2151975,-78.139799,OTP
BristolCommunityHealth,2195 Euclid Ave STE 6,NA,Bristol,VA,24201,,276-669-5179,http://svchs.com,36.59639609,-82.20925581,HC
"BrittanyAnnThurmond,NP",11049 Warwick Blvd,NA,Newport News,VA,23601,,757-703-0560,,37.046,-76.4741,BUPREN
"Brittany Bailey,NP",11745 Jefferson Avenue,Unit 10B,Newport News,VA,23606,,757-913-5920,,37.082,-76.4809,BUPREN
"Brittany Bailey,NP",2790 Godwin Boulevard,Suite 210,Suffolk,VA,23434,,757-942-4442,,36.7729,-76.5812,BUPREN
"Brittany Bailey,NP",516 Innovation Drive,Suite 102,Chesapeake,VA,23320,,757-614-1524,,36.7357,-76.22,BUPREN
"Brittany Bailey,NP",101 N Lynnhaven Road,Suite 100,Virginia Beach,VA,23452,,757-321-0795,,36.8394,-76.0692,BUPREN
"BrittanyNicholeRessel,NP",6913 Bethnal Court,NA,Springfield,VA,22150,FAIRFAX,585-474-9135,,38.7663,-77.1908,BUPREN
"BruceEdwardWilliams,III",Intercept Health,5673 Airport Rd NW,Roanoke,VA,24012,ROANOKE,540-523-8080,,37.3238,-79.961,BUPREN
"Candace Cane,NP",4306 Evergreen Lane #204,NA,Annandale,VA,22003,FAIRFAX,703-750-1292,,38.8311,-77.1867,BUPREN
"CandaceNicoleCarbary,NP",300 Valley Street NE,NA,Abingdon,VA,24210,WASHINGTON,276-206-8197,,36.7142,-81.9671,BUPREN
"CaraElizabethCampbell,NP",517 West Grace Street,NA,Richmond,VA,23220,RICHMOND CITY,804-649-2119,,37.5475,-77.4479,BUPREN
"CaraNicoleRobinson, ",208 Front Street West,NA,Coeburn,VA,24230,WISE,276-455-5556,,36.9418,-82.4719,BUPREN
CarilionClinic,2017 South Jefferson Street SW,NA,Roanoke,VA,24014,Roanoke City,540-266-6971,http://carilionclinic.org/locations/carilion-clinic-child,37.2502922,-79.9446888,MH
CARITAS,2220 Stockton St,NA,Richmond,VA,23224,,804-783-2505 x236,,37.5135734,-77.4511803,HC
"CarlaL.Sanders,NP",650 Laurel St,NA,Culpeper,VA,22701,CULPEPER,,,38.4559,-78.0147,BUPREN
"CarlaL.Sanders,NP",12 North Hill Drive,NA,Warrenton,VA,20186,FAUQUIER,,,38.7236,-77.791,BUPREN
"CarlThurmanHarrison,Jr.,NP",770 W. Ridge Road,NA,Wythville,VA,24382,WYTHE,276-223-3200,,36.9531,-81.0974,BUPREN
"CarmenMarieWynes,NP",850 Tidewater Drive,Suite B,Norfolk,VA,23504,NORFOLK CITY,757-333-6992,,36.8529,-76.2743,BUPREN
"CarolineJSutter,NP",7734 Middle Valley Drive,NA,Springfield,VA,22153,FAIRFAX,703-626-4240,,38.7443,-77.2305,BUPREN
"Cary Oaster,NP",1200 E Marshall Street,NA,Richmond,VA,23298,RICHMOND CITY,804-338-3808,,37.5405,-77.4303,BUPREN
"CatharineWhiteCartwright,PA",2501 James Madison Boulevard,NA,Virginia Beach,VA,23456,,757-385-8516,,36.7528,-76.0614,BUPREN
"CedricHiltonCampbell,MD",VCU Department of Anesthesiology,"1200 E. Broad Street, 7th Floor Box 980695",Richmond,VA,23298,,804-828-2207,,37.5394,-77.4305,BUPREN
"CelesteFaithMullins,NP",43 Champion Avenue,NA,Big Stone Gap,VA,24219,WISE,276-523-8300,,36.8858,-82.7318,BUPREN
"Celestina Amlalo,NP",905-C Southlake Boulevard,NA,Richmond,VA,23236,CHESTERFIELD,804-419-0493,,37.5055,-77.5973,BUPREN
"Celestina Amlalo,NP",681 Hioaks Rd suite A,NA,Richmond,VA,23225,,804-320-3626,,37.512,-77.5244,BUPREN
CenterForChildAndFamilyServices,348 Mclaws Circle,Suite 1,Williamsburg,VA,23185,James City,757-838-1960,http://www.kidsandfamilies.com,37.24545,-76.6642825,MH
CenterForChildAndFamilyServices,2021 Cunningham Drive,Suite 400,Hampton,VA,23666,Hampton City,757-838-1960,http://wwwkidsandfamilies.com,37.0461535,-76.3840312,MH
CenterForDiscovery,5343 Summit Drive,NA,Fairfax,VA,22030,Fairfax,866-862-3631,http://centerfordiscovery.com/locations/fairfax/,38.8371198,-77.3870408,MH
CenterForDiscovery,209 Madison Street,Suite 3-B,Alexandria,VA,22306,Fairfax,855-818-2029,http://centerfordiscovery.com/locations/alexandria-outpatient/,38.8126936,-77.0404347,MH
CentraHealthInc,693 Leesville Road,NA,Lynchburg,VA,24502,Lynchburg City,434-200-5700 x5025,http://www.centrahealth.com/facilities/bridges-treatment-center,37.3433531,-79.2056258,MH
CENTRALHIGHSCHOOL,131 K V Rd,NA,Victoria,VA,23974,,434-696-2137,http://www.sdhsinc.com,36.98519599,-78.21626298,HC
"Charla Bacon,NP",2426 Lee Highway,Suite 104,Bristol,VA,24202,,423-282-3379,,36.6294,-82.1499,BUPREN
"CherylAnnLumbard, ",4020 Raintree Road,Suite A,Chesapeake,VA,23321,CHESAPEAKE CITY,757-606-1377,,36.829,-76.4071,BUPREN
"Cheryl Segal, ",297 Independence Boulevard,Suite 126,Virginia Beach,VA,23451,,757-385-0908,,36.8448,-76.1416,BUPREN
ChesapeakeCommunityHealth,490 Liberty St,NA,Chesapeake,VA,23324,,757-000-0000,,36.82266234,-76.27478035,HC
ChesapeakeIntegrated,224 Great Bridge Boulevard,NA,Chesapeake,VA,23320,Chesapeake City,757-547-9334,http://www.chesapeakeibh.net,36.7355808,-76.2469162,MH
ChesterfieldCommunityServicesBoard,6801 Lucy Corr Boulevard,Rogers Building,Chesterfield,VA,23832,Chesterfield,804-748-1227,http://www.chesterfield.gov,37.3823412,-77.5059885,MH
ChildhelpUSA,23164 Dragoon Road,NA,Lignum,VA,22726,Culpeper,540-399-1926,http://www.childhelp.org,38.3875918,-77.8414071,MH
ChildrensHospitalOfTheKingsDaugh,601 Childrens Lane,NA,Norfolk,VA,23507,Norfolk City,757-668-4673,http://www.chkd.org,36.8615399,-76.3018629,MH
ChildrensServicesCenter,5505 Robin Hood Road,Suites C-1 and C-2,Norfolk,VA,23513,Norfolk City,757-756-5600,http://www.norfolk.gov/996/Norfolk-Community-Services-Board,36.880722,-76.2148678,MH
ChildSavers,200 North 22nd Street,NA,Richmond,VA,23223,Richmond City,804-644-9590,http://www.childsavers.org/,37.5328094,-77.4223523,MH
ChilhowieElementarySchool,130 E Lee Hwy,NA,Chilhowie,VA,24319,,276-646-8220,,36.79882353,-81.68184239,HC
 Chincoteague Island Community Health Center,4049 Main St,NA,Chincoteague Island,VA,23336,,757-336-3682,http://www.esrh.org,37.93376068,-75.37785804,HC
ChippenhamMedicalCenter,7101 Jahnke Road,NA,Richmond,VA,23225,Richmond City,804-483-0050,http://cjwmedicalcenter.com,37.513886,-77.5263617,SU
"Christina Millinger,PA",406 W. Main Street,Suite 100,Abingdon,VA,24210,WASHINGTON,276-356-0501,,36.7074,-81.9837,BUPREN
"ChristopherPaulKogut, ",517 W Grace St,NA,Richmond,VA,23220,,804-783-2505,,37.5475,-77.4479,BUPREN
"ChristopherSeanMoon,MD",1900 Chatsworth drive,NA,Bon Air,VA,23235,CHESTERFIELD,804-323-2547,,37.5174,-77.5699,BUPREN
"ChristyMichelleHarshberger,NP",4001 Prince William Parway,NA,Woodbridge,VA,22192,PRINCE WILLIAM,703-214-5825,,38.6653,-77.3315,BUPREN
"ChristyMichelleHarshberger,NP",14330 Gideon Drive,NA,Woodbridge,VA,22192,PRINCE WILLIAM,703-214-5825,,38.6397,-77.2931,BUPREN
"CityOfNorfolk,CommunityServicesBoard-OpioidTreatmentProgram","Tidewater Drive Center ORTP, 7460 Tidewater Dr.",NA,Norfolk,VA,23505,,757 664-6670,,36.9147,-76.2853,OTP
"CityOfPortsmouth,DepartmentOfBehavioralHealthcareServices,SubstanceAbuseOutpatientTreatmentServices",1811 King Street,NA,Portsmouth,VA,23704,,757 393-8896,,36.833835,-76.321109,OTP
"ClairMarieOja, ",22895 Brambleton Plaza Ste 200,200,Ashburn,VA,20148,LOUDOUN,703-722-2312,,38.9839,-77.5376,BUPREN
"ClairMarieOja, ",51 Catoctin Circle NE,NA,Leesburg,VA,20176,LOUDOUN,703-777-9510,,39.112,-77.5538,BUPREN
"ClaudiaJeanWhite,NP",240 Executive Center Parkway,NA,Fredericksburg,VA,22401,SPOTSYLVANIA,540-212-6090,,38.3118,-77.4802,BUPREN
ClayStreet,500 Clay St,NA,Lynchburg,VA,24504,,434-200-3366,,37.41643871,-79.14777037,HC
ClinchRiverHealth,17285 Veterans Memorial Hwy,NA,Dungannon,VA,24245,,276-467-2201,http://www.crhealth.org,36.81686605,-82.49424899,HC
ClinicalAnnexMontgomery,209 Roanoke St STE 4,NA,Christiansburg,VA,24073,,540-381-0820,,37.13014592,-80.40305534,HC
"ClintonSamuelSteveWebb,NP",406 West Main Street,NA,Abingdon,VA,24210,WASHINGTON,833-952-0829,,36.7074,-81.9837,BUPREN
CMCSB,113 Cumberland Road,NA,Cedar Bluff,VA,24609,Tazewell,276-964-6702,http://www.cmcsb.com,37.0876141,-81.7590032,MH
CMCSBAdministration,196 Cumberland Road,NA,Cedar Bluff,VA,24609,Tazewell,276-964-6702,http://www.cmcsb.com,37.0091399,-81.7938945,MH
CMCSBTazewellCo,526 West Main Street,NA,Tazewell,VA,24651,Tazewell,276-964-6702,http://www.cmcsb.com,37.1143766,-81.5252975,MH
"ColletteFnyiNgante, ",1229 Garrisonville Road,Suite 104,Stafford,VA,22556,STAFFORD,540-779-1648,,38.4799,-77.4767,BUPREN
ColonialBehavioralHealth,921 Capital Landing Road,NA,Williamsburg,VA,23185,James City,757-220-3200,http://www.colonialbh.org,37.2845869,-76.6880463,MH
ColonialHeightsCounseling,3660 Boulevard,Suite A,Colonial Heights,VA,23834,Colonial Heights City,804-520-7210,http://d19csb.com,37.2821898,-77.4129474,MH
CommuniCareFamilyHealth,804 Whitaker Ln,NA,Norfolk,VA,23510,,757-393-6363,http://www.hrchc.org,36.85596067,-76.28365604,HC
COMMUNITYDENTALSERVICES,1033 28th St,NA,Newport News,VA,23607,,757-928-3810,http://pich.org,36.98802116,-76.41161702,HC
ComprehensiveAddictionTreatmentServices (CATS),3300 Gallows Rd.,NA,Falls Church,VA,22042,,703 776-7782,,38.858749,-77.226252,OTP
"ConnieLeeTurner,NP",102 Main Street,NA,Greenfield,MA,1301,HIGHLAND,413-325-8500,,38.4106,-79.581,BUPREN
"Cordelia Nieketien-Tawari,NP",Fairfax-Falls Church Community Services Board,"1850 Cameron Glen Drive, Suite 200",Reston,VA,20190,FAIRFAX,703-481-4100,,38.9655,-77.3588,BUPREN
"CorettaLatonyaThurman,NP",2575 Hawthorne Avenue,NA,Buena Vista,VA,24416,,540-570-2999,,37.7379,-79.3434,BUPREN
CouncilFamilyHealth,4124 Council Mountain Rd,NA,Honaker,VA,24260,,276-859-0859,,37.08084059,-82.06885583,HC
"CourtneyKeslerRocovich,DO",1906 Belleview Avenue,NA,Roanoke,VA,24014,ROANOKE CITY,540-731-2952,,37.2517,-79.9411,BUPREN
CRAIGCOUNTYDENTALCENTER,230 Market St,NA,New Castle,VA,24127,,304-772-3064,,37.50453452,-80.10958613,HC
CRAIGCOUNTYHEALTHCENTER,226 Market St,NA,New Castle,VA,24127,,304-772-3064,http://www.monroehealthcenter.com,37.50464504,-80.10945294,HC
CRAIGCOUNTYWELLNESS,25239 Craigs Creek Rd,NA,New Castle,VA,24127,,304-772-3064,http://www.monroehealthcenter.com,37.51660044,-80.0860609,HC
CrossroadsCommunityServicesBoard,214 Bush River Drive,NA,Farmville,VA,23901,Prince Edward,434-392-7049,http://www.crossroadscsb.org,37.2806369,-78.3534215,MH
"CrossroadsTreatmentCenterOfDanville,PC",1555 Meadowview Dr.,NA,Danville,VA,24541,,434 685-1570,,36.605649,-79.526811,OTP
"CrossroadsTreatmentCenterOfPetersburg,PC",10543 South Crater Road,NA,Petersburg,VA,23805,,804 431-5585,,37.167408,-77.356657,OTP
"CrossroadsTreatmentCenterOfSuffolk,PC",1258 Holland Road,NA,Suffolk,VA,23434,,757 809-4771,,36.7296613,-76.6159752,OTP
"CrossroadsTreatmentCenterOfWinchester,PC","500 Pegasus Court, Suite 500",NA,Winchester,VA,22602,,540 313-4196,,39.144717,-78.150356,OTP
"CrystalHubbardAlexander,NP",901 Correction Way,NA,Jarratt,VA,23870,GREENSVILLE,434-602-3781,,36.7987,-77.4864,BUPREN
"Crystal Large,NP",15205 Joe Derting Drive,NA,Abingdon,VA,24210,WASHINGTON,276-431-8000,,36.7326,-81.912,BUPREN
"CulpeperTreatmentServices,LLC",571 James Madison HWY,NA,Culpeper,VA,22701,,540 547-3769,,38.4803086,-77.9807351,OTP
CumberlandMountainCommServsBoard,1014 Stillhouse Hollow Road,NA,Grundy,VA,24614,Buchanan,276-935-7154,http://www.cmcsb.com,37.2960999,-82.0562493,MH
"CurtisRussellBryan,MD",224 Great Bridge Boulavard,NA,Chesapeake,VA,23320,CHESAPEAKE CITY,757-547-9334,,36.7357,-76.2467,BUPREN
CVHS-BlueDevilsHealth,400 S Mesa Dr,NA,Hopewell,VA,23860,,804-972-0068,http://www.cvhsinc.org,37.289805,-77.315528,HC
CVHSBrunswick,8380 Boydton Plank Rd,NA,Alberta,VA,23821,,804-949-7211,http://www.cvhsinc.org,36.84239267,-77.90673372,HC
CVHSBuckingham,25892 N James Madison Hwy,NA,New Canton,VA,23123,,434-581-3271,http://www.cvhsinc.org,37.63692052,-78.36087437,HC
CVHSCaroline,102 W Broaddus Ave STE 200,NA,Bowling Green,VA,22427,,804-632-1030,http://www.cvhsinc.org,38.0546017,-77.35133565,HC
CVHSCharlesCity,9950 Courthouse Rd,NA,Charles City,VA,23030,,804-829-6600,http://www.cvhsinc.org,37.35271198,-77.07502253,HC
CVHSCharlotte,165 Legrande Ave,NA,Charlotte Court House,VA,23923,,434-542-5560,http://www.cvhsinc.org,37.05433857,-78.63698851,HC
CVHSCharlottesville,1101 E Jefferson St STE 1,NA,Charlottesville,VA,22902,,434-227-5624,http://www.cvhsinc.org,38.02945326,-78.47127451,HC
CVHSCharlottesvilleAdmin,901 Preston Ave STE 301,NA,Charlottesville,VA,22903,,434-227-5624,http://cvhsinc.org,38.03731633,-78.48860954,HC
CVHSChildren'sDental,17202 Richmond Tpke,NA,Milford,VA,22514,,804-633-5465,,38.02450069,-77.33964214,HC
CVHS-CrimsonClinic,3101 Johnson Rd,NA,Petersburg,VA,23805,,804-972-0068,,37.18570398,-77.39814498,HC
CVHSDowntownPetersburg,25 S Union St,NA,Petersburg,VA,23803,,434-581-4073,http://www.cvhsinc.org,37.22665075,-77.40442784,HC
CVHSFarmville,833 Buffalo St STE 200,NA,Farmville,VA,23901,,434-392-8177,http://www.cvhsinc.org,37.30431043,-78.40464911,HC
CVHSFredericksburg,1965 Emancipation Hwy STE 100,NA,Fredericksburg,VA,22401,,540-735-0560,http://cvhsinc.org,38.28498899,-77.48792245,HC
CVHSHopewell-PrinceGeorge,4260 Crossings Blvd STE 2,NA,Prince George,VA,23875,,804-452-5800,http://www.cvhsinc.org,37.25713666,-77.32616463,HC
CVHSKingWilliam,11814 King William Rd,NA,Aylett,VA,23009,,804-769-3022,http://www.cvhsinc.org,37.74744342,-77.13728012,HC
CVHSLouisa,115 Jefferson Hwy STE 9,NA,Louisa,VA,23093,,540-967-9401,http://www.cvhsinc.org,38.0152223,-77.98842056,HC
CVHSPetersburg,321 Poplar Dr STE C,NA,Petersburg,VA,23805,,804-733-5591,http://www.cvhsinc.org,37.18943083,-77.36286362,HC
CVHS -PetersburgRecovery,541 S Sycamore St,NA,Petersburg,VA,23803,,804-835-6100,http://www.cvhsinc.org,37.21925834,-77.40005077,HC
CVHSPeterson,800 Preston Ave,NA,Charlottesville,VA,22903,,434-979-0366,http://www.cvhsinc.org,38.03678077,-78.4883601,HC
CVHSSouthernAlbemarle,2256 Irish Rd,NA,Esmont,VA,22937,,434-286-3602,http://www.cvhsinc.org,37.81926087,-78.58248099,HC
CVHSWestmoreland,18849 Kings Hwy,NA,Montross,VA,22520,,804-493-9999,http://www.cvhsinc.org,38.07728443,-76.78219705,HC
"CynthiaBlainBettinger, ",408 W 31 Street,NA,Richmond,VA,23225,,804-310-7805,,37.5167,-77.4656,BUPREN
"CynthiaDavisBarker,NP",480 Mount Cross Rd,NA,Danville,VA,24540,PITTSYLVANIA,,,36.5954,-79.4275,BUPREN
"CynthiaReneeTaylor,FNP",255 Holston Rd,NA,Wytheville,VA,24382,WYTHE,276-227-0206,,36.9618,-81.0975,BUPREN
"CynthiaReneeTaylor,FNP",300 Valley St. NE,NA,Abingdon,VA,24210,WASHINGTON,423-631-0432,,36.7142,-81.9671,BUPREN
"CynthiaReneeTaylor,FNP",198 Ross Carter Blvd,NA,Duffield,VA,24244,SCOTT,276-690-7161,,36.719,-82.796,BUPREN
"CynthiaSueShively,NP",30 Technology Drive,NA,Rocky Mount,VA,24151,FRANKLIN,540-483-0582,,37.0155,-79.8928,BUPREN
"CynthiaWrightTalton, ",1970 Roanoke Boulevard,NA,Salem,VA,24153,SALEM,540-982-2463,,37.2745,-80.0199,BUPREN
DailyPlanetHealth,511 W Grace St,NA,Richmond,VA,23220,,804-783-2505,http://www.dailyplanetva.org,37.547516,-77.44736938,HC
"DanaMichelleHurtAdams,PA",100 Knotbreak Road,NA,salem,VA,24153,SALEM,540-444-5670,,37.2877,-80.0406,BUPREN
"DanielleC.Gange,NP",4509 Whitechapel Drive,NA,Virginia Beach,VA,23455,VIRGINIA BEACH CITY,757-460-4655,,36.8323,-76.1558,BUPREN
"DanielMartinBecker, ",University of Virginia Hospital/Dept of General Medicine,1215 Lee Street,Charlottesville,VA,22908,ALBEMARLE,434-924-1685,,38.0312,-78.4988,BUPREN
"DanielSolomonAgeze, ",Bold Health,"561 Saxony Place, Suite 101",Encinitas,CA,92024,HENRICO,425-344-3949,,37.6529,-77.5802,BUPREN
DanvillePittsylvaniaCommunityServs,111 Center Street,NA,Gretna,VA,24557,Pittsylvania,434-799-0456,http://www.dpcs.org,36.9532019,-79.3615379,MH
DanvillePittsylvaniaCommunityServs,245 Hairston Street,NA,Danville,VA,24540,Danville City,434-793-4931,http://www.dpcs.org,36.5971182,-79.4162761,SU
"DaphneC.Jenkins,NP",101 Medical CT STE 206,NA,Martinsburg,WV,25401,FAIRFAX,703-955-6695,,38.78,-77.149,BUPREN
"DavidJosephRoberts, ",215 Roanoke Street,NA,Christiansburg,VA,24073,MONTGOMERY,540-381-0820,,37.1299,-80.4022,BUPREN
"David MacDonald,DO",5885 W. River Road,NA,Salem,VA,22936,ROANOKE,540-378-3834,,37.2461,-80.176,BUPREN
"DavidMMercer,NP",680 Preddy Creek Road,NA,Barboursville,VA,22923,GREENE,434-882-4950,,38.1977,-78.3849,BUPREN
"DavidScottHungate,PA",5673 Airport Road,NA,Roanoke,VA,24012,ROANOKE,540-523-8080,,37.3238,-79.961,BUPREN
"DeborahCarolA.Jenkins, ",214 Park AvenueWise Va 24293,NA,Wise,VA,24293,WISE,276-220-3097,,36.9762,-82.5723,BUPREN
"DelindaKWoody, ",311 South Monroe St,NA,COVINGTON,VA,24426,AUGUSTA,540-965-2100,,38.1274,-79.0301,BUPREN
"Deniece Batichon,PA",736 North Battlefield Boulevard,NA,Chesapeake,VA,23508,CHESAPEAKE CITY,703-589-2660,,36.7457,-76.2464,BUPREN
"DeniseDeshiledsLester,MD",1201 Broad Rock Boulevard,McGuire VA Medical Center,Richmond,VA,23249,RICHMOND CITY,804-675-5188,,37.498,-77.4668,BUPREN
DepartmentOfVeteransAffairsMedicalCenter -OpioidAgonistTreatmentProgram,1201 Broad Rock Blvd.,NA,Richmond,VA,23249,,804 675-5000,,37.498729,-77.470193,OTP
DeptOfPsychAndBehavMedicine,2017 South Jefferson Street,NA,Roanoke,VA,24014,Roanoke City,540-981-7000,http://www.carilionclinic.org/,37.2502922,-79.9446888,SU
"DianeElizabethBoyer, ",Region Ten Community Services Board,800 Preston Avenue,Charlottesville,VA,22903,CHARLOTTESVILLE CITY,434-972-1781,,38.0076,-78.5201,BUPREN
DinwiddieCounselingServices,13900 Courthouse Road,Suite C,Dinwiddie,VA,23841,Dinwiddie,804-469-3746,http://www.d19csb.com,37.0807326,-77.5850965,MH
DinwiddieMedicalCenter,13855 Courthouse Rd,NA,Dinwiddie,VA,23841,,804-469-3731,,37.08205819,-77.58474081,HC
DiscoveryMoodAndAnxietyProgram,10416 Burke Lake Road,NA,Fairfax Station,VA,22039,Fairfax,877-514-4723,http://,38.7725064,-77.3054733,MH
District 19CommunityServicesBoard,20 West Bank Street,Suite 5,Petersburg,VA,23803,Petersburg City,804-862-8002,http://www.d19csb.com,37.2313949,-77.4054209,MH
"DonnaMarieBrown,NP",2505 pocoshock place,Suite 101,north chesterfield,VA,23235,CHESTERFIELD,804-349-4491,,37.4684,-77.5353,BUPREN
"DonnaMarieBrown,NP",4212 Park Place Court,NA,Glen Allen,VA,23060,HENRICO,804-332-5950,,37.6206,-77.5562,BUPREN
"Dr.AaronNathanHartman,M.D.",13911 St. Francis Boulevard,Suite 101,Midlothian,VA,23114,CHESTERFIELD,804-320-3999,,37.4665,-77.6627,BUPREN
"Dr.AbdallaIshagAdam,M.D.",6066 Leesburg Pike,Suite 620,Falls Church,VA,22041,FAIRFAX,703-637-9684,,38.8578,-77.1419,BUPREN
"Dr.AbdulLAmir,M.D.",5770 East Parham Road,Suite 208,Richmond,VA,23294,HENRICO,804-977-2728,,37.6297,-77.5191,BUPREN
"Dr.Abraham Asmamaw,M.D.",125  Hospital Center Drive,Suite 309,Stafford,VA,22554,STAFFORD,540-657-6304,,38.4152,-77.4072,BUPREN
"Dr.Abraham Asmamaw,M.D.",6138 Redwood Square,Suite 204,Centerville,VA,20121,FAIRFAX,703-229-5453,,38.8298,-77.4333,BUPREN
"Dr.Abraham Asmamaw,M.D.",5350  Shawnee Road,Suite 305,Alexandria,VA,22312,FAIRFAX,703-914-8050,,38.8066,-77.1672,BUPREN
"Dr.AhmedM.Damtew,M.D.",2501 PARKERS Lane,NA,Alexandria,VA,22306,FAIRFAX,703-660-8100,,38.7397,-77.077,BUPREN
"Dr.AhmedM.Damtew,M.D.",6910 RICHMOND HWY,NA,Suite 110,VA,22306,FAIRFAX,703-660-8100,,38.7678,-77.083,BUPREN
"Dr.AishatAinaShielu,M.D.",793 West Main,Suite 7,Abingdon,VA,24210,WASHINGTON,276-525-4091,,36.7052,-81.9979,BUPREN
"Dr.Ajay Manhapra,AjayManhapra",9652 27th Bay Street,NA,Norfolk,VA,23518,NORFOLK CITY,231-288-4848,,36.9287,-76.1849,BUPREN
"Dr.AlanM.Cooper,M.D.",Lynchburg Family Medicine Residency Program,"2323 Memorial Avenue, Ste 10",Lynchburg,VA,24501,LYNCHBURG CITY,434-200-5200,,37.3511,-79.0306,BUPREN
"Dr.AlkeshBhupendraGajjar,M.D.",2244 Executive Drive,NA,Hampton,VA,23666,HAMPTON CITY,757-827-3670,,37.0537,-76.3955,BUPREN
"Dr.AltaJDeRoo,M.D.",650 Laurel Street,Community Services Board - Behavioral Health,Culpeper,VA,22701,CULPEPER,540-825-5656,,38.456,-78.0145,BUPREN
"Dr.AmandaHainesRitter,MD",VCU HealthÂ Dept of OB/GYN,1250 E Marshall Street,Richmond,VA,23298,,804-628-7023,,37.5405,-77.4305,BUPREN
"Dr.AmandaNicoleCarrera-Alvarez,MD",Kaiser Permanente Burke Medical Center,5999 Burke Commons Road,Burke,VA,22015,FAIRFAX,703-249-7200,,38.7886,-77.2978,BUPREN
"Dr.AmenraF.Tuason,M.D.",McGuire VAMC,1201 Broad Rock Boulevard,Richmond,VA,23249,RICHMOND CITY,804-675-5000,,37.498,-77.4668,BUPREN
"Dr.AmyLeighBeyer, ",2611 Thomas Jefferson Parkway,NA,Palmyra,VA,22963,ALBEMARLE,434-423-4311,,38.069,-78.4819,BUPREN
"Dr.AndreaReneeCobb,MD",5060 Valley View Boulevard  NW,NA,Roanoke,VA,24012,ROANOKE,540-278-1051,,37.3092,-79.9699,BUPREN
"Dr.Andreea Adiaconitei,M.D.",Family Growth Center,"8000 Forbes Place, Suite 201",Springfield,VA,22151,FAIRFAX,703-425-9200,,38.8082,-77.2209,BUPREN
"Dr.AnilR.Hinnaria,M.D.",12486 Rose Path Circle,NA,Fairfax,VA,22033,FAIRFAX,571-594-1755,,38.8699,-77.3767,BUPREN
"Dr.AnilR.Hinnaria,M.D.",9512 B Lee Highway,NA,Fairfax,VA,22031,FAIRFAX,571-594-1755,,38.8679,-77.2736,BUPREN
"Dr.AnneHedgesHorst,MD",Marion Correctional Treatment Center,110 Wright street,Marion,VA,24354,SMYTH,804-773-8650,,36.8313,-81.509,BUPREN
"Dr.AnthonyL.Dragovich,M.D.",1802 Braeburn Drive,NA,Salem,VA,24153,SALEM,540-444-5670,,37.2633,-80.0312,BUPREN
"Dr.Antonio Castillo,M.D.",Calle 31 AE 20Urb. Interamericana,NA,Trujillo Alto,PR,976,TRUJILLO ALTO,787-212-9163,,38.8947,-77.0703,BUPREN
"Dr.Antony Fernandez,M.D.",7427 Brook Road,NA,Richmond,VA,23227,HENRICO,804-301-5186,,37.6249,-77.4576,BUPREN
"Dr.ArmandoJabariWyatt, ",2115 Executive Drive,NA,Hampton,VA,23666,HAMPTON CITY,757-826-0020,,37.0477,-76.3982,BUPREN
"Dr.Ashish Behl,M.D.",5589 Greenwich Road,Suite 175,Virginia Beach,VA,23462,VIRGINIA BEACH CITY,757-271-3146,,36.8427,-76.1801,BUPREN
"Dr.AshleyK.Miller,M.D.",43130 Amberwood Plaza,Suite 140,South Riding,VA,20152,LOUDOUN,703-348-0030,,38.9235,-77.51,BUPREN
"Dr.AshutoshB.Diwan,M.D.",Piedmont Family Practice,"493 Blackwell Road, Suite 202",Warrenton,VA,20186,FAUQUIER,540-341-1710,,38.7251,-77.7898,BUPREN
"Dr.AshutoshB.Diwan,M.D.",St. Jude's Recovery Center,112 E,Front Royal,VA,22630,WARREN,540-749-2040,,38.9182,-78.1944,BUPREN
"Dr.AshutoshB.Diwan,M.D.","Virginia Pain and Addiction Consultants, PLC",9309 Center St #101,Manassas,VA,20110,,703-828-6475,,38.7501,-77.4783,BUPREN
"Dr.AshutoshB.Diwan,M.D.",Winchester Addiction Services,3042 Valley Avenue Ste 110,Winchester,VA,22601,,540-450-2206,,39.1436,-78.1888,BUPREN
"Dr.AudreyMRushin,MD",8110 Gatehouse Road,NA,Falls Church,VA,22042,FAIRFAX,703-737-2110,,38.8696,-77.225,BUPREN
"Dr.AyeshaM.Mian,M.D.",1110 North Glebe Road,Suite 200,Arlington,VA,22201,ARLINGTON,703-261-4618,,38.8841,-77.1171,BUPREN
"Dr.AzharNiazRana,MD",201 Interstate Drive,NA,Covington,VA,24426,ALLEGHANY,540-962-1402,,37.7754,-79.9704,BUPREN
"Dr.AzharNiazRana,MD",2677 Steelsburgh Highway,Suite 5,Cedar Buff,VA,24609,TAZEWELL,276-345-9499,,37.0455,-81.7845,BUPREN
"Dr.BaljitSinghGill,MD",128 Chinquapin Orchard,NA,Yorktown,VA,23693,YORK,757-722-9961,,37.1287,-76.4169,BUPREN
"Dr.Banerje Koduru, ",3212 Cutshaw Avenue,NA,Richmond,VA,23230,RICHMOND CITY,804-353-3324,,37.5659,-77.4756,BUPREN
"Dr.Barnell Phillips,III,M.D.",Harm Reduction Center,2801 N Flagler Dr,West Palm Beach,FL,33407,PALM BEACH,561-400-4573,,37.0704,-76.3602,BUPREN
"Dr.BenjaminGuyWithers,M.D.",Fort Belvoir Community Hospital,9300 DeWitt Loop,Fort Belvoir,VA,22060,FAIRFAX,703-350-1219,,38.7056,-77.1434,BUPREN
"Dr.BenjaminO.Yarbrough,M.D.",Route 1,Box I-0,Meadville,MS,39653,FRANKLIN,601-384-3199,,37.2267,-77.4014,BUPREN
"Dr.BhagwanA.Bahroo,M.D.",Columbia Associates in Psychiatry,6760 Old McLean Village Drive,McLean,VA,22101,MONTGOMERY,301-400-2103,,38.9018,-77.1265,BUPREN
"Dr.BrendaSueWaller,M.D.",1935 Thomson Drive,NA,Lynchburg,VA,24501,LYNCHBURG CITY,434-528-0896,,37.4181,-79.1758,BUPREN
"Dr.Brian Meier,MD",1906 Belleview Avenue SE,NA,Roanoke,VA,24014,ROANOKE CITY,540-981-7000,,37.2517,-79.9411,BUPREN
"Dr.BrianPhilipMurray,M.D.",110 kingsley lane,suite 410,norfolk,VA,23505,,757-489-1215,,36.8985,-76.2808,BUPREN
"Dr.BrianPhilipMurray,M.D.",5715 Princess Anne Road,NA,Virginia Beach,VA,23462,VIRGINIA BEACH CITY,757-962-0748,,36.8399,-76.1839,BUPREN
"Dr.BrianWilliamHanrahan,M.D.",16006 Alsdell Road,NA,Midlothian,VA,23112,CHESTERFIELD,804-370-9288,,37.4798,-77.7084,BUPREN
"Dr.Bruce Mayer,MD",12695 McManus Boulevard,Building 2,Newport News,VA,23602,NEWPORT NEWS CITY,757-566-2045,,37.1411,-76.5129,BUPREN
"Dr.BruceRichardSelman,M.D.",1840 Amherst Street,NA,Winchester,VA,22604,WINCHESTER CITY,804-334-8688,,39.3103,-78.32,BUPREN
"Dr.CaitlinEMartin, ",VCU Health MOTIVATE Clinic at Jackson Center,501 N 2nd St #100,Richmond,VA,23219,GOOCHLAND,804-628-6777,,37.54,-77.4297,BUPREN
"Dr.CalebCliftonPagliasotti,MD",1970 Roanoke Blvd,NA,Salem,VA,24153,SALEM,540-982-2463,,37.2503,-79.9447,BUPREN
"Dr.CarolinaA.Klein,MD",3850 Elmwood Towne Way,NA,Alexandria,VA,22303,FAIRFAX,202-596-9585,,38.802,-77.0998,BUPREN
"Dr.CarolineVictoriaCoster,MD",10299 Woodman Road,NA,Glen Allen,VA,26060,HENRICO,804-727-8500,,37.654,-77.4936,BUPREN
"Dr.Catherine Bagley,MD",7603 Forest Avenue,Suite 207,Richmond,VA,23229,HENRICO,804-523-3712,,37.6045,-77.5401,BUPREN
"Dr.CessarLeniaScott,M.D.",Burke Medical Center,5999 Burke Commons Road,Burke,VA,22015,FAIRFAX,703-249-7213,,38.7886,-77.2978,BUPREN
"Dr.ChannavajjalaM.Prasad,M.D.",611 South Carlin Springs Road,Suite 301,Arlington,VA,22204,ARLINGTON,703-578-0600,,38.8594,-77.1264,BUPREN
"Dr.CharlesAldwinMiddelhof, ",640 Warrior Drive,Suite 109,Stephens City,VA,22655,FREDERICK,540-868-2511,,39.0906,-78.1795,BUPREN
"Dr.CharlesNathanWebb,M.D.",VCU Medical Center / Women's Health at Nelson Clinic,1101 East Marshall St  # 980034,Richmond,VA,23298,RICHMOND CITY,804-828-4409,,37.5433,-77.4293,BUPREN
"Dr.Cherian Joseph,M.D.",10 Leeland Road,Suite 104,Fredericksburg,VA,22407,SPOTSYLVANIA,540-242-4141,,38.33,-77.4351,BUPREN
"Dr.ChidehaMacDonaldOhuoha,M.D.",9300 Dewitt Circle,NA,Fort Belvoir,VA,22060,FAIRFAX,301-997-0125,,38.7056,-77.1434,BUPREN
"Dr.ChristineLeeanneYoung,MD",1906 Belleview Drive SE,NA,Roanoke,VA,24014,,540-597-7931,,37.2513,-79.9419,BUPREN
"Dr.ChristineMauraDaly,MD",8452 Renalds Avenue,NA,Marshall,VA,20115,FAUQUIER,571-236-0602,,38.8633,-77.852,BUPREN
"Dr.ChristopherAlanSendi,MD",8101 Hinson Farm Rd.,Suite 201,Alexandria,VA,22306,ALEXANDRIA CITY,703-844-0184,,38.7371,-77.0772,BUPREN
"Dr.ChristopherLivingstoneGibert,M.D.",101 North Lynnhaven Road,Suite 100,Virginia Beach,VA,23452,VIRGINIA BEACH CITY,757-321-0795,,36.8395,-76.0692,BUPREN
"Dr.ChristopherPeterHolstege, ",1215 Lee Street,NA,Charlottesville,VA,22903,CHARLOTTESVILLE CITY,434-924-5185,,38.0312,-78.4988,BUPREN
"Dr.Christopher Schubert,MD","1765 Greensboro Station Place, Suite 900",NA,McLean,VA,22102,FAYETTE,703-539-2675,,38.9223,-77.2336,BUPREN
"Dr.CindyYihongZhang,M.D.",6120 Brandon Avenue,Suite 201,Springfield,VA,22150,FAIRFAX,703-923-9536,,38.7837,-77.1823,BUPREN
"Dr.ClaudeLeRoyColeman,M.D.",1319 Spratley Street,NA,Portsmouth,VA,23704,PORTSMOUTH CITY,757-656-4628,,36.8439,-76.3151,BUPREN
"Dr.ColleenA.Blanchfield,M.D.",11490 Commerce Park Drive Suite 420,NA,Reston,VA,20191,FAIRFAX,703-481-9111,,38.9463,-77.3429,BUPREN
"Dr.ColleenA.Blanchfield,M.D.",11150 Sunset Hills,NA,Reston,VA,20190,FAIRFAX,703-481-9111,,38.9481,-77.3304,BUPREN
"Dr.ConstantineNjomoChienku,MD",8708  SUDLEY ROAD,NA,MANASSAS,VA,20110,MANASSAS CITY,703-361-4357,,38.7669,-77.4851,BUPREN
"Dr.CraigAllanRoss,M.D.",4601 Ironbound Road,NA,Williamsburg,VA,23188,YORK,757-253-5161,,37.2902,-76.7353,BUPREN
"Dr.CraigMunCongSharkey,MD",736 N Battlefield Boulevard,NA,Chesapeake,VA,23320,CHESAPEAKE CITY,757-312-6200,,36.7463,-76.2458,BUPREN
"Dr.CraigStevenHayek,M.D.",956 Ferryman Quay,NA,Chesapeake,VA,23323,CHESAPEAKE CITY,757-404-1142,,36.7619,-76.3266,BUPREN
"Dr.CraigW.Swainey,M.D.","204 N. Hamilton Street, Suite B",NA,Richmond,VA,23221,HENRICO,804-353-1230,,37.6206,-77.5562,BUPREN
"Dr.DanaScottBarlow,M.D.",928 East 5th Street North,NA,Big Stone Gap,VA,24219,WISE,276-524-1906,,36.876,-82.7805,BUPREN
"Dr.Daniel Halpert,D.O.",2002 Orange Road,Ste 201,Culpeper,VA,22701,CULPEPER,540-423-6239,,38.4542,-78.0017,BUPREN
"Dr.DanielJ.Noonan,M.D.",3917 Blenheim Boulevard,Unit 11D,Fairfax,VA,22030,FAIRFAX,703-691-4000,,38.8469,-77.3021,BUPREN
"Dr.DanteGaceroRichardson,MD",3033 Wilson Blvd.,STE 700,Arlington,VA,22201,ARLINGTON,703-558-9148,,38.8882,-77.0945,BUPREN
"Dr.DanteGaceroRichardson,MD",3033 Wilson Blvd STE 700,NA,Arlington,VA,22201,ARLINGTON,703-558-9148,,38.8882,-77.0945,BUPREN
"Dr.DaoQuynhLuong, ",Greensville Correctional Center,901 Correction Way,Jarratt,VA,23870,GREENSVILLE,434-602-3138,,36.7968,-77.4828,BUPREN
"Dr.DarinLeeChristensen,M.D.",19 Briar Knoll Court,Unit #1,Fishersville,VA,22939,AUGUSTA,540-949-0955,,38.079,-78.9887,BUPREN
"Dr.DarrellKevinBlackwell,D.O.",1490 Park Avenue NW,Suite 5,Norton,VA,24273,NORTON CITY,276-679-8869,,36.9304,-82.6408,BUPREN
"Dr.DarrenSteeleBeasley,MD",Right Path Treatment Centers,101 N Lynnhaven Road Ste 100,Virginia Beach,VA,23452,VIRGINIA BEACH CITY,757-264-9957,,36.8395,-76.0692,BUPREN
"Dr.DavidGeoffreyAllingham,M.D.",2915 Hunter Mill Road,Suite 11,Oakton,VA,22124,FAIRFAX,703-255-1190,,38.8823,-77.3005,BUPREN
"Dr.DavidHallmarkRyan,MD",2577 West Fifth Street,NA,Greenville,NC,27834,BEAUFORT,252-830-3426,,37.5483,-77.4366,BUPREN
"Dr.DavidJ.Dalrymple,M.D.",165 Peppers Ferry Road,NA,Wytheville,VA,24382,WYTHE,276-223-5400,,36.9548,-81.0777,BUPREN
"Dr.DavidKeithLangille,M.D.",Right Path Treatment Center,11745 Jefferson Avenue Unit #7,Newport News,VA,23606,NEWPORT NEWS CITY,757-913-5920,,37.082,-76.4809,BUPREN
"Dr.DavidW.Hartman,M.D.",Carilion Behavioral Health Psychiatric,"2017 South Jefferson, 2nd Floor",Roanoke,VA,24014,ROANOKE CITY,540-981-8025,,37.2499,-79.9446,BUPREN
"Dr.DavidWMunter,MD",812 Poplar Forest Court,NA,Chesapeake,VA,23322,VIRGINIA BEACH CITY,757-264-9957,,36.6922,-76.2813,BUPREN
"Dr.DebraWalkerO'Beirne,M.D.",4213 Walney Road,NA,Chantilly,VA,20151,FAIRFAX,703-502-7000,,38.8883,-77.4325,BUPREN
"Dr.Deepak Mittal,M.D.",2252 Souverain Lane,NA,Virginia Beach,VA,23454,VIRGINIA BEACH CITY,757-271-3146,,36.8847,-76.0428,BUPREN
"Dr.DennisLeeThomas,M.D.",2500 New Kent Highway,NA,Quinton,VA,23141,NEW KENT,804-932-4388,,37.5207,-77.1871,BUPREN
"Dr.DennisT.Cozzens,M.D.",4349 Ridgewood Center Drive,Suite 101,Woodbridge,VA,22192,PRINCE WILLIAM,703-897-8970,,38.6727,-77.3396,BUPREN
"Dr.DennisT.Cozzens,M.D.",1707 Osage Street,Suite 404,Alexandria,VA,22302,ALEXANDRIA CITY,703-824-8248,,38.8285,-77.0853,BUPREN
"Dr.DennyRayGoss,II,MD",388 Ben Bolt Avenue,NA,Tazewell,VA,24651,TAZEWELL,276-988-8777,,37.1239,-81.4892,BUPREN
"Dr.DierichMarkKaiser,D.O.",16000 Tryon Way,NA,Gainesville,VA,20155,PRINCE WILLIAM,703-895-6027,,38.778,-77.6489,BUPREN
"Dr.Donald Holzer,M.D.",3315 High Street,NA,Portsmouth,VA,23707,PORTSMOUTH CITY,757-399-0755,,36.834,-76.3427,BUPREN
"Dr.DouglasA.Brown,MD","5000 New Point Road., #3201",NA,Williamsburg,VA,23188,JAMES CITY,757-645-3558,,37.3091,-76.7527,BUPREN
"Dr.DouglasA.Brown,MD","5000 New Point Road, #3201",NA,Williamsburg,VA,23188,YORK,757-645-3558,,37.2707,-76.7075,BUPREN
"Dr.DouglasArthurSturm,DO",9320 Lee Avenue,NA,Manassas,VA,20110,PRINCE WILLIAM,540-741-1167,,38.7526,-77.4794,BUPREN
"Dr.DuaneEdwardDixon,M.D.",103 Clifton Street,Suite B,Lynchburg,VA,24501,LYNCHBURG CITY,434-528-4640,,37.4148,-79.1795,BUPREN
"Dr.DucKienTrieu,MD","1020 Bill Tuck Hwy, STE 900",NA,South Boston,VA,24592,HALIFAX,434-572-8921,,36.713,-78.9138,BUPREN
"Dr.DucKienTrieu,MD","7004 Little River Turnpike, Suite H",NA,Annandale,VA,22003,FAIRFAX,703-997-6677,,38.8296,-77.186,BUPREN
"Dr.EdnaE.Ekuban-Gordon,M.D.",Memorial Hospital Martinsville,142 south main street,danville,VA,24541,MARTINSVILLE CITY,336-669-7043,,36.6988,-79.8672,BUPREN
"Dr.EdwardCarpenterDillon,M.D.",3819 Danewood Drive,NA,Richmond,VA,23233,HENRICO,804-304-4080,,37.6483,-77.6284,BUPREN
"Dr.EdwardIsaacGelber,MD",Gelber Psychiatric Associates,1483 Chain Bridge Road Suite 304,McLean,VA,22101,FAIRFAX,703-650-9706,,38.9312,-77.1809,BUPREN
"Dr.Ehsan Abdeshahian,M.,D.",1802 augustine ave,NA,frederickburg,VA,22401,,,,38.303,-77.4799,BUPREN
"Dr.Ehsan Abdeshahian,M.,D.",3046 valley ave #100,NA,winchester,VA,22601,,,,39.1433,-78.1895,BUPREN
"Dr.ElizabethAnneYager, ",2900 Tyler Road,NA,Christiansburg,VA,24073,MONTGOMERY,540-731-7311,,37.0995,-80.5089,BUPREN
"Dr.ElizabethKathleenCollumb,MD",100 Emancipation Drive,HAMVAMC Psychiatry,Hampton,VA,23667,NORFOLK CITY,757-722-9961,,36.8603,-76.3036,BUPREN
"Dr.Elizabeth Rosner,MD",5999 Burke Commons Road,NA,Burke,VA,22015,FAIRFAX,703-249-7253,,38.7886,-77.2978,BUPREN
"Dr.Elizabeth Suh,MD",1200 N Howard Street,NA,Alexandria,VA,22304,,703-535-5568,,38.8218,-77.1055,BUPREN
"Dr.EricLloydJones,MD",1729 Wildwood Drive,Suite 103,Virginia Beach,VA,23454,NORFOLK CITY,757-938-3654,,36.8529,-76.2743,BUPREN
"Dr.EricLloydJones,MD","1729 Wildwood Dr. , Suite 103",NA,Virginia Beach,VA,23454,,757-938-3654,,36.8613,-76.0261,BUPREN
"Dr.ErikWGunderson,M.D.","Center for Wellness and Change, LLC",1007 E High Street,Charlottesville,VA,22902,CHARLOTTESVILLE CITY,434-202-8612,,38.032,-78.4702,BUPREN
"Dr.ErinAndreaKoscinski,DO",20083 Heron Circle,NA,Abingdon,VA,24211,WASHINGTON,570-417-4191,,36.6522,-81.9232,BUPREN
"Dr.EstherS.Ajjarapu,M.D",507 West Main Street,NA,Appalachia,VA,24216,WISE,276-565-2760,,36.9042,-82.7841,BUPREN
"Dr.EstherS.Ajjarapu,M.D",213 Monarch Road,NA,Saint Charles,VA,24282,LEE,276-383-4428,,36.8059,-83.0562,BUPREN
"Dr.EverettKirkLuder,MD",241 Greenhouse RD,RACSB,Lexington,VA,24450,ROCKBRIDGE,540-463-3141,,37.8043,-79.4253,BUPREN
"Dr.FarookA.Shaikh,M.D.",INOVA CATS,3300 Gallows Rd,Falls Church,VA,22042,FAIRFAX,703-776-7782,,38.8599,-77.2262,BUPREN
"Dr.Fessehaie Tekle, ",12388 Warwick Boulevard,Suite 302,Newport News,VA,23606,NEWPORT NEWS CITY,757-679-6058,,37.0675,-76.4916,BUPREN
"Dr.Fnu Nutan,MD",VCU Hospital,1250 E Marshall Street,Richmond,VA,23219,RICHMOND CITY,804-827-1081,,37.54,-77.4297,BUPREN
"Dr.FrancesseDorvilBataille,MD",3771 Fettler Park Drive,NA,Dumfries,VA,22026,PRINCE WILLIAM,703-441-1905,,38.5794,-77.3284,BUPREN
"Dr.FrancisD.Andres,MD",Dept. Psychiatry Inova Fairfax Hospital,"8500 Executive Park Avenue, Suite 202",Fairfax,VA,22031,FAIRFAX,703-852-7020,,38.8677,-77.2378,BUPREN
"Dr.FrederickGerardMoeller,M.D.",501 North Second Street,Suite 100,Richmond,VA,23219,RICHMOND CITY,804-828-4134,,37.5465,-77.438,BUPREN
"Dr.Gagandeep Khurana,MD",8101 Hinson Farm Road,Suite 214,Alexandria,VA,22306,FAIRFAX,703-386-6899,,38.7371,-77.077,BUPREN
"Dr.Gagandeep Singh,M.D.",New River Community Services,700 University Boulevard,Blacksburg,VA,24060,MONTGOMERY,540-961-8300,,37.2331,-80.4311,BUPREN
"Dr.GarlandVestalGreene,III,M.D.",755 Thimble Shoals Boulevard,Suite C,Newport News,VA,23606,NEWPORT NEWS CITY,757-814-3038,,37.0798,-76.4764,BUPREN
"Dr.Gatachew Woldeher,MD",2765 Jefferson Davis Highway,Suite 109,Stafford,VA,22554,STAFFORD,540-657-9191,,38.4552,-77.4066,BUPREN
"Dr.Gatachew Woldeher,MD",85 South Bragg Street,Suite 100,Alexandria,VA,22312,FAIRFAX,703-845-0700,,38.8152,-77.1424,BUPREN
"Dr.GebrehanaW.Zebro,MD",2629 Riva Road,NA,Annapolis,MD,21401,FAIRFAX,443-481-5400,,38.7795,-77.1499,BUPREN
"Dr.GeorgeM.Baylor,M.D.",1802 Braeburn Drive Suite 3C10,NA,Salem,VA,24153,SALEM,540-444-5670,,37.2877,-80.0406,BUPREN
"Dr.GeorgeM.Bright,M.D.",13821 Village Mill Drive,Suite B,Midlothian,VA,23114,CHESTERFIELD,804-378-9006,,37.5027,-77.657,BUPREN
"Dr.GeorgeOliverHalstead,M.D.",284 Blevins Boulevard,NA,Bristol,VA,24202,BRISTOL CITY,276-285-3911,,36.6304,-82.1504,BUPREN
"Dr.GeorgesMantovaniGay, ",9500 Courthouse Road,NA,Chesterfield,VA,23832,CHESTERFIELD,804-748-1275,,37.3851,-77.5134,BUPREN
"Dr.GeraldineJoyceVallesteros,M.D.",4000 Murray Place,NA,Lynchburg,VA,24501,LYNCHBURG CITY,434-439-3283,,37.3831,-79.1662,BUPREN
"Dr.GeraldK.Lee,M.D.",8551 RIXLEW LANE STE 140,NA,Manassas,VA,20109,MANASSAS CITY,703-361-4357,,38.7509,-77.4753,BUPREN
"Dr.GeranameoVladimirBullock, ",156 Strawberry Plains Road,Ste A,Williamsburg,VA,23188,YORK,757-208-0509,,37.2726,-76.7378,BUPREN
"Dr.GeranameoVladimirBullock, ",1313 Jamestown Road,Suite 104,Williamsburg,VA,23185,WILLIAMSBURG CITY,757-208-0509,,37.2513,-76.737,BUPREN
"Dr.GregoryJamesPleasants,MD",5500 Monument Avenue,Suite B,Richmond,VA,23226,RICHMOND CITY,804-533-1330,,37.5396,-77.4377,BUPREN
"Dr.GregoryMarcWeiss,MD",504 Wilborn Avenue,5th Floor,South Boston,VA,24592,HALIFAX,434-517-3913,,36.6989,-78.9017,BUPREN
"Dr.HamidS.Assadi,M.D.",2555 Chain Bridge Road,NA,Vienna,VA,22181,FAIRFAX,703-261-6550,,38.8924,-77.276,BUPREN
"Dr.Harish Goyal,MD",INSPIRE BEHAVIORAL HEALTH,2110 GALLOWS ROAD STE D,VIENNA,VA,22182,FAIRFAX,703-755-0020,,38.9044,-77.2234,BUPREN
"Dr.HaroldT.Green,Jr.",2421 Chamberlayne Avenue,NA,Richmond,VA,23222,RICHMOND CITY,804-329-8510,,37.5652,-77.4437,BUPREN
"Dr.Haroon Rashid,M.D.",320 23rd Street South,STE 200,Arlington,VA,22202,ARLINGTON,703-558-4922,,38.8433,-77.0508,BUPREN
"Dr.Hasan Badday,M.D.",16405 Sand Canyon Ave Suite 215,215,Irvine,CA,92618,ARLINGTON,949-485-4257,,38.8867,-77.0844,BUPREN
"Dr.HeidiAmandaKulberg,MD",Meridian Psychotherapy,4509 Whitechapel Drive,Virginia Beach,VA,23455,,757-460-4655,,36.8617,-76.1306,BUPREN
"Dr.Himanshu Patel,M.D.",400 East Burwell Street,NA,Salem,VA,24153,SALEM,540-387-3105,,37.2919,-80.0528,BUPREN
"Dr.Ijaz Rasul, ",19465 Deerfield Avenue,Suite 205,Lansdowne,VA,20176,LOUDOUN,919-297-2930,,39.0787,-77.4812,BUPREN
"Dr.IvorNormanPurchas,MD",3356 Western Branch Boulevard,Suite F,Chesapeake,VA,23321,CHESAPEAKE CITY,757-673-3644,,36.866,-76.4145,BUPREN
"Dr.Jalal Taslimi,MD",Deep Meadow Correctional Facility,3500 Woods Way,State Farm,VA,23160,POWHATAN,804-372-4313,,37.6222,-77.8498,BUPREN
"Dr.James Abrokwah,MD",Full Care Medical Center,163 Number Ten Street,Clinchco,VA,24226,DICKENSON,276-835-1122,,37.1678,-82.3591,BUPREN
"Dr.JamesEdwardThompson,M.D.",Virginia Center for Addiction Medicine,4212 Park Place Court,Glen Allen,VA,23060,HENRICO,804-332-5950,,37.6206,-77.5562,BUPREN
"Dr.JamesFloydAllen,D.O.",5267 Greenwich Rd,Suite 100,Virginia Beach,VA,23462,VIRGINIA BEACH CITY,757-552-0884,,36.8402,-76.1646,BUPREN
"Dr.JamesFraustoDeVoe,MD",Pain Care Center Madison Heights,4262 Amherst Highway,Madison Heights,VA,24572,AMHERST,434-528-4640,,37.4601,-79.1201,BUPREN
"Dr.JamesHowardCane,Sr",4317 East Parham Road,NA,Henrico,VA,23228,HENRICO,804-501-5545,,37.6287,-77.5164,BUPREN
"Dr.JamesM.DeSimone,MD",306 Garrisonville Road Street,Unit 102,Stafford,VA,22554,STAFFORD,540-658-9340,,38.4239,-77.4074,BUPREN
"Dr.JamesStewartReinhard,M.D.",226 Clay Drive,NA,Punding Mill,VA,24637,TAZEWELL,276-345-9325,,37.0647,-81.7408,BUPREN
"Dr.JannLeighHolwick,M.D.",1095 N Franklin St,NA,Christiansburg,VA,24073,MONTGOMERY,304-647-0677,,37.22,-80.4514,BUPREN
"Dr.JanPaulFruiterman,M.D.",6138 Redwood Square Centre,Suite 204,Centreville,VA,20121,FAIRFAX,703-691-4141,,38.8298,-77.4333,BUPREN
"Dr.JasonDeanKirby,DO",1516 Harmon St,NA,Norfolk,VA,23518,,757-231-7865,,36.9158,-76.2329,BUPREN
"Dr.JawadW.Bhatti,M.D.",7025 Old Jahnke Road,NA,Richmond,VA,23225,RICHMOND CITY,804-302-8572,,37.5162,-77.5244,BUPREN
"Dr.Jayashree Ravishankar, ","5855 Bremo Road, MOB North",Suite 306,Richmond,VA,23226,HENRICO,804-287-7650,,37.5736,-77.5218,BUPREN
"Dr.JeffersonMauriceSommers,M.D.",905 Southlake Boulevard,Suite C,Richmond,VA,23236,CHESTERFIELD,804-419-0492,,37.5055,-77.5973,BUPREN
"Dr.JeffreyD.Dodd,M.D.",2891 Anderson Highway,NA,Powhatan,VA,23139,POWHATAN,804-897-1259,,37.5277,-77.8481,BUPREN
"Dr.JenniferAllisonRoss,MD",2 Brookline Place,NA,Brookline,MA,2445,CHARLOTTESVILLE CITY,434-924-5185,,38.0319,-78.4992,BUPREN
"Dr.JenniferAnnJonkers,MD",322 East Valley Street,NA,Abingdon,VA,24210,WASHINGTON,276-628-1106,,36.7142,-81.9668,BUPREN
"Dr.JenniferLeighTermeer,MD",9576 Thornecrest Drive,NA,Mechanicsville,VA,23116,HANOVER,661-992-0113,,37.6698,-77.4015,BUPREN
"Dr.Jennifer Oldham,MD",800 Preston Avenue,NA,Charlottesville,VA,22903,CHARLOTTESVILLE CITY,434-972-1889,,38.0364,-78.4888,BUPREN
"Dr.JennyLynn-FrierdichAndrus,M.D.",250 Nat Turner Boulevard,NA,Newport News,VA,23606,NEWPORT NEWS CITY,757-596-1900,,37.086,-76.4876,BUPREN
"Dr.Jianyi Zhang,M.D.",900 South Washington Street,Suite 112,Falls Church,VA,22046,FALLS CHURCH CITY,540-551-5993,,38.8793,-77.183,BUPREN
"Dr.JitendraS.Desai,M.D.,F.A.P.A.","Avenues to Recovery, Inc.","20 Walnut Avenue, SW",Roanoke,VA,24016,ROANOKE CITY,540-344-3400,,37.2611,-79.9426,BUPREN
"Dr.JoelWayneMatch,M.D.",8805 Sudley Road,Second Floor,Manassas,VA,20110,MANASSAS CITY,571-398-6685,,38.7542,-77.4941,BUPREN
"Dr.JoelWayneMatch,M.D.",1346 Old Bridge Road,Suite 101,Woodbridge,VA,22192,PRINCE WILLIAM,571-398-6685,,38.675,-77.2575,BUPREN
"Dr.JoelWayneMatch,M.D.",11202 LEE HWY,Suite B1,FAIRFAX,VA,22030,FAIRFAX,571-398-6685,,38.8528,-77.3316,BUPREN
"Dr.Joginder Pal,M.D.","1545 Crossways Blvd,",NA,Chesapeake,VA,23320,CHESAPEAKE CITY,757-498-3314,,36.7799,-76.2389,BUPREN
"Dr.Joginder Pal,M.D.",4356 Bonney Road,Suite 101,Virginia Beach,VA,23452,VIRGINIA BEACH CITY,757-498-3314,,36.8373,-76.1254,BUPREN
"Dr.John BuAbbud,MD",440 Monticello Avenue,Suite 1802,Norfolk,VA,23510,ROANOKE,540-755-0098,,37.2335,-80.0198,BUPREN
"Dr.John Chardavoyne,M.D.",Bright Heart Health,12020 Sunrise Valley Dr,Reston,VA,20191,FAIRFAX,,,38.9488,-77.3632,BUPREN
"Dr.JohnDamonAllen,D.O.","NMCP, Physical Medicine & Rehabilitation",620 John Paul Jones Circle,Portsmouth,VA,23708,PORTSMOUTH CITY,757-953-2821,,36.8441,-76.3047,BUPREN
"Dr.JohnD.Gazewood,MD",Lee Street,UVA Health System Family Medicine,Charlottsville,VA,22908,ALBEMARLE,14349824162,,38.0312,-78.4969,BUPREN
"Dr.JohnF.Riedler,M.D.",Virginia Behavioral Medicine PLLC,"1301 First Colonial Road, Suite 200",Virginia Beach,VA,23454,VIRGINIA BEACH CITY,757-222-1230,,36.869,-76.0326,BUPREN
"Dr.JohnL.Bulette,M.D.",10150 Rogers Drive,NA,Nassawadox,VA,23413,NORTHHAMPTON,757-442-2504,,37.4764,-75.8598,BUPREN
"Dr.JohnM.Pitman,III",731 Thimble Shoals Boulevard,Suite 703,Newport News,VA,23606,NEWPORT NEWS CITY,757-229-5200,,37.0841,-76.4685,BUPREN
"Dr.JohnP.D.Shemo,M.D.",1228 Cedars Court,Suite 103,Charlottesville,VA,22903,CHARLOTTESVILLE CITY,434-984-6777,,38.0562,-78.5005,BUPREN
"Dr.JonathanChuang-YienLee,MD",5477 Mooretown Road,NA,Williamsburg,VA,23188,YORK,757-565-0106,,37.314,-76.7311,BUPREN
"Dr.JonathanTylerSchaaf, ",1807 Huguenot Road,Suite 117,Midlothian,VA,23113,CHESTERFIELD,804-506-0526,,37.5132,-77.5242,BUPREN
"Dr.JorgeRodolfoMinera,M.D.",493 Blackwell Road,Suite 202,Warrenton,VA,20186,FAUQUIER,540-347-4400,,38.7251,-77.7898,BUPREN
"Dr.JosephParimalGurrala,MD",8133 Leesburg Pike,Suite 510,Vienna,VA,22180,FAIRFAX,571-230-4831,,38.9152,-77.2273,BUPREN
"Dr.JosephS.Schwartzer,M.D.",Norfolk Community Services Board,3755 East Virginia Beach Boulevard,Norfolk,VA,23502,NORFOLK CITY,757-664-7699,,36.855,-76.2332,BUPREN
"Dr.JosephWahebIskandar,D.O.","2774 Electric RD, Suite A",NA,Roanoke,VA,24018,ROANOKE,540-344-5100,,37.2612,-79.9427,BUPREN
"Dr.JoshuaAaronWeiner,M.D.",1317 VINCENT PLACE,NA,McLean,VA,22101,FAIRFAX,703-288-9545,,38.9367,-77.1795,BUPREN
"Dr.Juanita Garrett,M.D.",2301 Hilliard Road,Suite 2,Henrico,VA,23228,HENRICO,804-262-8228,,37.6167,-77.4738,BUPREN
"Dr.KanchanPClark,MD",15941 Donald Curtis Drive,NA,Woodbridge,VA,22191,PRINCE WILLIAM,703-792-4922,,38.6083,-77.2956,BUPREN
"Dr.KanwarAjitSinghSidhu,M.D.",12325 Countryview Drive,NA,Glen Allen,VA,23059,HENRICO,304-993-8765,,37.6949,-77.6279,BUPREN
"Dr.KanwarAjitSinghSidhu,M.D.","Department of Behavioral Health, HHM VA",1201 Broad Rock Boulevard,Richmond,VA,23249,RICHMOND CITY,804-675-5000,,37.4978,-77.4669,BUPREN
"Dr.KarlChesterLewis,M.D.",The Laurels of Southwest Virginia,PO Box 1664,Lebanon,VA,24266,RUSSELL,276-889-3063,,36.9031,-82.0762,BUPREN
"Dr.KatherineNollerTyson,MD",1101 East Marshall Street,"11th Floor, Room 11-027",Richmond,VA,23298,,804-628-7023,,37.5402,-77.4313,BUPREN
"Dr.KathleenS.Kelley,MD","Spero Health of Virginia, LLC","2303 North Augusta Street, Suite B",Staunton,VA,24401,,540-779-7524,,38.1675,-79.0553,BUPREN
"Dr.KathrynMarieSteele,MD",Roanoke Memorial Hospital,1906 Belleview Avenue SE,Roanoke,VA,24014,ROANOKE CITY,540-819-6358,,37.2516,-79.9425,BUPREN
"Dr.KavianSadeghzadeMilani,MD",9401 Lee Highway,#400,Fairfax,VA,22031,FAIRFAX,703-383-4836,,38.8681,-77.2712,BUPREN
"Dr.Kenneth Brown,M.D.",Affinity Healthcare Group,600 Jefferson Avenue,Newport News,VA,23605,,757-933-2660,,37.0871,-76.473,BUPREN
"Dr.KennethEdwardFore,II,MD",18697 Forest Road,NA,Lynchburg,VA,24502,BEDFORD,434-239-9755,,37.3849,-79.2413,BUPREN
"Dr.Kevin Armstrong,M.D.",Horizon Behavioral Health OBOT Program,620 Court St,Lynchburg,VA,24504,LYNCHBURG CITY,434-455-2042,,37.4157,-79.1455,BUPREN
"Dr.KhinT.Maw,MD",6431 Sleepy Ridge Road,NA,Falls Church,VA,22042,FAIRFAX,17032161421,,38.8544,-77.1692,BUPREN
"Dr.KhusroYousufArastu,M.D.",22 A Ricketts Drive,NA,Winchester,VA,22601,WINCHESTER CITY,540-535-1112,,39.1656,-78.1732,BUPREN
"Dr.KimberlyLynnAbel,MD",Carilion Roanoke Memorial Hospital Emergency Department,1906 Belleview Avenue SE,Roanoke,VA,24014,ROANOKE CITY,540-581-0338,,37.2516,-79.9425,BUPREN
"Dr.KimberlyPalmerSimcox,D.O.",2900 Lamb Circle,Suite 202,Christiansburg,VA,24073,MONTGOMERY,540-731-4578,,37.0886,-80.5055,BUPREN
"Dr.Kirk Cumpston,DO",1250 E Marshall,"PO Box 980401, Virginia Commonwealth University Medical Center",Richmond,VA,23298,RICHMOND CITY,804-628-3465,,37.54,-77.4297,BUPREN
"Dr.K.LeGreeHallman,MD",4509 White Chapel Drive,NA,Virginia Beach,VA,23455,VIRGINIA BEACH CITY,757-460-4655,,36.8618,-76.1302,BUPREN
"Dr.KristinOrrBresowar,M.D.",308 West Main Street,NA,Saltville,VA,24370,SMYTH,276-496-4433,,36.8764,-81.7692,BUPREN
"Dr.KunalT.Joshi,M.D.","706 Campbell Avenue, SW",NA,Roanoke,VA,24018,ROANOKE,540-400-7841,,37.2264,-79.979,BUPREN
"Dr.LarryH.Pastor,M.D.","SaVida Health Woodbridge, Virginia","4001 Prince William PKWY, Suite 300",Woodbridge,VA,22192,PRINCE WILLIAM,703-214-5825,,38.6653,-77.3315,BUPREN
"Dr.LauraM.Wolfe,MD",PINNACLE TREATMENT CENTER,8500 AL PHILPOTT HWY STE 3,MARTINSVILLE,VA,24112,SWAIN,,,36.6934,-79.8305,BUPREN
"Dr.LaurenPateLehmann,M.D.",2152 WOODLAND PINE DR,NA,Conroe,TX,77384,SALEM,540-580-0123,,37.2632,-80.0316,BUPREN
"Dr.LelandCarpenterStillman, ",2801 Boulevard,Suite D,Colonial Heights,VA,23834,,804-733-3333,,37.2666,-77.4114,BUPREN
"Dr.LeopoldG.Campbell,M.D.",2222 Electric Rd,Ste 208,Roanoke,VA,24018,ROANOKE,540-492-4954,,36.5863,-79.3856,BUPREN
"Dr.LeopoldG.Campbell,M.D.",Associates in Brief Therapy,4346 Starkey Rd,Roanoke,VA,24018,ROANOKE,540-772-8043,,36.5763,-79.4052,BUPREN
"Dr.Leslie Parsons,D.O",SWVMHI,340 Bagley Circle,Marion,VA,24354,SMYTH,276-783-1200,,36.8315,-81.5102,BUPREN
"Dr.LesterAndrewHuff,M.D.",8700 Georgia Ave STE 304,NA,Silver Spring,MD,20910,FAIRFAX,202-683-7818,,38.8664,-77.1426,BUPREN
"Dr.LillianBrowneHunt,MD",4501 Arlington Boulevard,Suite 120,Arlington,VA,22203,ARLINGTON,703-841-1133,,38.8696,-77.1082,BUPREN
"Dr.LindsayHillSherrard,M.D.",Patterson Avenue Family Practice,9600 Patterson Avenue,Richmond,VA,23229,HENRICO,804-741-6200,,37.5967,-77.5919,BUPREN
"Dr.Lishan Kassa,M.D.",10520 Judicail Drive,Fairfax ADC Medical Section,Fairfax,VA,22030,FAIRFAX,703-246-4459,,38.8454,-77.321,BUPREN
"Dr.Lishan Kassa,M.D.",6395 Little river turn pike,NA,Alexandria,VA,22312,FAIRFAX,571-282-3636,,38.8188,-77.1512,BUPREN
"Dr.LouisaApongseAyafor, ",2113 Chesterfield Loop,NA,Chesapeake,VA,23323,CHESAPEAKE CITY,252-561-5139,,36.7191,-76.33,BUPREN
"Dr.LouisG.Chi,M.D.",2215 Landover Place,NA,Lynchburg,VA,24501,LYNCHBURG CITY,434-947-3944,,37.4117,-79.1756,BUPREN
"Dr.LouisKarlDuchin,M.D.",5700 W. Grace Street,Suite 102,Richmond,VA,23226,HENRICO,804-716-6267,,37.5843,-77.5082,BUPREN
"Dr.LouisMichaelLeone,MD",258 N Witchduck Road,Suite 1B,Virginia Beach,VA,23462,VIRGINIA BEACH CITY,757-385-0911,,36.8443,-76.1566,BUPREN
"Dr.Lydora Villafuerte,M.D.",14904 Jefferson Davis Highway,Suite 205,Woodbridge,VA,22191,PRINCE WILLIAM,703-497-4500,,38.6298,-77.2753,BUPREN
"Dr.Majid Ghauri,MD",4001 Fair Ridge Drive,Ste 202,Fairfax,VA,22033,FAIRFAX,703-520-1031,,38.8708,-77.3668,BUPREN
"Dr.MariaCarolinaHaine,M.D.",Insight Physicians,"2006 Bremo Road, Suite 101",Richmond,VA,23226,HENRICO,804-288-1881,,37.5906,-77.5086,BUPREN
"Dr.Maria Catolico,M.D.",6801 Lucy Corr Ct.,PO Box 92,Chesterfield,VA,23832,CHESTERFIELD,804-748-1227,,37.3823,-77.506,BUPREN
"Dr.MariaDoloresEncarnacion,M.D.","586 Ferney Creek Road, NW",NA,Willis,VA,24380,FLOYD,540-789-7309,,36.8897,-80.4417,BUPREN
"Dr.Maria Wasique,M.D.",21785 Filigree Court,Suite 215,Ashburn,VA,20147,LOUDOUN,571-223-5610,,39.0125,-77.4577,BUPREN
"Dr.Marija Petrovic, ","3615 Chain Bridge Road, Unit I (eye)",NA,Fairfax,VA,22030,FAIRFAX,703-582-0010,,38.8454,-77.321,BUPREN
"Dr.MarkDavidMilitana,M.D.",1101 West Franklin Street,NA,Richmond,VA,23220,RICHMOND CITY,804-370-3082,,37.5505,-77.4549,BUPREN
"Dr.MarkT.Schreiber,M.D.",770 Lynnhaven Parkway,Suite 4240,Virginia Beach,VA,23452,,757-802-4500,,36.817,-76.0658,BUPREN
"Dr.MarkVictorSakran,MD",1485 chian bridge Road,NA,Mclean,VA,22101,FAIRFAX,571-344-9893,,38.9296,-77.1804,BUPREN
"Dr.MarthaJaneWunsch,M.D.",Bldg C CDRP,3551 Whipple Rd,Union City,CA,94587,MONTGOMERY,540-239-7132,,37.22,-80.4514,BUPREN
"Dr.Mateusz Broszko,MD",3300 Rivermont Avenue,NA,Lynchburg,VA,24503,LYNCHBURG CITY,434-200-5999,,37.4382,-79.1872,BUPREN
"Dr.MatthewAaronSachs,MD",2528 Las Brisas Drive,NA,Virginia Beach,VA,23456,VIRGINIA BEACH CITY,757-689-0334,,36.8621,-76.0263,BUPREN
"Dr.MatthewSalvatoreDellacona,DO","Bland County Medical Clinic, Inc",12301 Grapefield Rd,Bastian,VA,24314,BLAND,276-688-4331,,37.1775,-81.1439,BUPREN
"Dr.MauriceLeeBlackburn,Jr",9376 Atlee Station Road,NA,Mechanicsville,VA,23116,HANOVER,804-730-0990,,37.6624,-77.4103,BUPREN
"Dr.MavisAkosAgyeiwaah,M.D.",1440 Amherst St,NA,Winchester,VA,22601,ROANOKE,540-536-5400,,39.1912,-78.1851,BUPREN
"Dr.Meenakshi Gopal,M.D.",Valley Family Practice an Internal Medicine,"812 Amherst Street, Suite 101",Winchester,VA,22601,WINCHESTER CITY,540-664-4352,,39.1883,-78.1778,BUPREN
"Dr.Meenakshi Parmar,M.D.",5050 Hwy 17 Bypass,NA,Myrtle Beach,SC,29588,HORRY,757-613-4242,,36.8367,-76.348,BUPREN
"Dr.MeghanAllyseRiley,MD",Carilion Clinic Roanoke Memorial Hospital,1906 Belleview Avenue SE,Roanoke,VA,24101,,973-670-8054,,37.2513,-79.9417,BUPREN
"Dr.Melanie Skeen,D.O.",Medical Care Clinic,"3170 Linden Drive, Suite 6",Bristol,VA,24202,WYTHE,276-644-9161,,36.9618,-81.0974,BUPREN
"Dr.MelissaFaithGross,MD",Lifestance Health,5131 River  Club Dr Suite 200,Suffolk,VA,23435,,804-207-6737,,36.8766,-76.4397,BUPREN
"Dr.MelissaLeaMorton-Fishman,M.D.",Hampton Roads Regional Jail,2690 Elmhurst Lane,Portsmouth,VA,23701,PORTSMOUTH CITY,757-488-7500,,36.8084,-76.3639,BUPREN
"Dr.MeredithRaeCary,MD",6900 Atmore Drive,VADOC Health Services Unit,Richmond,VA,23225,RICHMOND CITY,804-887-8103,,37.5044,-77.5251,BUPREN
"Dr.MichaelA.Sherer,M.D.",9901 Braddock Road,NA,Fairfax,VA,22032,FAIRFAX,703-323-4000,,38.8254,-77.2874,BUPREN
"Dr.MichaelDavidRorrer,MD",2057 Laurel Woods Drive,NA,Salem,VA,24153,SALEM,540-400-4422,,37.3268,-80.0455,BUPREN
"Dr.MichaelL.Dougan,MD",1651 Merrimac Trail,NA,Williamsburg,VA,23185,PRINCE WILLIAM,757-220-3200,,37.2457,-76.6534,BUPREN
"Dr.MichaelYuZhang,M.D",4417 Vestal Parkway E.,NA,Vestal,NY,13850,FAIRFAX,607-770-7365,,38.9617,-77.3664,BUPREN
"Dr.MihirRamanbhaiPatel,MD",821 WEST 21ST STREET,SUITE 206,NORFOLK,VA,23517,NORFOLK CITY,757-317-0076,,36.8711,-76.2972,BUPREN
"Dr.Mishka Terplan,M.D.",MOTIVATE Clinic,"501 N. 2nd Street Suite 100,",Richmond,VA,23219,RICHMOND CITY,804-628-6777,,37.5464,-77.438,BUPREN
"Dr.MohammedNormanOliver,MD",2421 Huntington Road,NA,Charlottesville,VA,22901,ALBEMARLE,434-882-1650,,38.0718,-78.4652,BUPREN
"Dr.MoisesEladioQuinones,M.D.",Quality Medical Care,"2955 Market Street, Suite B-4",Christiansburg,VA,24073,MONTGOMERY,540-392-6555,,37.1698,-80.4195,BUPREN
"Dr.MoniqueNSessler,M.D.",117 Bulifants Boulevard,Suite A,williamsburg,VA,23188,YORK,757-565-5440,,37.3356,-76.7358,BUPREN
"Dr.MuhammadHasnainAbbas, ",207 N 4th Avenue,NA,Hopewell,VA,23860,,202-255-9330,,37.3031,-77.2907,BUPREN
"Dr.MukeshP.Patel,MD",The Center,400 E. Burwell Street,Salem,VA,24153,SALEM,540-387-3105,,37.2919,-80.0528,BUPREN
"Dr.MukundM.Morjaria,M.D.",6408 D Seven Corners Place,NA,Falls Church,VA,22044,FAIRFAX,703-237-0800,,38.8711,-77.1586,BUPREN
"Dr.NadeemAnwarKhan,MD",12230 Branders Creek Drive,NA,Chester,VA,23831,CHESTERFIELD,804-715-4709,,37.3513,-77.4873,BUPREN
"Dr.Naheed Saleem,MD",6289 Dunaway Court,NA,Mclean,VA,22101,FAIRFAX,304-263-0811,,38.9445,-77.1529,BUPREN
"Dr.Nassima AitdaoudTiouririne,M.D.",University of Virginia,1300 Jefferson Park Ave,Charlottesville,VA,22908,ALBEMARLE,434-924-2241,,38.0346,-78.5162,BUPREN
"Dr.NathanPhillipCharlton, ",University of Virginia Health System,1215 Lee Street,Charlottesville,VA,22923,,434-924-5185,,38.0312,-78.4989,BUPREN
"Dr.Navneet Sidhu,M.D.",8300 ARLINGTON BLVD.,STE G1,FAIRFAX,VA,22031,FAIRFAX,571-213-8186,,38.8663,-77.2316,BUPREN
"Dr.Nazir Chaudhary,M.D.",Post Office Box 13135,NA,Richmond,VA,23225,RICHMOND CITY,804-330-8101,,37.5141,-77.525,BUPREN
"Dr.Nazir Chaudhary,M.D.",909 Hioaks Road,Suite C,Richmond,VA,23225,RICHMOND CITY,,,37.5132,-77.5242,BUPREN
"Dr.NealR.Sanders,M.D.",Watauga Medical Center,198 Ross Carter Boulevard,Duffield,VA,24244,SCOTT,276-431-2900,,36.719,-82.796,BUPREN
"Dr.NicholasT.C.McClean-Rice,MD",P.O. Box 1330,NA,Parksley,VA,23421,ACCOMACK,757-665-1260,,37.7829,-75.6521,BUPREN
"Dr.NicoleWoodKarjane, ",1250 E. Marshall Street,"Main Hospital, 8-454",Richmond,VA,23298,RICHMOND CITY,804-828-8614,,37.54,-77.4297,BUPREN
"Dr.Nina Khachiyants,M.D.",4113 Oak Village Landing,NA,Fairfax,VA,22033,FAIRFAX,450-588-7518,,38.8719,-77.3803,BUPREN
"Dr.Nitinkumar Doshi, ",22075 Auction Barn Drive,NA,Ashburn,VA,20148,LOUDOUN,202-207-8594,,39.0073,-77.5292,BUPREN
"Dr.Nooreddin Mirmirani,MD",5537 Hempstead Way,NA,Springfield,VA,22151,FAIRFAX,703-922-8484,,38.7997,-77.186,BUPREN
"Dr.Norah Silver,MD",1906 Braeburn Avenue,NA,Salem,VA,24153,SALEM,760-636-2377,,37.2637,-80.028,BUPREN
"Dr.Oluwakemi Aje,MD",3300 Gallows Road,NA,Falls Church,VA,22042,FAIRFAX,703-776-4001,,38.7886,-77.2977,BUPREN
"Dr.OnanWalkerBomar,MD",500 Folar Trail,NA,Hopewell,VA,23860,HOPEWELL CITY,804-524-6606,,37.308,-77.3418,BUPREN
"Dr.PamelaMcGheeSomervell,MD",308 W. Main Street,NA,Saltville,VA,24370,SMYTH,276-496-4433,,36.8815,-81.7621,BUPREN
"Dr.Partam Manalai, ",1000 Duke Street,NA,Alexandria,VA,22314,ALEXANDRIA CITY,202-489-4665,,38.8031,-77.051,BUPREN
"Dr.ParthivJSheth,MD",9228 George Washington Highway,NA,Gloucester,VA,23061,GLOUCESTER,804-693-5057,,37.4336,-76.5693,BUPREN
"Dr.Patricia King,MD",816 Greenbrier Circle Suite 209,NA,Chesapeake,VA,23320,,757-436-2444,,36.792,-76.2288,BUPREN
"Dr.PaulDanielWeidman, ","Prestera,  East Hills Professional Center 5187 US Route 60 East",Suite 15A,Huntington,WV,25705,CABELL,304-525-7851,,36.7336,-78.1315,BUPREN
"Dr.PaulErnstStromberg,MD","Department of Emergency Medicine, Roanoke Memorial Hospital",1906 Belleview Avenue,Roanoke,VA,24014,ROANOKE CITY,540-981-7000,,37.2516,-79.9425,BUPREN
"Dr.PaulMitchellSpector,D.O.",7329 Boulders View Lane,NA,North Chesterfield,VA,23225,CHESTERFIELD,804-320-8570,,37.5132,-77.5308,BUPREN
"Dr.Pelin Duzenli,M.D.",12420 Warwick Boulevard,"Building 7, Suite C",Newport News,VA,23606,NEWPORT NEWS CITY,757-595-3900,,37.0699,-76.4926,BUPREN
"Dr.Peter Breslin,M.D.",3974 Springfield Rd,Suite A,Glen Allen,VA,23060,RICHMOND CITY,703-786-7253,,37.6021,-77.5078,BUPREN
"Dr.PhilipGeorgeSchlobohm,M.D.",Riverside Behavioral Health Ctr OP Svcs,2244 Executive Drive,Hampton,VA,23666,HAMPTON CITY,757-315-3670,,37.0538,-76.396,BUPREN
"Dr.RahelG.Yirga,M.D.",44125 Woodridge Parkway,Suite 220,Leesburg,VA,20176,LOUDOUN,703-539-6002,,39.0774,-77.472,BUPREN
"Dr.RahulPramodWadnerkar,MD",2300 E Parham Road,NA,Richmond,VA,23228,HENRICO,804-264-7808,,37.6399,-77.4921,BUPREN
"Dr.RakeshK.Shah, ",207 North 4th Avenue,NA,Hopewell,VA,23860,HOPEWELL CITY,804-541-0918,,37.3032,-77.2907,BUPREN
"Dr.RameshB.Koduri, ",269 Medical Park Boulevard,NA,Petersburg,VA,23805,PETERSBURG CITY,804-861-0700,,37.1889,-77.3638,BUPREN
"Dr.RamiRZanoun,MD",2006 Bremo Road,Suite 101,Glen Allen,VA,23226,HENRICO,804-288-1881,,37.6675,-77.5785,BUPREN
"Dr.Raphael Mbachu,M.D.",5999 Stevenson Avenue,Suite 401,Alexandria,VA,22314,ALEXANDRIA CITY,202-294-5278,,38.8133,-77.1365,BUPREN
"Dr.RashidM.Khan,M.D.",14416 JEFFERSON DAVIS HWY,SUITE 7B,WOODBRIDGE,VA,22191,PRINCE WILLIAM,301-203-8194,,38.6402,-77.2686,BUPREN
"Dr.Rauf Cheema,M.D.",1812 West Plaza Drive,NA,Winchester,VA,22601,WINCHESTER CITY,540-667-1226,,39.1685,-78.1725,BUPREN
"Dr.Rauf Cheema,M.D.",21145 Whitfield Place,Suite 105,Sterling,VA,20165,LOUDOUN,703-606-1133,,39.0327,-77.3957,BUPREN
"Dr.RaymondGerardDecker,M.D.",13911 St Francis Blvd,Suite 101,Midlothian,VA,23114,CHESTERFIELD,804-320-3999,,37.4665,-77.6627,BUPREN
"Dr.Raymond Iglecia,M.D.",Chesapeake Medical Institute,"300 Medical Parkway, Suite 116",Chesapeake,VA,23320,CHESAPEAKE CITY,757-547-2472,,36.7447,-76.2485,BUPREN
"Dr.Renuka Evani,M.D.",6801 Lucy Corr CT,NA,N. Chesterfield,VA,23832,CHESTERFIELD,,,37.3823,-77.506,BUPREN
"Dr.Renuka Evani,M.D.",Chesterfield Mental Health CSB,NA,Northern Chesterfield,VA,23832,CHESTERFIELD,804-768-7215,,37.3823,-77.506,BUPREN
"Dr.RheaNishitaMehra,M.D","Dr Rhea Nishita Mehra, MD","46396 Benedict  Drive, Suite # 310",Sterling,VA,20164,LOUDOUN,703-774-3234,,39.0254,-77.3941,BUPREN
"Dr.RiazUddinRiaz,M.D.",20 Walnut Street,NA,Roanoke,VA,24016,ROANOKE CITY,540-344-3400,,37.2611,-79.9426,BUPREN
"Dr.RicardoAdrianRius,MD",8221 Willow Oaks Corporate Drive,NA,Merrifield,VA,22031,FAIRFAX,703-207-7881,,38.8637,-77.234,BUPREN
"Dr.RichardAnthonyCampana,Sr.,M.D.",First Med Inc.,312 2nd Street,Williamsburg,VA,23185,WILLIAMSBURG CITY,757-229-4141,,37.2741,-76.6833,BUPREN
"Dr.RichardAnthonyDeblasi, ",American Addiction Centers Sunrise,37 Sunset Inn Road,Lafayette,NJ,7848,SUSSEX,207-624-4657,,38.8599,-77.2262,BUPREN
"Dr.RichardLamontClaytor,Jr.,M.D.",1625 Franklin Street,NA,Rocky Mount,VA,24151,FRANKLIN,844-543-9362,,36.9897,-79.9087,BUPREN
"Dr.RichardLeeManolio,MD",3104 Celbridge Court,NA,Virginia Beach,VA,23452,VIRGINIA BEACH CITY,757-486-7005,,36.8634,-76.0817,BUPREN
"Dr.RichardRyanTruxillo, ",2145 Mt Pleasant Boulevard,NA,Roanoke,VA,24014,ROANOKE CITY,540-427-9200,,37.2502,-79.9156,BUPREN
"Dr.Ritu Chahil-Miglani,MD",9518 C Lee Highway,NA,Fairfax,VA,22031,FAIRFAX,703-477-9431,,38.8679,-77.2732,BUPREN
"Dr.RizwanA.Malik,M.D.",Biogenomic Medicine Institute,"45189 Research Place, Suite 140",Ashburn,VA,20147,LOUDOUN,571-442-8872,,39.0512,-77.4358,BUPREN
"Dr.RobertBHansen,MD",6275 E. Virginia Beach Boulevard,Suite 303,Norfolk,VA,23502,NORFOLK CITY,757-620-9731,,36.8539,-76.1898,BUPREN
"Dr.RobertEugeneO'Connor,MD","1335 Lee Street, Suite 2262",Department of Emergency Medicine; University of Virginia,Charlottesville,VA,22908,ALBEMARLE,434-242-4995,,38.0312,-78.4988,BUPREN
"Dr.Robert Houston,MD",Inspiration Health Addiction Treatment Center,1711 Church St. Suite B,Norfolk,VA,23504,,757-590-4428,,36.8635,-76.2799,BUPREN
"Dr.RobertJamesYoung,M.D.",2609 Sheffield Drive,Suite 100,Blacksburg,VA,24060,MONTGOMERY,540-808-8111,,37.22,-80.4514,BUPREN
"Dr.RobertM.Wheeler,M.D.",13911 Saint Francis Boulevard,NA,Midlothian,VA,23114,CHESTERFIELD,804-320-3999,,37.4665,-77.6627,BUPREN
"Dr.ROBERTNLOWE,M.D.",2501 MARSHALL AVENUE,suite A,Newport News,VA,23607,NEWPORT NEWS CITY,757-247-3910,,37.0399,-76.404,BUPREN
"Dr.RobertRayFuller, ",81 Hospital Drive,Suite 3562,Charlottesville,VA,22908,ALBEMARLE,434-924-9700,,38.0318,-78.5007,BUPREN
"Dr.Rodolfo Cartagena,MD","E&C Counseling Services, LLCRoss Carter Boulevard",Russell Road NW,Abingdon,VA,24210,WASHINGTON,276-431-2900,,36.7125,-81.995,BUPREN
"Dr.Rodolfo Cartagena,MD",10525 Emerson Road,NA,Wise,VA,24293,WISE,276-328-2968,,36.9559,-82.5198,BUPREN
"Dr.Rohul Amin,MD","Fort Belvoir Community Hospital, Department of Behavioral Health",9300 DeWitt Loop,Fort Belvoir,VA,22060,FAIRFAX,571-231-3049,,38.7058,-77.1431,BUPREN
"Dr.RonaldL.Schubert,MD",15 Killdeer Lane,NA,Dayton,VA,22821,ROCKINGHAM,540-879-4300,,38.4082,-78.9461,BUPREN
"Dr.RonaldMarkRamus, ",VCU Medical Center Department of Ob/Gyn,1250 E. Marshall Street,Richmond,VA,23298,,804-828-8468,,37.54,-77.4297,BUPREN
"Dr.RonaldWayneToney,MD",3600 Woods Way,NA,State Farm,VA,23160,POWHATAN,804-372-4692,,37.6273,-77.8292,BUPREN
"Dr.Roopam Sood-Khandpur,MD",Department of Veteran Affairs,"100 Emancipation Boulevard, Unit 116A",Hampton,VA,23667,HAMPTON CITY,757-547-9334,,37.0148,-76.3323,BUPREN
"Dr.Rosario Nunez-Brito,MD",8303 Arlington Boulevard,Suite 205,Fairfax,VA,22031,FAIRFAX,301-537-0185,,38.8646,-77.2316,BUPREN
"Dr.RotimiA.Iluyomade,MD",8101 HINSON FARM RD,SUITE 318,ALEXANDRIA,VA,22306,FAIRFAX,1703 244-1411,,38.7369,-77.0778,BUPREN
"Dr.RudyHusamJuburi,M.D.",8301 Arlington Boulevard,Suite 100,Fairfax,VA,22031,FAIRFAX,703-849-0900,,38.865,-77.2312,BUPREN
"Dr.RussellBrickMcKelway,M.D.",1812 Plaza Drive,NA,Winchester,VA,22601,WINCHESTER CITY,540-667-1226,,39.1667,-78.1746,BUPREN
"Dr.RussellBrickMcKelway,M.D.",1 W Main ST,NA,Berryville,VA,22611,CLARKE,540-667-1230,,39.151,-77.9816,BUPREN
"Dr.RyanMatthewWhite,DO",611 McDowell Avenue NW,NA,Roanoke,VA,24016,,540-266-9200,,37.2826,-79.9493,BUPREN
"Dr.RyanWilliamHare,MD",620 John Paul Jones Circle,NA,Portsmouth,VA,23708,PORTSMOUTH CITY,757-953-6454,,36.8449,-76.3062,BUPREN
"Dr.RyanWillisIngram, ",3176 Holland Road,Suite 102,Virginia Beach,VA,23453,VIRGINIA BEACH CITY,757-368-2001,,36.7913,-76.0798,BUPREN
"Dr.SabahM.Hadi,M.D.",44355 Premier Plaza,Unit #120,Ashburn,VA,20147,LOUDOUN,703-723-5993,,39.0618,-77.4662,BUPREN
"Dr.Salim Zulfiqar,M.D.",501 N 2ND STREET,Suite 300,RICHMOND,VA,23298,HANOVER,804-828-9452,,37.6277,-77.3871,BUPREN
"Dr.Samina Zaidi,M.D.","8644 sudley rd, manassas,VA 20110","8700 sudley rd, manassas, va 20110",manassas,VA,20110,,703-369-8465,,38.7673,-77.4886,BUPREN
"Dr.SandraKayBalmoria,MD",1755 N Mecklenburg Avenue,Atlantic Community Health Center,South Hill,VA,23970,ACCOMACK,434-447-3151,,37.9654,-75.5303,BUPREN
"Dr.SebastianTakChunTong,M.D.",Mary's Center,"2333 Ontario Road, NW",Washington,DC,20009,BEDFORD,202-483-8196,,37.3356,-79.5336,BUPREN
"Dr.Seema Gupta,MD",9300 DeWitt Loop,NA,Fort Belvoir,VA,22060,FAIRFAX,571-231-2408,,38.7053,-77.1433,BUPREN
"Dr.SethClaytonThompson,MD",1662 Bonham Rd,NA,Bristol,VA,24201,WASHINGTON,276-644-9899,,36.615,-82.1246,BUPREN
"Dr.Shaveta Goyal,MD",INOVA URGENT CARE,6201 Centreville Rd #200,CENTREVILLE,VA,20121,FAIRFAX,703-830-5600,,38.829,-77.4341,BUPREN
"Dr.Shawn Kirby,DO",Savannah VA Outpatient Clinic,1170 Shawnee Street,Savannah,GA,31419,GLOUCESTER,912-920-0214,,37.4202,-76.5405,BUPREN
"Dr.ShaziaH.Farooqi,MD",301 Virginia Street,NA,Richmond,VA,23219,,804-310-6675,,37.5328,-77.4336,BUPREN
"Dr.SheelaM.Kadekar,M.D.",8550 Arlington Boulevard,Suite 300,Fairfax,VA,22031,FAIRFAX,703-402-2513,,38.8661,-77.2383,BUPREN
"Dr.SheilaMaryFurey,M.D.",7711 Kenmore Circle,NA,Richmond,VA,23225,RICHMOND CITY,804-717-5181,,37.5381,-77.5392,BUPREN
"Dr.SheilaMaryFurey,M.D.",9512 Iron Bridge Rd.,Suite 201,Chesterfield,VA,23832,CHESTERFIELD,804-717-5181,,37.3817,-77.5155,BUPREN
"Dr.Sherman Master,M.D.",2301 N. Parham Road,Suite 4,Richmond,VA,23229,HENRICO,804-332-5950,,37.6206,-77.5562,BUPREN
"Dr.ShridharV.Bhat,M.D.",110 North Robinson Street,Suite 305,Richmond,VA,23220,RICHMOND CITY,804-780-2610,,37.5196,-77.449,BUPREN
"Dr.Siddharth Arora,D.O.",4017 Williamsburg Court,Suite 100,Fairfax,VA,22032,,844-782-6963,,38.8418,-77.2818,BUPREN
"Dr.Siddharth Arora,D.O.",56104 National road,Suite 106,Bridgeport,OH,43912,BREVARD,844-782-6963,,38.8418,-77.2818,BUPREN
"Dr.Siddharth Arora,D.O.",311 Gate City Hwy,Suite F,Bristol,VA,24201,,844-782-6963,,36.598,-82.214,BUPREN
"Dr.Sofia Rizwan,M.D.",9004 FERN PARK DRIVE,SUITE A,BURKE,VA,22015,FAIRFAX,571-459-2036,,38.8739,-77.241,BUPREN
"Dr.SreeLakshmiGogineni,MD","124 Park Street, S.E.,",Suite 203,Vienna,VA,22180,FAIRFAX,703-255-6010,,38.903,-77.2614,BUPREN
"Dr.SrinivasaReddyPunyala,M.D.",207 N. 4th Avenue,NA,Hopewell,VA,23860,HOPEWELL CITY,804-514-0918,,37.3032,-77.2907,BUPREN
"Dr.Stella Bassey,M.D.",80 College Street,Suite R,Christiansburg,VA,24073,MONTGOMERY,540-204-8111,,37.1302,-80.4108,BUPREN
"Dr.StephanieLeePeglow,MD",3322 Western Branch Boulevard,Suite A,Chesapeake,VA,23321,NORFOLK CITY,757-673-3644,,36.866,-76.4134,BUPREN
"Dr.StephenCraigBrawley,MD",3640 High Street,Suite 2F,Portsmouth,VA,23707,,757-397-6344,,36.8371,-76.3492,BUPREN
"Dr.StephenJohnPopovich,MD","1510 N. 28th Street, Suite 101",NA,Richmond,VA,23223,RICHMOND CITY,804-417-0120,,37.5407,-77.4066,BUPREN
"Dr.StevenMarkFiore, ",1230 Alverser Drive,Suite 101,Midlothian,VA,23113,CHESTERFIELD,804-514-1657,,37.5092,-77.6167,BUPREN
"Dr.SudhirC.Nagaraja,D.O.",4900 Hood Drive,NA,Fredericksburg,VA,22408,SPOTSYLVANIA,540-479-1319,,38.2502,-77.5055,BUPREN
"Dr.Su Fairchild,MD",Virginia Recovery Front Royal,132 Peyton Street,Front Royal,VA,22630,WARREN,540-660-1701,,38.9188,-78.1916,BUPREN
"Dr.Su Fairchild,MD",Virginia Recovery,2251 Valley Avenue,Winchester,VA,22601,FAIRFAX,540-278-2228,,39.1611,-78.1859,BUPREN
"Dr.SyedIftikharHaiderZaidi,M.D.",3915 Chaco Road,NA,Alexandria,VA,22312,FAIRFAX,703-774-8243,,38.8378,-77.1523,BUPREN
"Dr.SyedMahtabuddinAhmed, ","621-A Emancipation Highway, Suite 101",NA,Fredericksburg,VA,22401,FREDERICKSBURG CITY,540-891-7766,,38.3101,-77.4787,BUPREN
"Dr.Talha Siddiqui,M.D.",6164 Fuller Court,NA,Alexandria,VA,22310,FAIRFAX,571-257-9426,,38.7803,-77.149,BUPREN
"Dr.Tarandeep Kaur,MD","5137 Golden Foothill Parkway, Suite 120",NA,El Dorado Hills,CA,95762,WISE,530-344-5400,,36.9042,-82.7841,BUPREN
"Dr.TeresaAnneFearsMoore,MD",508 Waterworks Road,NA,Farmville,VA,23901,CUMBERLAND,434-395-8114,,37.3239,-78.437,BUPREN
"Dr.TeresaLynneDelawter,MD",6616 Stourcliffe Lane,NA,Haymarket,VA,20169,PRINCE WILLIAM,703-257-8401,,38.8142,-77.6286,BUPREN
"Dr.TheresaHelenSimon,MD",13901 Coalfield Commons Place,Suite 102,Midlothian,VA,23114,CHESTERFIELD,804-378-0800,,37.4937,-77.6528,BUPREN
"Dr.ThomasE.Renfro,M.D.",Thomas E. Renfro Community Clinic,515 Front Street West,Coeburn,VA,24230,WISE,276-395-2389,,36.9409,-82.4856,BUPREN
"Dr.ThomasHowardMoss,M.D.",Carilion Roanoke Memorial Hospital,1906 Belleview Avenue,Roanoke,VA,24014,ROANOKE CITY,540-981-7000,,37.2516,-79.9415,BUPREN
"Dr.TimothyJHill,MD",1602 Skipwith Road,NA,Richmond,VA,23229,HENRICO,210-218-6403,,37.604,-77.5401,BUPREN
"Dr.TimothyW.Corbett,M.D.",324 Commerence Road,Suite A,Farmville,VA,23901,CUMBERLAND,434-392-9366,,37.2704,-78.4136,BUPREN
"Dr.TroyLeeReece, ",111 Town Hollow Road,NA,Cedar Bluff,VA,24210,TAZEWELL,276-963-3554,,37.0473,-81.7811,BUPREN
"Dr.TuyetNguyenAbraham,MD",VA Illiana Health Care System,1900 East Main Street,Danville,IL,61832,ROCKINGHAM,217-554-3000,,38.4336,-78.9021,BUPREN
"Dr.UzmaA.Mian,MD",Brightview Addiction Treatment Center,4899 Prince William Parkway,Woodbridge,VA,22192,ALEXANDRIA CITY,571-723-9367,,38.6782,-77.355,BUPREN
"Dr.ValerieHawkinsBoulware,M.D.",6330 Five Mile Centre Park,Suite 400,Fredericksburg,VA,22407,SPOTSYLVANIA,540-548-2960,,38.2885,-77.5548,BUPREN
"Dr.VeronicaJeanneMatthews,M.D.",P.O. Box 5603,NA,Charlottesville,VA,22905,CHARLOTTESVILLE CITY,434-989-5414,,38.05,-78.5,BUPREN
"Dr.VietHuuNguyen,D.O.",6408-C Seven Corners Place,NA,Falls Church,VA,22044,FAIRFAX,703-532-1909,,38.8711,-77.1586,BUPREN
"Dr.Vincent Nardone,MD",1807 Hugenot Road,Suite 117,Midlothian,VA,23113,CHESTERFIELD,860-874-2502,,37.5172,-77.6138,BUPREN
"Dr.VladimirAnatolyevichBrown-Zheltkov, ",4815 N Assembly St,NA,Spokane,WA,99205,ROCKBRIDGE,509-994-2168,,37.8035,-79.4254,BUPREN
"Dr.Wallisa Vaughn,MD",611 McDowell Avenue NW.,NA,Roanoke,VA,24016,ROANOKE CITY,540-266-9200,,37.2826,-79.9493,BUPREN
"Dr.WendyScarboroughBowman,M.D.",5855 Bremo Road,Suite 601,Richmond,VA,23226,HENRICO,804-523-9200,,37.5835,-77.5124,BUPREN
"Dr.WilliamEdgarCarter,III,M.D.",VCU Department of PM&R,P.O. Box 980661,Richmond,VA,23298,RICHMOND CITY,804-828-4097,,37.5433,-77.4293,BUPREN
"Dr.WilliamJGarcia,MD",8233 Old Courthouse Road,Suite 150,Vienna,VA,22182,FAIRFAX,703-244-6995,,38.913,-77.2309,BUPREN
"Dr.WilliamL.Alford,Jr.,M.D.",4616 Westgrove Court,NA,Virginia Beach,VA,23455,VIRGINIA BEACH CITY,757-464-9520,,36.8727,-76.1369,BUPREN
"Dr.WilliamL.Doss,M.D.",500 Rodman,Suite 1,Portsmouth,VA,23707,PORTSMOUTH CITY,757-393-0099,,36.8336,-76.3479,BUPREN
"Dr.WilliamRonaldGaertner,M.D.",Family Counseling Center for Recovery,4906 Radford Avenue,Richmond,VA,23230,RICHMOND CITY,804-354-1996,,37.581,-77.4951,BUPREN
"Dr.WilliamRonaldGaertner,M.D.","621 Jefferson Davis Highway, Suite 201",NA,Fredericksburg,VA,22405,SPOTSYLVANIA,804-387-1974,,38.2395,-77.4992,BUPREN
"Dr.WilliamThomasTrost,M.D.",B and D Integrated Health Services,"249 East Hwy NC 54, Suite 320",Durham,NC,27713,DURHAM,919-907-3334,,36.5967,-79.415,BUPREN
"Dr.YaredAytagedGebreyesus,M.D.",2765Jefferson Davis Highway,Suite 109,Stafford,VA,22554,STAFFORD,540-657-9191,,38.4236,-77.4079,BUPREN
"Dr.YaredAytagedGebreyesus,M.D.",2765 Jefferson Davis Hwy,Suite109,STAFFORD,VA,22554,STAFFORD,540-657-9191,,38.4552,-77.4066,BUPREN
"Dr.ZafarAbdurRasheed,MD",6760 Old Mclean Village Drive,NA,Mc Lean,VA,22101,FAIRFAX,703-975-6898,,38.9375,-77.1765,BUPREN
"Dr.Z Chris, ",1800 North Beauregard Street,Suite 100,Alexandria,VA,22311,,703-933-8111,,38.8338,-77.1225,BUPREN
"Dr.Zeljko Stjepanovic,MD",5001 W. Village Green Drive,Suite 209,Midlothian,VA,23112,CHESTERFIELD,540-656-2712,,37.4198,-77.6397,BUPREN
"DudleyKentNorman, ",McGuire VA Medical Center,NA,Richmond,VA,23249,RICHMOND CITY,804-972-3478,,37.48,-77.6575,BUPREN
EasternShoreRuralHealth,20280 Market St,NA,Onancock,VA,23417,,757-414-0400,,37.70407973,-75.72618194,HC
EastvilleCommunityHealth,17068 Lankford Hwy,NA,Cape Charles,VA,23310,,757-414-0400,http://esrh.org,37.34294425,-75.94217866,HC
"EdithC.Bautista-Quint, ",2823 Duke Street,NA,Alexandria,VA,22314,ALEXANDRIA CITY,703-823-0063,,38.8075,-77.0799,BUPREN
"EdithKathleenJones, ",Pembroke 6,297 Independence Blvd. Suite 126,Virginia Beach,VA,23462,,757-385-0511,,36.8448,-76.1416,BUPREN
"EdwardHenrySpringel, ",VCU Hospital Dept of OB/GYN,"1101 E. Marshall Street, PO Box 980034",Richmond,VA,23298,RICHMOND CITY,804-828-8468,,37.5433,-77.4293,BUPREN
"Edward Senu-Oke, ",400 Bracey Way,NA,Chesapeake,VA,23323,CHESAPEAKE CITY,757-560-0657,,36.7319,-76.3077,BUPREN
"EdytheAnneBoitnott,NP",Groups Recovery Together,294 Commonwealth Blvd West,Martinsville,VA,24112,HENRY,276-212-6090,,36.6428,-79.8637,BUPREN
"ElizabethVHagan, ",287 Commonwealth Boulevard,NA,Martinsville,VA,24112,MARTINSVILLE CITY,757-270-4784,,36.6965,-79.8822,BUPREN
"EllenTFleenor, ",321C Poplar Drive,NA,Petersburg,VA,23805,PETERSBURG CITY,804-733-5591,,37.1898,-77.3623,BUPREN
"ElohorTessyMuagba,NP",209 Research Drive,Suite 102,Chesapeake,VA,23320,,757-231-9881,,36.7732,-76.259,BUPREN
"ElspethMarieGunnoe, ",324 Campbell Avenue,NA,Roanoke,VA,24016,,207-400-6705,,37.2711,-79.9466,BUPREN
"EmilyAnnaWilson, ",501 N. 2nd Street,STE 300,Richmond,VA,23219,RICHMOND CITY,703-244-4851,,37.5465,-77.438,BUPREN
"EmilyTLee,NP",2251 Valley Avenue,NA,Winchester,VA,22601,WINCHESTER CITY,703-229-5453,,39.1611,-78.1859,BUPREN
"EmmaAlexandraRouse,PA",1625 N George Mason Drive,#445,Arlington,VA,22205,ARLINGTON,703-248-0111,,38.8886,-77.1264,BUPREN
"EmmaCallahanHarrison, ",121 Broad Street,NA,Marion,VA,24354,SMYTH,276-781-5900,,36.8343,-81.5177,BUPREN
"EmmaleonaEgoAgogbua,NP",9274 Corporate Circle,NA,Manasas,VA,20110,,703-863-6924,,38.7541,-77.494,BUPREN
"EmmleyLaicanaCole, ",135 Fox and Hound Way,NA,Newport,TN,37821,AUGUSTA,423-532-8105,,38.1975,-79.0134,BUPREN
EMPORIAMEDICALCENTER,510 N Main St,NA,Emporia,VA,23847,,434-634-7723,,36.69670778,-77.53758573,HC
EmpoweringFamiliesProgram,901 Preston Avenue,Suite 201,Charlottesville,VA,22903,Charlottesville City,434-971-8454,http://www.empoweringfamiliesprogram.com,38.0374836,-78.488558,MH
EmpoweringFamiliesProgram,206 South East Street,NA,Culpeper,VA,22701,Culpeper,540-829-6685,http://www.empoweringfamiliesprogram.com/,38.4720935,-77.9950317,MH
"Eusebio Flores,PA",NOVA Walkin Clinic,8708 Sudley Road,Manassas,VA,20110,MANASSAS CITY,703-361-4357,,38.7669,-77.4851,BUPREN
ExpressCare,25228 Lankford Hwy,NA,Onley,VA,23418,,757-710-0400,http://www.esrh.org,37.69750509,-75.71770298,HC
FairfaxCountyHealth,1850 Cameron Glen Dr Ste 117,NA,Reston,VA,20190,,703-481-4242,http://www.hwnova.org,38.96551898,-77.35875498,HC
"FaisalAwadallaAwadelkarim, ",5112 Townsend Park Row,NA,Glen Allen,VA,23060,HENRICO,805-502-8035,,37.6662,-77.5447,BUPREN
FamilyCounselingCenterForRecovery,4906 Radford Avenue,NA,Richmond,VA,23230,Henrico,804-354-1996,http://pinnacletreatment.com,37.5809595,-77.4950893,SU
FamilyInsight,1933 Thomson Drive,NA,Lynchburg,VA,24501,Lynchburg City,540-266-7550,http://familyinsight.net,37.4180572,-79.1756414,MH
FamilyInsight,2820 Waterford Lake Drive,Suite 102,Midlothian,VA,23112,Chesterfield,804-658-4509,http://familyinsight.net,37.4538678,-77.6499435,MH
FamilyInsight,6800 Paragon Place,Suite 237,Richmond,VA,23230,Henrico,804-562-9997,http://familyinsight.net,37.5928428,-77.5322686,MH
FamilyInsight,1045 Main Street,Suite 2,Danville,VA,24541,Danville City,434-835-4765,http://familyinsight.net,36.5798282,-79.4020845,MH
FamilyInsight,3433 Brambleton Avenue,Suite 201-A,Roanoke,VA,24018,Roanoke,540-266-7550,http://familyinsight.net,37.2384864,-79.9996439,MH
FamilyInsight,7730 Donegan Drive,NA,Manassas,VA,20109,Prince William,571-208-0592,http://familyinsight.net/,38.789662,-77.5175241,MH
FamilyInsight,130 Carriebrooke Drive,NA,Stephens City,VA,22655,Frederick,540-486-4653,http://familyinsight.net,39.068,-78.1954,MH
FamilyInsight,10640 Page Avenue,Suite 400,Fairfax,VA,22030,Fairfax,703-310-7665,http://familyinsight.net,38.8456808,-77.3122498,MH
FamilyInsight,11835 Fishing Point Drive,Suite 202,Newport News,VA,23606,Newport News City,757-243-1033,http://www.familyinsight.net,37.0862326,-76.4812217,MH
FamilyInsight,6330 North Center Drive,"Building 13, Suite 200",Norfolk,VA,23502,Norfolk City,757-233-0003,http://www.familyinsight.net,36.848549,-76.1885624,MH
FamilyInsightPC,7960 Donegan Drive,Suite 200,Manassas,VA,20109,Prince William,571-208-0592,http://familyinsight.net,38.7892798,-77.5184323,MH
FamilyPreservationServices,100 Copley Place,Apartment B,Lynchburg,VA,24502,Lynchburg City,434-528-9711,http://fpscorp.com/,37.3816194,-79.24604,MH
FamilyPreservationServices,5369 Peters Creek Road,NA,Roanoke,VA,24019,Roanoke,540-344-9501,http://fpscorp.com/,37.3347182,-79.9750786,MH
FamilyPreservationServices,3363 Shawnee Drive,Suite 1,Winchester,VA,22602,Frederick,540-535-0043,http://fpscorp.com,39.1394973,-78.190152,MH
FamilyPreservationServices,220 Clay Drive,NA,Pounding Mill,VA,24637,Tazewell,276-963-3606,http://www.fpscorp.com,37.0633649,-81.7398578,MH
FamilyPreservationServices,661 East Main Street,NA,Abingdon,VA,24210,Washington,276-623-9245,http://www.fpscorp.com,36.7178793,-81.9548667,MH
FamilyPreservationServices,340 Anderson Hollow Road,Suite 200,Norton,VA,24273,Norton City,276-679-1045,http://www.fpscorp.com,36.9452291,-82.6226895,MH
FamilyPreservationServices,109 North Main Street,NA,Pennington Gap,VA,24277,Lee,276-546-3330,http://www.fpscorp.com/,36.764559,-83.0315332,MH
FamilyServiceOfRoanokeValley,360 Campbell Avenue SW,NA,Roanoke,VA,24016,Roanoke,540-795-4670,http://fsrv.org,37.2710848,-79.948343,MH
"FaridehJordanAbbasi,NP",12430 Wendell Holmes Road,NA,Herndon,VA,20171,FAIRFAX,703-727-9409,,38.924,-77.3747,BUPREN
FMTC -FairfaxMethadoneTreatmentCenter,"7008 Little River Turnpike, Suite G",NA,Annandale,VA,22003,,703 333-3113,,38.829031,-77.18656,OTP
"FranE.Hobson,NP",24 Clay Street,NA,Martinsville,VA,24112,MARTINSVILLE CITY,276-632-7128,,36.6913,-79.8674,BUPREN
"FrankLabibNuar, ",132 Peyton Street,NA,Front Royal,VA,22630,WARREN,540-660-1701,,38.9188,-78.1916,BUPREN
FranklinCommunityHealth,1357 Armory Dr,NA,Franklin,VA,23851,,999-999-9999,,36.66926488,-76.9487945,HC
FRANKTOWNCOMMUNITYHEALTH,9159 Franktown Rd,NA,Franktown,VA,23354,,757-442-4819,http://www.esrh.org,37.4760397,-75.87729701,HC
FrontierHealthInc,1006 U.S. Highway 23 North,NA,Weber City,VA,24290,Scott,276-225-0976,http://www.frontierhealth.org,36.6075177,-82.5685225,MH
FrontierHealthInc,43 Champions Avenue,NA,Big Stone Gap,VA,24219,Wise,276-523-8300 x8318,http://www.frontierhealth.org,36.885801,-82.7317728,MH
FrontierHealthInc,34084 Wilderness Road,NA,Jonesville,VA,24263,Lee,276-346-3590,http://www.frontierhealth.org,36.6877545,-83.1047449,MH
"GalaxTreatmentCenter,Inc.","PO Box 27, 112 Painter Street",NA,Galax,VA,24333,,276-236-2994,,36.6584389,-80.9289774,OTP
"GalaxTreatmentCenter,LLC","2100 Roanoke St, Ste 1",NA,Christiansburg,VA,24073,,540 322-3040,,37.1358036,-80.3694225,OTP
"GalaxTreatmentCenter,LLC",290 Front Royal Pike,NA,Winchester,VA,22602,,540 546-3436,,39.1572784,-78.1603187,OTP
"GalaxTreatmentCenter,LLC",140 Larkspur Lane,NA,Galax,VA,24333,,276 236-6341,,36.677039,-80.909176,OTP
"GalaxTreatmentCenter,LLC",111 Town Hollow Rd.,NA,Cedar Bluff,VA,24609,,276 963-3554,,37.047814,-81.781239,OTP
"Garima Pokhrel,NP","8551 Rixlew Lane, Suite 140",NA,Manassas,VA,20109,MANASSAS CITY,703-361-4357,,38.7711,-77.5017,BUPREN
"Gelila Tesfaye,NP",353 Falls Drive NW,NA,Abingdon,VA,24210,FAIRFAX,800-805-6989,,38.82,-77.2422,BUPREN
"GerleneMoniaSherard,NP",5507 Bankstown Lane,NA,North Chesterfield,VA,23237,CHESTERFIELD,203-507-5653,,37.407,-77.4898,BUPREN
GilesClinic,219 Buchanan St,NA,Pearisburg,VA,24134,,540-921-3502,http://www.chcnrv.org,37.32314964,-80.72290726,HC
GilesHighSchoolService,1825 Wenonah Ave,NA,Pearisburg,VA,24134,,540-824-2194,,37.32671748,-80.70449087,HC
"GiovanniPascalPierre,NP",4445 Corporation Lane,STE 264,Virginia Beach,VA,23462,,720-637-5809,,36.847,-76.1264,BUPREN
GoochlandPowhatanCommunityServices,3910 Old Buckingham Road,NA,Powhatan,VA,23139,Powhatan,804-598-2200,http://www.gpcsb.org,37.5446087,-77.9191114,MH
GoochlandPowhatanCommunityServices,3058 River Road West,NA,Goochland,VA,23063,Goochland,804-556-5400,http://www.gpcsb.org,37.6917162,-77.8838438,MH
GPWHealthCenter -,17739 Main St STE 130,NA,Dumfries,VA,22026,,703-680-7950,http://www.gpwhealthcenter.org,38.56730914,-77.32616807,HC
GPWHealthCenter -,9705 Liberia Ave STE 201,NA,Manassas,VA,20110,,703-680-7950,http://www.GPWHealthCenter.com,38.74599455,-77.44865123,HC
GPWHealthCenter -,3350 Commission Ct,NA,Woodbridge,VA,22192,,703-680-7950,,38.68695469,-77.31350016,HC
GreaterFultonMedical,1718 Williamsburg Rd,NA,Richmond,VA,23231,,804-780-0840,,37.51517971,-77.39355094,HC
Greensville/EmporiaCounseling,1101 Greensville County Circle,NA,Emporia,VA,23847,Emporia City,434-348-8900,http://www.d19csb.com/,36.7365062,-77.5145289,MH
"GustafAndersSylvester-Johnson,NP",2017 S. Jefferson Street,2nd Floor,Roanoke,VA,24014,ROANOKE CITY,540-981-8139,,37.2503,-79.9447,BUPREN
HallmarkYouthcare,12800 West Creek Parkway,NA,Henrico,VA,23238,Henrico,804-784-2200,http://www.hallmarkyouthcare.org/,37.6108894,-77.6674969,MH
HAMHDSWoodmanCenter,10299 Woodman Rd,NA,Glen Allen,VA,23060,,804-649-2119 x264,,37.65416365,-77.49460853,HC
HamptonRoadsClinic,2712 Washington Avenue,NA,Newport News,VA,23607,,757 240-5223,,36.979239,-76.431147,OTP
HamptonRoads -KinglseyLn,"155 Kingsley Ln, Ste 320",NA,Norfolk,VA,23505,,757-393-6363,http://www.hrchc.org,36.89861114,-76.28219591,HC
HanoverCountyCommServicesBoard,12300 Washington Highway,NA,Ashland,VA,23005,Hanover,804-365-4222,http://www.hanovercounty.gov/,37.7441924,-77.4704383,MH
HanoverCountyCommunityServiceBoard,8475 Bell Creek Road,NA,Mechanicsville,VA,23116,Hanover,804-365-4222,http://www.hanovercounty.gov,37.6393593,-77.3549422,MH
HarborPointBehavioralHealthCenter,301 Fort Lane,NA,Portsmouth,VA,23704,Portsmouth City,757-393-0061,http://harborpointbhc.com,36.8404739,-76.3077329,MH
Harrisonburg/Rockingham,1241 North Main Street,NA,Harrisonburg,VA,22802,Rockingham,540-434-1941,http://www.hrcsb.org/,38.4621078,-78.853398,MH
HAYSICLINIC,162 Medical Center Blvd,NA,Haysi,VA,24256,,276-865-5121,,37.200678,-82.29520812,HC
HCHCAdministrativeOffice,124 Newman Ave,NA,Harrisonburg,VA,22801,,540-433-4913,,38.44767235,-78.86727945,HC
HCHCElkton,800 Shenandoah Ave STE 170,NA,Elkton,VA,22827,,540-298-9900,,38.41642898,-78.6235921,HC
HCHCParkView,1479 Virginia Ave,NA,Harrisonburg,VA,22802,,540-433-4913,,38.47563132,-78.87199736,HC
HCHCStonePort,1380 Little Sorrell Dr STE 100,NA,Harrisonburg,VA,22801,,540-433-4913,,38.41414494,-78.86646012,HC
HealthCentersOfThe,30 S Main St,NA,Chatham,VA,24531,,434-432-4443,,36.82514611,-79.39824125,HC
HealthConnectAmerica,485 Hillsdale Drive,Suite 306,Charlottesville,VA,22901,Albemarle,434-326-1200,http://www.healthconnectamerica.com,38.0677681,-78.481462,MH
HealthConnectAmerica,35 Southgate Court,Unit 101,Harrisonburg,VA,22801,Harrisonburg City,540-440-7027,http://www.healthconnectamerica.com,38.4120303,-78.8989196,MH
HealthConnectAmerica,5695 King Centre Drive,Suite B-101,Alexandria,VA,22315,Fairfax,703-680-9527,http://healthconnectamerica.com,38.7693853,-77.1327368,MH
HealthConnectAmerica,6 Pidgeon Hill Drive,Suite 200,Sterling,VA,20165,Loudoun,703-994-4809,http://www.healthconnectamerica.com,39.0373216,-77.4127297,MH
HealthConnectAmerica,616 Park Avenue NW,NA,Norton,VA,24273,Norton City,276-644-7690,http://www.healthconnectamerica.com,36.9345826,-82.6275906,MH
"HeatherBerlinRichardson,PA","1064 Laskin Road, Suite 14C  Virginia Beach VA 23451",Suite 100,Virginia Beach,VA,23451,VIRGINIA BEACH CITY,757-233-1500,,36.8323,-76.1558,BUPREN
"HeatherMurraySaunders, ",5060 Valley View Blvd,NA,Roanoke,VA,24012,ROANOKE CITY,540-362-0360,,37.2502,-79.9443,BUPREN
HendersonHealthServices,1500 N Lombardy St,NA,Richmond,VA,23220,,804-780-0840,,37.56088619,-77.44990499,HC
HenricoAreaMentalHealth,3908 Nine Mile Rd,NA,Richmond,VA,23223,,804-649-2119,,37.54116793,-77.3808589,HC
HenricoAreaMentalHealthAnd,3908 9 Mile Road,NA,Richmond,VA,23223,Richmond City,804-727-8515,http://henrico.us/mhds,37.5417505,-77.380599,MH
HenricoAreaMentalHealthAnd,9403 Pocahontas Trail,Suite A,Providence Forge,VA,23140,New Kent,804-727-8970,http://henrico.us/mhds/,37.4409097,-77.0349131,MH
"HenryPriceViers,NP",5626 Patriot Drive,NA,Wise,VA,24293,WISE,276-328-8850,,36.9687,-82.549,BUPREN
"Henry Vega, ",20110 Inverness Way,NA,Bristol,VA,24202,BRISTOL CITY,276-623-7446,,36.661,-82.0501,BUPREN
"HermanAlphaGarrett,Jr.,MD",14212 Jeffries Place,NA,Midlothian,VA,23114,CHESTERFIELD,804-379-5485,,37.4771,-77.662,BUPREN
HighlandCommunityServices,383 Baugh Lane,NA,Abingdon,VA,24210,Washington,276-525-4361,http://highlandscsb.org,36.728555,-81.9480619,MH
HighlandMedicalCenter,240 Myers Moon Rd,NA,Monterey,VA,24465,,540-468-6400,,38.40683928,-79.57799586,HC
HIGHLANDMEDICALCENTER,120 Jackson River Rd,NA,Monterey,VA,24465,,540-468-6400,http://www.ourhmc.org,38.41046214,-79.58046064,HC
HighlandsCommunityServices/Outpt,610 Campus Drive,Suite 100,Abingdon,VA,24210,Washington,276-525-1550,http://www.highlandscsb.org,36.7107789,-81.9919142,MH
"HillaryGraceWhonder-Genus, ",5060 Valley View Boulevard,NA,Roanoke,VA,24012,ROANOKE,540-278-1051,,37.3091,-79.97,BUPREN
"Hiralben Patel,NP","9306 Steve Street, Manassas Park, VA, 20111",NA,Manassas,VA,20111,WARREN,540-548-2960,,38.7574,-77.4287,BUPREN
HOLSTONFAMILYHEALTH,306 S Shady Ave,NA,Damascus,VA,24236,,276-475-5116,,36.63350357,-81.7889027,HC
HorizonBehavioralHealth,226 Union Boulevard,NA,Appomattox,VA,24522,Appomattox,434-477-5000,http://www.horizonbh.org/,37.3658151,-78.8338781,MH
HorizonBehavioralHealth,37 Village Highway,NA,Rustburg,VA,24588,Campbell,434-477-5000,http://www.horizonbh.org,37.2693621,-79.1110577,MH
HorizonBehavioralHealth,2235 Landover Place,NA,Lynchburg,VA,24501,Lynchburg City,434-948-4831,http://www.horizonbh.org,37.411151,-79.1742968,MH
HorizonBehavioralHealth,2215 Langhorne Road,NA,Lynchburg,VA,24501,Lynchburg City,434-948-4831,http://www.horizonbh.org,37.4125946,-79.1749534,MH
HorizonBehavioralHealth,1409 Ole Dominion Boulevard,NA,Bedford,VA,24523,Bedford City,540-586-5429,http://www.horizonbh.org,37.336584,-79.4958445,MH
"HorizonHealthServices,",8314 Main St,NA,Ivor,VA,23866,,757-859-5015,,36.9056452,-76.89716558,HC
HorizonPharmacy,328 W Main St,NA,Waverly,VA,23890,,804-429-8602,,37.03586439,-77.09571895,HC
HorizonWellnessCenterAt,120 West Commerce Street,NA,Amherst,VA,24521,Amherst,434-946-2316,http://www.horizonbh.org/,37.5773347,-79.0377996,MH
"HowardJosephHeinze, ",Horizon Wellness Treatment Center,2225A Langhorne Rd,Lynchburg,VA,24501,,434-477-5000,,37.4127,-79.1742,BUPREN
HughesCenterForExceptionalChildren,1601 Franklin Turnpike,NA,Danville,VA,24540,Danville City,434-836-8500 x1010,http://thehughescenter.com,36.644956,-79.404537,MH
"Humayun Kabir, ",OCEAN PSYCHIATRIC GROUP,"596 Lynnhaven Parkway, Suite 100.",virginia beach,VA,23452,,757-802-4500,,36.8275,-76.0665,BUPREN
HurleyFamilyHealthCenter,10279 Hurley Rd,NA,Hurley,VA,24620,,276-566-4675,,37.42210911,-82.02085234,HC
"HuyAnthonyTran, ",102 Pawpaw Place,NA,Yorktown,VA,23693,YORK,757-777-4907,,37.1099,-76.4066,BUPREN
"IanChristopherGiles,MD",17068 Lankford Highway,NA,Eastville,VA,23347,NORTHAMPTON,757-331-1086,,37.3493,-75.939,BUPREN
InovaKellarCenter,11204 Waples Mill Road,NA,Fairfax,VA,22030,Fairfax,703-218-8500,http://www.inova.org/healthcare-services/inova-kellar-center/index.jsp,38.8588219,-77.3323527,MH
IntegratedHealthServicesLLC,2 Eaton Street,Suite 1103,Hampton,VA,23669,Hampton City,757-838-1894,http://www.ihsva.com,37.0256757,-76.34114,MH
"IrinaFoxBrennan, ",4320 Seminary Road,NA,Alexandria,VA,22304,,703-504-3065,,38.8223,-77.105,BUPREN
"IvonneFabiolaNieves,NP",1201 Broad Rock Blvd (Bldg 119),NA,Richmond,VA,23249,RICHMOND CITY,804-675-5000,,37.498,-77.4668,BUPREN
IvorDentalCenter,8579 Ivor Rd,NA,Ivor,VA,23866,,757-859-9070,,36.90104177,-76.90449816,HC
IvorMedicalCenter,8575 Ivor Rd,NA,Ivor,VA,23866,,757-859-6161,,36.90118518,-76.90422289,HC
JacksonFeildHomes,546 Walnut Grove Drive,NA,Jarratt,VA,23867,Greensville,434-634-3217 x3002,http://www.jacksonfeild.org,36.8400898,-77.5499513,MH
"JacquelineAnnWilliams,NP",1700 Front Street,NA,Richmond,VA,23222,RICHMOND CITY,804-625-1954,,37.5679,-77.4127,BUPREN
"JamesELowe,PA",411 W. Riverside Drive,NA,Covington,VA,24018,,540-965-9274,,37.7918,-79.9981,BUPREN
"JamesMichealPonder, ",100 Fairview Drive,NA,Franklin,VA,23851,,757-562-2158,,36.692,-76.9376,BUPREN
JAMESRIVERDENTALCLINIC,239 Trojan Rd,NA,Madison Heights,VA,24572,,434-847-4691,http://www.jhcvirginia.org,37.45569946,-79.11451282,HC
"James Thompson, ",548 Blue Ridge Avenue,NA,Bedford,VA,24523,BEDFORD,540-586-4723,,37.336,-79.5329,BUPREN
"Jamica Hughes,NP",7806 Forest Hill Avenue,NA,Richmond,VA,23225,,804-424-1799,,37.5343,-77.54,BUPREN
"Jamica Hughes,NP",8220 Meadowbridge Road,"Building 1, Suite 310",Mechanicsville,VA,23116,RICHMOND CITY,804-417-0120,,37.6278,-77.3871,BUPREN
"JamieDeresaHall,DNP",2042 Highway 16,NA,Marion,VA,24354,SMYTH,276-783-1200,,36.8195,-81.471,BUPREN
"JamieKateDiamond,NP",297 Independence BLVD Suite 126,NA,Virginia Beach,VA,23462,,757-385-0511,,36.8448,-76.1416,BUPREN
"JamunaDanduRaju, ",611 South Carlin Spring Road,Suite 501,Arlington,VA,22204,ARLINGTON,703-861-8722,,38.8594,-77.1264,BUPREN
"JanetBabyWurie,NP",10520 Judicial DR,10520 Judicial Dr,Fairfax,VA,22030,FAIRFAX,703-246-4461,,38.8443,-77.311,BUPREN
"JaneYiHwang,NP",8953 Brewer Creek Place,NA,Manassas,VA,20109,PRINCE WILLIAM,919-845-8435,,38.7624,-77.5508,BUPREN
"JaniceAdelaideMcDonald,MD",Radical Recovery Treatment Center,9321 Sloane Street,Norfolk,VA,23503,VIRGINIA BEACH CITY,757-534-5544,,36.9463,-76.2594,BUPREN
"JasmineJayStauffer,PA",Central Virginia Family Physicians,2215 Landover Pl,Lynchburg,VA,24501,BEDFORD,434-947-3944,,37.3375,-79.5327,BUPREN
"JeanBarrettDevaney,NP",320 Westside Station Drive,NA,Winchester,VA,2260,,,,39.1903,-78.1947,BUPREN
"JeanneMPryor,NP",107 S 5th Street,NA,Richmond,VA,23219,RICHMOND CITY,804-819-4186,,37.5391,-77.4407,BUPREN
"JeffreyJasonKatra,MD","115 Witton Court, Suite 9",NA,Charlottesville,VA,22903,,570-690-4186,,38.0192,-78.4993,BUPREN
"JenniferHollyTurner, ",266 Flint Hill Road,NA,Rocky Mount,VA,24151,FRANKLIN,540-354-9181,,37.0527,-79.8333,BUPREN
"JenniferJansonCooke, ","4854 Haygood Road, Suite 101",NA,Virginia Beach,VA,23455,VIRGINIA BEACH CITY,757-468-0550,,36.8712,-76.1458,BUPREN
"JenniferKathleenCurran,NP",101 N Lynnhaven Rd,Ste 100,Virginia Beach,VA,23452,,833-570-4329,,36.8394,-76.0692,BUPREN
"JenniferLynnJohnson,PA",Community Health Center of the NRV,215 Roanoke Street,Christiansburg,VA,24073,ROANOKE,540-381-0820,,37.2661,-79.9396,BUPREN
"Jenny Cole,NP",1520 Slate Creek Road,Suite 201,Grundy,VA,24614,BUCHANAN,276-242-2001,,37.2849,-82.0678,BUPREN
"Jerusalem Walker,NP",700 University City Boulevard,NA,Blacksburg,VA,24060,MONTGOMERY,540-961-8300,,37.233,-80.4312,BUPREN
"JessicaRayanneJaney,NP",Potomac Behavioral & Occupational Therapy,249 Henderson Avenue,Cumberland,MD,21502,ALLEGANY,240-362-7444,,38.8559,-77.0513,BUPREN
"JessicaSpencerGillispie, ",Avenues to Wellness,16 Walnut Avenue SW,Roanoke,VA,24016,ROANOKE CITY,540-345-6468,,37.2611,-79.9424,BUPREN
"JessicaSpencerGillispie, ",16 Walnut Ave SW,NA,Roanoke,VA,24016,ROANOKE CITY,540-345-6468,,37.2939,-79.998,BUPREN
"JimmyL.Cooper, ",3001 Churchland Boulevard,NA,Chesapeake,VA,23321,CHESAPEAKE CITY,757-977-9675,,36.8655,-76.4019,BUPREN
"JoAnnaJaneWade,NP",767 Madison Road,Suite 107,Culpeper,VA,22701,CULPEPER,540-827-4272,,38.4565,-78.0177,BUPREN
"JoanNicolePalmerini, ",12702 Turberville Court,NA,Herndon,VA,20171,FAIRFAX,703-909-7130,,38.9104,-77.388,BUPREN
"JodyBryanBentley,DO",96 15th Street NW,Suite 111,Norton,VA,24273,NORTON CITY,276-439-1871,,36.9318,-82.643,BUPREN
"JodyLeeAnderson,NP",4038 Thomas Jefferson Hwy,3300 Rivermont Avenue,Arrington,VA,22922,CHARLOTTE,434-263-4000,,37.111,-78.645,BUPREN
"JohnJamesHurley,MD",501 N 2nd St #100,NA,Richmond,VA,23219,,1-804-628-6777,,37.5465,-77.438,BUPREN
"JohnMSheridan,III",565 Waterloo Drive,NA,Lexington,VA,24450,ROCKBRIDGE,540-460-1449,,37.8666,-79.574,BUPREN
"JohnsonAdeniyiKomolafe,NP",25 SOUTH QUAKER LANE,SUIT 35,ALEXANDRIA,VA,22314,ALEXANDRIA CITY,571-257-4398,,38.8073,-77.0878,BUPREN
JohnsonHealthCenter,148 Elon Rd,NA,Madison Heights,VA,24572,,434-929-1400,,37.46724943,-79.12124232,HC
JohnsonHealthCenter -,2402 Atherholt Rd,NA,Lynchburg,VA,24501,,434-455-3275,http://www.jhcvirginia.org,37.40931049,-79.17516059,HC
JOHNSONHEALTHCENTER,320 Federal St,NA,Lynchburg,VA,24504,,434-947-5967,,37.41619719,-79.15168338,HC
"JonathanRobertNogueira, ",Carilion Clinic,1906 Belleview Avenue SE,Roanoke,VA,24014,,540-846-9517,,37.2513,-79.9417,BUPREN
JonesvilleFamilyHealth,276 Fieldstone Dr,NA,Jonesville,VA,24263,,276-546-5310,,36.72192704,-83.1127798,HC
"Joseph Lang, ",6379 Center Drive,NA,Norfolk,VA,23502,,757-467-4200,,36.847,-76.1844,BUPREN
"JoshuaAdamMullins,NP",300 Valley St NE,NA,Abingdon,VA,24210,WASHINGTON,606-213-4184,,36.7142,-81.9671,BUPREN
"JoyeBKimbrell,NP",113 Eagle Ridge Lane,NA,Bristol,VA,24202,BRISTOL CITY,276-701-6360,,36.6678,-82.1214,BUPREN
"Juanita Parker,NP",1728 Virginia Beach Boulevard,Suite 113,Virginia Beach,VA,23454,VIRGINIA BEACH CITY,757-437-0411,,36.8439,-76.0232,BUPREN
"Juliette Montauk,NP",Danville-Pittsylvania Community Services,245 Hairston Street,Danville,VA,24540,DANVILLE CITY,434-799-0456,,36.5971,-79.4163,BUPREN
"JungMKim,NP",6408 Seven Corners Place,Suite C,Fairfax,VA,22044,FAIRFAX,703-532-1909,,38.8711,-77.1586,BUPREN
"Kali Tichenor,NP",315 W 10th Street STE B,NA,Front Royal,VA,22630,WARREN,,,38.9311,-78.2003,BUPREN
"KarenLynnLester,NP",754 East Main St.,NA,Lebanon,VA,24266,RUSSELL,276-415-9600,,36.9022,-82.0646,BUPREN
"KarenOwusuAgyare,NP",7288 Hanover Green Drive,NA,Mechanicsville,VA,23111,PRINCE WILLIAM,571-212-1676,,37.6043,-77.3757,BUPREN
"KatherineVirginiaWarzinski,NP",Groups Recover Together,"410 Rosedale Court, Suite 110",Warrenton,VA,20186,WARREN,540-743-4548,,38.7179,-77.7827,BUPREN
"KathleenDianaDiPasqualeSeelig,MD",180 E. Belt Boulevard,NA,Richmond,VA,23224,RICHMOND CITY,804-292-3011,,37.5058,-77.4817,BUPREN
"KathleenHessAnderson, ",The Right Path Treatment Center,101 North Lynnhaven Road,Virginia Beach,VA,23452,VIRGINIA BEACH CITY,757-321-0795,,36.8395,-76.0692,BUPREN
"KathrynReneeDurbin, ",2251 Valley Ave,NA,Winchester,VA,22601,,540-278-2228,,39.1613,-78.1859,BUPREN
"KathyRosserTierney,NP",107 South Fifth Street,NA,Richmond,VA,23219,RICHMOND CITY,804-343-7668,,37.5391,-77.4407,BUPREN
"KatiaYvetteHall,NP",2010 Old Greenbrier Rd.,Suite J,Chesapeake,VA,23320,CHESAPEAKE CITY,757-413-5444,,36.7934,-76.2337,BUPREN
"Katina Fletcher,NP",101 Buford Rd Ste 201,NA,chesterfield,VA,23235,CHESTERFIELD,804-248-3926,,37.4993,-77.5449,BUPREN
"Katina Fletcher,NP",6767 Forest Hill Avenue,NA,Richmond,VA,23225,,804-320-1395,,37.5372,-77.5188,BUPREN
"KatrinaDianeEdwards,NP",203 Gray Commons Circle Suite 110,NA,Johnson City,TN,37615,WASHINGTON,833-371-0509,,36.7127,-81.9955,BUPREN
"KeishaQ.James,NP",4907 Fitzhugh Avenue,NA,Richmpond,VA,23230,CHESTERFIELD,804-464-8340,,37.367,-77.3143,BUPREN
"KeithA.Henry,NP",2306 Plank Road,NA,Fredericksburg,VA,22401,DANVILLE CITY,540-785-9900,,38.2959,-77.4986,BUPREN
"KelleyK.Prado,PA",21 E. Bellfonte Avenue,NA,Alexandria,VA,22301,,877-522-1275,,38.8226,-77.0617,BUPREN
"KellyChristinaOwens,NP",Hampton VA Medical Center,100 Emancipation Drive,Hampton,VA,23667,HAMPTON CITY,757-722-9961,,37.0148,-76.3322,BUPREN
KempsvilleCenterForBehavioralHlth,860 Kempsville Road,NA,Norfolk,VA,23502,Norfolk City,757-461-4565,http://kempsvillecbh.com/,36.853049,-76.1896491,MH
KENBRIDGEELEMENTARYSCHOOL,215 Nottoway Falls Rd,NA,Kenbridge,VA,23944,,434-676-2053,http://www.sdhsinc.com,36.9674311,-78.12265146,HC
"KennethWilliamWaller,MD",VAMC Hampton,100 Emancipation Drive,Hampton,VA,23667,HAMPTON CITY,727-722-9961,,37.0148,-76.3322,BUPREN
"KermitLeeDugger,NP",809 Lamont Street,Building 160,Mountain Home,TN,37684,WASHINGTON,423-926-1171,,36.7109,-81.9937,BUPREN
"KerriMoniqueBennett,NP",216 Hospital Avenue,NA,Marion,VA,24354,SMYTH,276-783-8185,,36.8352,-81.5139,BUPREN
"KevinDeanStocker, ",UVA OB/GYN Culpeper Suite 103,541 Sunset lane,Culpeper,VA,22701,CULPEPER,540-321-3002,,38.473,-77.9963,BUPREN
"KimberlyAnnOlinger,NP",301 falls drive,NA,Abingdon,VA,24210,SMYTH,276-783-9514,,36.7122,-81.9943,BUPREN
"KimberlyLeannKaminer,MD",710 Kanawah Run,NA,Yorktown,VA,23693,YORK,757-240-4946,,37.1081,-76.4108,BUPREN
"KimberlyLeannKaminer,MD",2208 Executive Drive,Suite E,Hampton,VA,23666,,757-280-3578,,37.0509,-76.3973,BUPREN
KiptopekeDental,24023 Fairview Rd,NA,Cape Charles,VA,23310,,757-414-0400 x1210,,37.25359526,-75.97180523,HC
KONNAROCKFAMILYHEALTH,20471 Azen Rd,NA,Damascus,VA,24236,,276-388-3431,,36.66495771,-81.63591654,HC
"KossiPierreEklou,NP",8680 Hospital Way,NA,Manassas,VA,20110,PRINCE WILLIAM,703-369-8464,,38.7663,-77.4887,BUPREN
"KristaMARIEGrimmett,PA",825 Diligence Drive Suite 206 and 100-B,NA,Newport News,VA,23606,,757-310-6900,,37.085,-76.4628,BUPREN
"KristenBarlowSchnurman, ",5000 New Point Road,Suite 3201,Williamsburg,VA,23188,YORK,757-645-3558,,37.3091,-76.7527,BUPREN
"KristinaEvetteCooper,NP",100 7th Street,NA,Portsmouth,VA,36688,ISLE OF WIGHT,866-284-4648,,36.8294,-76.3042,BUPREN
KuumbaCommunityHealthAnd,3716 Melrose Ave NW,NA,Roanoke,VA,24017,,540-362-1788,http://www.newhorizonshealthcare.org,37.29406418,-79.9977272,HC
"Lakeisha Keneti,NP",2470 Pruden Boulevard,NA,Suffolk,VA,23434,SUFFOLK CITY,757-922-8048,,36.763,-76.5922,BUPREN
"LancieN/ALokis, ",2700 London Boulevard,NA,Portsmouth,VA,23320,,757-673-6452,,36.8374,-76.3344,BUPREN
"LatoyaMichelleBonney, ",3311 Circle Brook Drive,apt f,roanoke,VA,24018,ROANOKE,434-944-3857,,37.2355,-79.986,BUPREN
"LauraBelleMaupin, ",Partners Family Medicine & Recovery Center,4453 US 90,Pace,FL,32571,WARREN,850-905-0110,,38.9233,-78.193,BUPREN
"LauraJudithSimpson,NP",25 Northridge Lane,NA,Lexington,VA,24450,ROCKBRIDGE,540-464-8700,,37.8037,-79.405,BUPREN
"LaurieHawksJones,NP",6999 Carrollton Pike,Suite 1,Galax,VA,24333,CARROLL,276-238-9700,,36.7007,-80.8509,BUPREN
"LeonardJamesZimmer,NP",5213 Hickory Park Drive,NA,Glen Allen,VA,23059,HENRICO,804-270-7262,,37.6769,-77.5886,BUPREN
"LeslieWilliamRose,III",7605 Forest Avenue,Suite 100,Richmond,VA,23229,HENRICO,804-288-8339,,37.6041,-77.5414,BUPREN
LewisGale,1902 Braeburn Drive,NA,Salem,VA,24153,Salem,540-772-2801,http://www.lewisgale.com,37.2640592,-80.0279926,MH
"LillianJuanitaMorris, ",160 Peregory Lane,NA,Charlottesville,VA,22902,ALBEMARLE,434-981-4550,,38.0061,-78.4946,BUPREN
"LindsayRevaeCaine-Conley,PA",3300 Rivermont Ave,NA,Lynchburg,VA,24503,LYNCHBURG CITY,434-200-4645,,38.032,-78.4703,BUPREN
"Lindsey Plato-Johnson,NP",4049 Main street,NA,Chincoteague,VA,23336,ACCOMACK,757-336-3682,,37.9339,-75.378,BUPREN
"LisaAnnWiener,NP",4379 Ridgewood Center Drive,Suite 102,Woodbridge,VA,22192,PRINCE WILLIAM,703-680-7950,,38.6735,-77.3406,BUPREN
"LisaDarleneWashington-Mora,NP","1965 Emancipation Hwy, suite 100",NA,Fredericksburg,VA,22401,SPOTSYLVANIA,540-735-0560,,38.281,-77.5262,BUPREN
LittleCreekFamilyHealth,7447 Central Business Park Dr,NA,Norfolk,VA,23513,,757-393-6363,,36.911572,-76.24956901,HC
"LorenWaldenLee,NP",204 N Hamilton St,Suite B,Richmond,VA,23221,,804-353-1230,,37.5601,-77.4906,BUPREN
"LoriAnnRutherford,NP",1970  Roanoke Boulevard,NA,Salem,VA,24153,SALEM,540-982-2463,,37.2743,-80.0185,BUPREN
LoudounCommunityHealth,13800 Wall Rd STE 055,NA,Herndon,VA,20171,,703-443-2000,http://www.hwnova.org,38.91827573,-77.42297863,HC
LoudounCommunityHealth,1141 Elden St STE 300,NA,Herndon,VA,20170,,703-443-2000,http://hwnova.org,38.96478607,-77.39761633,HC
LoudounCommunityHealth,163 Fort Evans Rd NE,NA,Leesburg,VA,20176,,703-443-2000,http://hwnova.org/,39.10924679,-77.54090119,HC
LoudounCountyMentalHealthCenter,21641 Ridgetop Circle,Suite 210,Sterling,VA,20166,Loudoun,703-771-5100,http://www.loudoun.gov/index.aspx?NID=121,39.025427,-77.4080665,MH
LoudounCountyMentalHealthCenter,102 Heritage Way NE,Suite 302,Leesburg,VA,20176,Loudoun,703-771-5100,http://www.loudoun.gov/index.aspx?NID=121,39.1143262,-77.5405219,MH
LunenburgMedicalCenter,1508 K V Rd,NA,Victoria,VA,23974,,434-696-2165,http://www.sdhsinc.com,36.97014998,-78.19852202,HC
LUNENBURGMIDDLESCHOOL,583 Tomlinson Rd,NA,Victoria,VA,23974,,434-696-1644,http://www.sdhsinc.com,36.9878031,-78.20659932,HC
"MacArthurWainwrightPayne,PA",Central State Hospital,26317 W Washington Street,Petersburg,VA,23803,DINWIDDIE,804-524-7000,,37.2116,-77.4491,BUPREN
MainStreetPhysicians,157 N Main St STE A,NA,Suffolk,VA,23434,,757-925-1866,,36.72933765,-76.5827837,HC
"ManhalGeorgeSaleeby, ",1755 N Mecklenburg Ave,NA,South Hill,VA,23970,MECKLENBURG,434-584-2273,,36.7333,-78.1307,BUPREN
"Marcelli Pascal-Rodriguez,NP",505 South Independence Boulevard,Suite 207,Virginia Beach,VA,23452,VIRGINIA BEACH CITY,757-232-4834,,36.8248,-76.1301,BUPREN
"MargotVeronicaWilson,NP",1000 Commercial Lane,NA,Suffolk,VA,23434,SUFFOLK CITY,757-470-9454,,36.7788,-76.5807,BUPREN
"MariaReginaCenzon,MD",3143 Magic Hollow Boulevard,Suite 200,Virginia Beach,VA,23453,VIRGINIA BEACH CITY,757-385-8222,,36.8047,-76.0792,BUPREN
"MaribelleMendoza-DomendenBlackmon,NP",200 Medical Parkway,Suite 315,Chesapeake,VA,23320,CHESAPEAKE CITY,757-285-7298,,36.7449,-76.2471,BUPREN
"Marilyn Wade-Foster,NP",1291 S Boston Road,NA,Danville,VA,24540,DANVILLE CITY,434-251-9210,,36.5788,-79.4011,BUPREN
MarionMAT,416 E Main St RM 2,NA,Marion,VA,24354,,276-783-8185,,36.83547685,-81.51401416,HC
"MarthaJaneKlinger, ",1307 Jamestown Rod,Suite 202,Williamsburg,VA,23185,WILLIAMSBURG CITY,757-229-7927,,37.2522,-76.7374,BUPREN
"Martin Charron,MD",11720 Main Street,Suite 108,Fredericksburg,VA,22408,SPOTSYLVANIA,540-735-9350,,38.2781,-77.4485,BUPREN
"MartinDavidKlinkhammer, ",Emergency Physicians of Tidewater,4092 Foxwood Drive,Virginia Beach,VA,23462,VIRGINIA BEACH CITY,757-635-9523,,36.8083,-76.1205,BUPREN
"MartinsvilleTreatmentServices,LLC","8500 A. L. Philpott Highway, Suite #3",NA,Martinsville,VA,24112,,276 732.6654,,36.6933756,-79.8305497,OTP
"MaryAliceCox, ",108 Baker Road,NA,Dublin,VA,24084,PULASKI,434-441-6952,,37.085,-80.678,BUPREN
"MaryAnne Harmon,NP",203 East Cary Street,NA,Richmond,VA,23298,RICHMOND CITY,804-828-3793,,37.5405,-77.443,BUPREN
"MaryElizabethKwiecinski,CNM",61 Meadow Glen Drive,NA,Staunton,VA,24401,AUGUSTA,434-229-3859,,38.1167,-79.0808,BUPREN
"MaryElizabethMcGrath, ",13308 Scotsmore Way,NA,Herndon,VA,20171,FAIRFAX,703-481-8832,,38.9185,-77.4068,BUPREN
"MaryKathleenBrooks,NP",1345 Plantation Rd NE,NA,Roanoke,VA,24012,ROANOKE,540-699-1824,,37.3209,-79.8826,BUPREN
"MaryNnekaUkpabi-Egbuniwe, ",Hopewell/Prince George Community Health Center,4200 Crossing Boulevard,Prince George,VA,23875,PRINCE GEORGE,804-452-5800,,37.2569,-77.3264,BUPREN
"Matindokht Taheri,NP",10496 Dunn Meadow Road,NA,Vienna,VA,22182,FAIRFAX,703-863-9500,,38.9743,-77.3074,BUPREN
"Matthew Bernniard,MD",240 Mustang Trail,STE 1,Virginia Beach,VA,23452,,757-949-8076,,36.8403,-76.0663,BUPREN
"MatthewTStich,MD",144 Prison Lane,NA,Troy,VA,22974,ALEXANDRIA CITY,434-422-3502,,38.7981,-77.0647,BUPREN
"MatthewTStich,MD",144 Prison Ln,NA,Troy,VA,22974,LOUDOUN,434-422-3700,,39.0752,-77.5449,BUPREN
MeadowviewHealthClinic,13168 Meadowview Sq,NA,Meadowview,VA,24361,,276-944-3999,,36.7613118,-81.86111313,HC
"MeganDowMcPhee, ",24 S Windsong Court,NA,Fishersville,VA,24929,AUGUSTA,434-414-4435,,38.1077,-78.9759,BUPREN
"MeganElizabethCarter,PA",210 Professional Park,Suite 9,Blacksburg,VA,24060,MONTGOMERY,,,37.1962,-80.4012,BUPREN
"Megan Zamora,NP",143 Industrial Parkway,NA,Clarksville,VA,23927,MECKLENBURG,434-572-6916,,36.6004,-78.5656,BUPREN
"MelanieHopeLeonhartJones, ",5400 Elsom Mascot Rd,NA,Mascot,VA,23108,WESTMORELAND,757-585-9641,,38.254,-76.9777,BUPREN
"MelanieSabineDaniel,NP",Tidewater psychotherapy,2,VIRGINIA BEACH,VA,23462,NORFOLK CITY,757-497-3670,,36.8323,-76.1559,BUPREN
"MelissaShirlraeFranklin,NP",2195 Euclid Ave,NA,Bristol,VA,24201,SMYTH,276-669-5179,,36.8763,-81.7693,BUPREN
"Meredith Camilleri,NP",4847 Fort Avenue,NA,Lynchburg,VA,24502,,434-326-4908,,37.3814,-79.1824,BUPREN
METOMPKINSCHOOLDENTAL,24501 Parksley Rd,NA,Parksley,VA,23421,,757-665-1159,http://www.esrh.org,37.77888281,-75.64641514,HC
MetroTreatmentOfVirginia,2217 E. Franklin Street,NA,Richmond,VA,23223,,804 213-0249,,37.530759,-77.423106,OTP
"MetroTreatmentOfVirginia,LP",30 Baxter Drive,NA,Harrisonburg,VA,22801,,540 908-3917,,38.4123919,-78.90339,OTP
MHCCoalitionAdmin,29 Jones St,NA,Martinsville,VA,24112,,276-403-5099,,36.6919697,-79.87317749,HC
MHCDentalClinic,23 Fayette St,NA,Martinsville,VA,24112,,276-403-5099,,36.69239646,-79.87356859,HC
MHCMobileUnit,4944 Greensboro Rd,NA,Ridgeway,VA,24148,,276-403-5099,,36.62635398,-79.85981087,HC
"MichaelDevitoBrooks, ",9000 Boydton Plank Road,NA,Alberta,VA,23821,BRUNSWICK,434-949-6700,,36.8445,-77.9022,BUPREN
"MichaelWayneMorton,PA",3425 Flint Avenue,NA,Harrisonburg,VA,22801,ROCKINGHAM,540-434-1759,,38.4517,-78.9241,BUPREN
"Michelle Hoffmann,NP",Addiction Recovery Center of Williamsburg,"5000 New Point Road, Suite 3201",Williamsburg,VA,23188,YORK,757-201-9771,,37.3091,-76.7527,BUPREN
"Michelle Whittaker,NP",4970 North Spring Drive,NA,Roanoke,VA,24016,ROANOKE,540-345-6468,,37.3224,-80.0066,BUPREN
MiddlePeninsulaNorthernNeckCSB,9228 George Washington Mem Highway,NA,Gloucester,VA,23061,Gloucester,804-693-5057,http://www.mpnncsb.org,37.4348405,-76.5693679,MH
MiddlePeninsula/NorthernNeckCSB,330 Hospital Road,NA,Tappahannock,VA,22560,Essex,804-333-3671,http://www.mpnncsb.org,37.8990759,-76.8747535,MH
"Miriam Meko,MD",Virgina Family Medicine,2070 Chain Bridge Road,Vienna,VA,22182,FAIRFAX,703-383-4836,,38.9173,-77.2374,BUPREN
MobileMedicalUnit #1,25 Northridge Ln,NA,Lexington,VA,24450,,540-464-8700 x7111,http://www.rockahc.org,37.80401687,-79.40548003,HC
"MohammedSaiduNabie,NP",3771-A Fettler Park Drive,NA,DUMFRIES,VA,22025,PRINCE WILLIAM,703-441-1905,,38.5794,-77.3284,BUPREN
"MonicaN.Bartorelli,NP",314 Fairy Street,NA,Martinsville,VA,24112,ALAMANCE,276-201-1647,,36.696,-79.8598,BUPREN
MontgomeryAdminAnnex,211 Roanoke St,NA,Christiansburg,VA,24073,,540-381-0820,,37.13013989,-80.40251437,HC
MontgomeryClinic,215 Roanoke St,NA,Christiansburg,VA,24073,,540-381-0820,http://www.chcnrv.org,37.13013436,-80.40222603,HC
MountainViewFamily,2131 Magnolia Ave,NA,Buena Vista,VA,24416,,540-464-8700,http://www.rockahc.org,37.73483188,-79.35411958,HC
MountRogersCommunityServicesBoard,108 Bedwell Street,NA,Independence,VA,24348,Grayson,276-773-3515,http://www.mountrogers.org,36.6195754,-81.1517284,MH
MulticulturalClinicalCenter,6563 Edsall Road,NA,Springfield,VA,22151,Fairfax,703-354-0000 x109,http://www.mccva.com,38.8058496,-77.1711814,MH
"Nakita Harris,NP",601 Blanton Drive,NA,Newportnews,VA,23608,,504-470-9390,,37.1679,-76.5668,BUPREN
"NancyeLynnSadler,NP",9001 Digges Road,Suite 104,Manassas,VA,20110,MANASSAS CITY,703-239-3602,,38.7649,-77.4869,BUPREN
NanduaMiddleSchool,20330 Warrior Dr,NA,Onley,VA,23418,,757-787-7037,http://nms.accomack.k12.va.us,37.6818259,-75.72502264,HC
"NayanABhatia, ",1906 belleview ave se,NA,roanoke,VA,24014,ROANOKE CITY,540-981-7000,,37.2517,-79.9411,BUPREN
NeighborhoodHealth,2100 Washington Blvd,NA,Arlington,VA,22204,,703-535-5568,http://www.neighborhoodhealth.org,38.8732284,-77.08324978,HC
NeighborhoodHealthAt,8350 Richmond Hwy STE 301,NA,Alexandria,VA,22309,,703-535-5568,,38.73150492,-77.1041203,HC
NeighborhoodHealthAt,7501 Little River Tpke STE G4,NA,Annandale,VA,22003,,703-535-5568,http://www.neighborhoodhealthva.org,38.83162487,-77.20459644,HC
NeighborhoodHealthAt,2616 Sherwood Hall Ln STE 106,NA,Alexandria,VA,22306,,703-535-5568,,38.74341464,-77.07723082,HC
NeighborhoodHealthAt,6715 Little River Tpke STE 201,NA,Annandale,VA,22003,,703-535-5568,,38.82543324,-77.17551576,HC
NeighborhoodHealthAt,8221 Willow Oaks Corporate Dr,NA,Fairfax,VA,22031,,703-535-5568,http://www.neighborhoodhealthva.org,38.86376284,-77.23378273,HC
NeighborhoodHealthAt,6677 Richmond Hwy,NA,Alexandria,VA,22306,,703-535-5568,,38.77348807,-77.08045995,HC
NeighborhoodHealthAt,720 N Saint Asaph St,NA,Alexandria,VA,22314,,703-535-5568,,38.81226179,-77.04427142,HC
NeighborhoodHealthAt,"1225 Martha Custis Dr, Ste C1",NA,Alexandria,VA,22302,,703-535-5568,,38.84218171,-77.08014747,HC
NeighborhoodHealthAt,2120 Washington Blvd,NA,Arlington,VA,22204,,703-535-5568,,38.87374485,-77.083977,HC
NeighborhoodHealthAt 2,2 E Glebe Rd,NA,Alexandria,VA,22305,,703-535-5568,http://www.neighborhoodhealth.org,38.83541814,-77.05742698,HC
NeighborhoodHealthAtThe,8119 Holland Rd,NA,Alexandria,VA,22306,,703-535-5568,http://www.neighborhoodhealthva.org,38.73728663,-77.07911642,HC
NeighborhoodHealthAtThe,1200 N Howard St,NA,Alexandria,VA,22304,,703-778-0340,http://www.neighborhoodhealthva.org,38.82193245,-77.10369283,HC
NeighborhoodHealthJoseph,3750 Old Lee Hwy,NA,Fairfax,VA,22030,,703-535-5568,,38.85025289,-77.29916426,HC
NeighborhoodHealthKing,4480 King St,NA,Alexandria,VA,22302,,703-838-4400,http://www.neighborhoodhealth.org,38.83965314,-77.10558085,HC
NeighborhoodHealthMark,4850 Mark Center Dr STE 3113,NA,Alexandria,VA,22311,,703-535-5568,,38.83001294,-77.1186966,HC
NeighborhoodHealthSouth,8350 Richmond Hwy STE 233,NA,Alexandria,VA,22309,,703-535-5568,,38.73150492,-77.1041203,HC
NelsonCountyHighSchool,6919 Thomas Nelson Hwy,NA,Lovingston,VA,22949,,434-263-6892,http://www.brmedical.org,37.73278301,-78.89647798,HC
"NewHorizonsHealthcare,",5060 Valley View Blvd NW,NA,Roanoke,VA,24012,,540-362-0360,http://newhorizonshealthcare.org,37.30913245,-79.96938128,HC
"NewHorizonsHealthcare,",3620 Melrose Ave NW,NA,Roanoke,VA,24017,,540-362-0360,,37.293666,-79.99710703,HC
NewportAcademy,8280 Willow Oaks Corporate Drive,Suite 125,Fairfax,VA,22031,Fairfax,877-820-6371,http://newportacademy.com,38.8636363,-77.2288722,MH
NewportAcademy,11901 Plantation Drive,NA,Great Falls,VA,22066,Fairfax,877-820-6371,http://www.newportacademy.com,39.0227897,-77.3572522,MH
NewportAcademy,1318 Kurtz Road,NA,McLean,VA,22101,Fairfax,877-820-6371,http://www.newportacademy.com,38.9364764,-77.1726685,MH
NewRiverValleyCommunityServices,260 Webbs Mill Road,NA,Floyd,VA,24091,Floyd,540-745-2047,http://www.nrvcs.org,36.9191246,-80.3250752,MH
NewRiverValleyCommunityServices,401 West Main Street,NA,Radford,VA,24141,Radford City,540-838-8000,http://www.nrvcs.org,37.1338269,-80.577643,MH
NewRiverValleyCommunityServices,705 Wenonah Avenue,NA,Pearisburg,VA,24134,Giles,540-921-2238,http://nrvcs.org,37.327443,-80.7318141,MH
NewRiverValleyCommunityServices,327 North Washington Avenue,NA,Pulaski,VA,24301,Pulaski,540-994-5023,http://www.nrvcs.org,37.0494794,-80.7802969,MH
"NhiNgocDai, ",2005 Old Greenbrier Road,Suite 104,Chesapeake,VA,23320,CHESAPEAKE CITY,702-927-3599,,36.7934,-76.2337,BUPREN
"NhiNgocDai, ",1589 Wynd Crest Way,NA,Virginia Beach,VA,23456,,,,36.7899,-76.1263,BUPREN
"NicoleDariceKemp,NP","5334 Airport Road, NW",NA,Roanoke,VA,24012,,540-562-5700,,37.3213,-79.9607,BUPREN
"NicoleDariceKemp,NP",1314 Peters Creek Road,NA,Roanoke,VA,1314,,540-562-5700,,37.3001,-80.0081,BUPREN
"NikkiFayeRoberts,NP",1662 Bonham Road,NA,Bristol,VA,24201,WASHINGTON,423-434-6677,,36.615,-82.1246,BUPREN
"NoraHatemElnahas,NP",99 Tremont Street,NA,Manassas Park,VA,20111,FAIRFAX,703-350-3390,,38.7589,-77.14,BUPREN
NorthernVirginiaFamilyService,6400 Arlington Boulevard,Suite 110,Falls Church,VA,22042,Fairfax,571-748-2800,http://www.nvfs.org/multicultural,38.8727611,-77.160305,MH
NorthsideMedicalCenter,2809 North Ave STE 206,NA,Richmond,VA,23222,,804-780-0840,http://www.cahealthnet.org,37.56908763,-77.4328681,HC
NorthsideMedicalCenter,2809 North Ave,NA,Richmond,VA,23222,,804-780-0840,,37.56908763,-77.4328681,HC
NorthSpringBehavioralHealthcare,42009 Victory Lane,NA,Leesburg,VA,20176,Loudoun,703-777-0800,http://www.northspringleesburg.com,39.1458809,-77.5465238,MH
NorthwoodMiddleSchool,156 Long Hollow Rd,NA,Saltville,VA,24370,,276-496-4492,,36.92997849,-81.62581651,HC
"Nsekenene Kolongo,MD",3925 Colony Pointe Drive,NA,Chesapeake,VA,23321,,757-899-0313,,36.8031,-76.4079,BUPREN
NWCSBPageClinic,214 South Braddock Street,NA,Winchester,VA,22601,Winchester City,540-743-4548,http://www.nwcsb.com/,39.1819473,-78.1678884,MH
"OanhDSmith,NP",3300 Woodburn Road,NA,Annandale,VA,22003,FAIRFAX,703-205-9452,,38.8551,-77.2245,BUPREN
OccohannockDental,4208 Seaside Rd,NA,Exmore,VA,23350,,757-414-0400,,37.52088079,-75.81434255,HC
OceanViewMedicalAnd,9581 Shore Dr,NA,Norfolk,VA,23518,,757-393-6363,http://www.hrchc.org,36.92818317,-76.19113592,HC
"OlajumokeAdemolaAdetunji,NP",43263 Canal Creek Place,NA,Leesburg,VA,20176,LOUDOUN,17039997074,,39.0854,-77.5075,BUPREN
OnleyCommunityHealth,20306 Badger Ln,NA,Onancock,VA,23417,,757-787-7374,http://esrh.org,37.68893941,-75.72588053,HC
OrchardCreekClinic,8494 S Scenic Hwy,NA,Bland,VA,24315,,276-688-0500,http://www.BlandClinic.com,37.10084308,-81.12305294,HC
ParkPlaceFamilyHealth,3415 Granby St,NA,Norfolk,VA,23504,,757-533-9108,http://www.hrchc.org,36.87833469,-76.28209289,HC
ParkView,2420 Memorial Ave,NA,Lynchburg,VA,24501,,434-200-3366,http://www.communityaccessnetwork.org,37.40295604,-79.1674121,HC
PATHSCommunityDental,501 Rison St STE 110,NA,Danville,VA,24541,,434-791-0214,,36.5786299,-79.40139528,HC
PATHSCommunityMedical,1627 Seymour Dr,NA,South Boston,VA,24592,,434-791-3630 x1023,http://www.pathsinc.org,36.69678246,-78.89278802,HC
PATHSCommunityMedical,380 Washington St,NA,Boydton,VA,23917,,434-738-6420,http://www.pathsinc.org,36.66673053,-78.38801832,HC
PATHSCommunityMedical,705 Main St,NA,Danville,VA,24541,,434-791-4122,http://www.pathsinc.org,36.58595425,-79.39545192,HC
PATHSCommunityMedical,336 Old Riverside Dr,NA,Danville,VA,24541,,434-791-3630,http://pathsinc.org,36.58803162,-79.42204418,HC
PATHSCommunityMedical,287 Commonwealth Blvd W,NA,Martinsville,VA,24112,,276-632-2966,http://www.pathsinc.org,36.69697667,-79.88220052,HC
PATHSCommunityPharmacy,1049 Brookdale St Ste A,NA,Martinsville,VA,24112,,276-670-2207,http://www.pathsinc.org,36.6794934,-79.85086956,HC
PATHSCommunityPharmacy -,133 S Ridge St Bldg,NA,Danville,VA,24541,,434-791-4880,,36.58547426,-79.39404921,HC
PATHSGeorgeWashington,701 Broad St,NA,Danville,VA,24541,,434-791-3630,http://www.pathsinc.org,36.5870527,-79.41416695,HC
"Patricia Beauzile, ",Carilion Clinic Obstetrics and Gynecology - New River Valley,2875 Barn Road,Christiansburg,VA,24073,MONTGOMERY,540-731-4578,,37.0918,-80.5058,BUPREN
"PatriciaJoRodgers, ",JENCARE SENIOR MEDICAL CENTERS,524 Southpark Blvd.,Colonial Heights,VA,23834,COLONIAL HEIGHTS CITY,804-504-7980,,37.2433,-77.3918,BUPREN
"PaulineCarvellaReed,MD",940 General Booth Boulevard,NA,Virginia Beach,VA,23451,,757-425-3610,,36.8081,-75.9901,BUPREN
PediatricMedicalCenter,5855 Bremo Rd STE 302,NA,Richmond,VA,23226,,804-282-4207,,37.58451284,-77.51301921,HC
"PeterThorntonWilbanks,MD",12129 Graham Meadows Drive,NA,Richmond,VA,23233,HENRICO,804-288-4084,,37.6562,-77.637,BUPREN
"PHUONG-THUTHIVO, ",2120 Washington Boulevard,NA,Arlington,VA,22204,ARLINGTON,703-228-5150,,38.8739,-77.0844,BUPREN
PiedmontAccessToHealth,116 S Ridge St,NA,Danville,VA,24541,,434-791-3630,http://www.pathsinc.org,36.5857797,-79.39470107,HC
PiedmontCommunityServices,22280 Jeb Stuart Highway,NA,Stuart,VA,24171,Patrick,276-632-7128 x104,http://www.piedmontcsb.org,36.627576,-80.193752,MH
"PinnacleTreatmentCenters,VA-I,LLC",905-C Southlake Blvd.,NA,Richmond,VA,23236,,804 419-0492,,37.504936,-77.598127,OTP
"PinnacleTreatmentCenters,VA-I,LLC",4906 Radford Ave.,NA,Richmond,VA,23230,,804 354-1996,,37.580762,-77.495055,OTP
PoplarSpringsHospital,350 Poplar Drive,NA,Petersburg,VA,23805,Petersburg City,804-733-6874,http://poplarsprings.com,37.1873426,-77.3591622,MH
PositivePathways,900 Granby Street,Suite 245,Norfolk,VA,23510,Norfolk City,757-543-1870,http://www.GotMyPath.com,36.8591547,-76.287827,SU
PulaskiCountyHighSchool,5414 Cougar Trail Rd BLDG 2,NA,Dublin,VA,24084,,540-381-0820,http://www.chcnrv.org,37.09422398,-80.71603401,HC
"PulaskiMedical,LLC",1006 E.Main Street,NA,Pulaski,VA,24301,,540980-1125,,37.0484681,-80.7615951,OTP
Pulaski/RadfordClinic,5826 Ruebush Rd STE B,NA,Dublin,VA,24084,,540-585-1310,http://www.chcnrv.org,37.11543438,-80.67023102,HC
PUNGOTEAGUEDENTALPROGRAM,28480 Bobtown Rd,NA,Melfa,VA,23410,,757-789-7777,http://www.esrh.org,37.65185842,-75.7921497,HC
"QuincyXue-YingZhong, ",1300 Jefferson Park Avenue RM 3146,Department of Psychiatry,Charlottesville,VA,22903,ALBEMARLE,434-924-2241,,38.0334,-78.5017,BUPREN
"RachelH.McLaughlin,NP","8220 Meadowbridge Road, MOB 1",Suite 310,Mechanicsville,VA,23116,RICHMOND CITY,804-417-0120,,37.6278,-77.3871,BUPREN
RAHC -BuenaVista,2127 Magnolia Ave,NA,Buena Vista,VA,24416,,540-464-8700,,37.73480196,-79.35413207,HC
RAHCKendalDrive,170A Kendal Dr,NA,Lexington,VA,24450,,540-464-8700,,37.78060404,-79.46089013,HC
RAHC -MagnoliaSquare,35 Magnolia Sq STE 9,NA,Lexington,VA,24450,,540-464-8700,,37.79386252,-79.42380254,HC
"Rajinderpal Singh,MD",Prince William County Government Community Services,7969 Ashton Avenue,Manassas,VA,20109,PRINCE WILLIAM,703-792-7800,,38.7886,-77.5191,BUPREN
"Ram Gopalan, ",10333 Brittenford Drive,NA,Vienna,VA,22182,FAIRFAX,703-627-1951,,38.944,-77.3076,BUPREN
"RandyAllenGallagher,DO",1 Health Circle,NA,Lexington,VA,24450,ROCKBRIDGE,540-849-5496,,37.7789,-79.4412,BUPREN
RappahannockAreaCommServsBoard,19254 Rogers Clark Boulevard,NA,Ruther Glen,VA,22546,Caroline,804-633-9997,http://www.rappahannockareacsb.org,37.9977082,-77.4172582,MH
RappahannockAreaCommServsBoard,7424 Brock Road,NA,Spotsylvania,VA,22553,Spotsylvania,540-373-3223,http://www.rappahannockareacsb.org,38.2601,-77.6263,MH
RappahannockAreaCommServsBoard,15 Hope Road,NA,Stafford,VA,22554,Stafford,540-373-6876,http://www.rappahannockareacsb.org,38.4256162,-77.4061383,MH
RappahannockAreaCommServsBoard,8479 Saint Anthonys Road,NA,King George,VA,22485,King George,540-373-3223,http://www.rappahannockareacsb.org,38.2725357,-77.1948392,MH
"RBHA,OpioidTreatmentProgram",15 West Cary St.,NA,Richmond,VA,23220,,804 644-4636,,37.542196,-77.445505,OTP
"RebeccaElizabethSutter,NP",4400 University Drive,NA,Fairfax,VA,22030,FAIRFAX,571-225-3256,,38.8471,-77.3052,BUPREN
"Rebecca King-Mallory,MD",5826 Ruebush Road,NA,Dublin,VA,24084,PULASKI,540-585-1310,,37.1155,-80.6699,BUPREN
"RebeccaSueScott,NP",Pinnacle Treatment CT-Pulaski Medical,1006 E. Main Street,Pulaski,VA,24301,PULASKI,540-980-1125,,37.0475,-80.7616,BUPREN
RecoveryForTheCityInternational,228 North Lynnhaven Road,Suite 118,Virginia Beach,VA,23452,Virginia Beach City,757-456-0093,http://www.recoveryforlife.com,36.8420621,-76.0697852,SU
"ReginaRomeroSibal,NP",1781 Grey Friars Chase,NA,Virginia Beach,VA,23456,,757-754-1907,,36.7843,-76.1324,BUPREN
"ReneeElaine-GlissonHammel, ",517 W Grace Street,NA,Richmond,VA,23220,RICHMOND CITY,804-649-2119,,37.5475,-77.4479,BUPREN
Reston,11484 Washington Plz W,NA,Reston,VA,20190,,703-443-2000,http://www.hwnova.org,38.96853546,-77.34253248,HC
"RichardDeanCard,DO",141 East Main Street,Suite 420,Pulaski,VA,24301,PULASKI,540-540-5443,,37.0481,-80.7763,BUPREN
"Richard Hill, ",828 Greenbrier Parkway,NA,CHESAPEAKE,VA,23320,CHESAPEAKE CITY,757-547-9007,,36.7508,-76.225,BUPREN
RichmondBehavioralHealthAuthority,107 South 5th Street,NA,Richmond,VA,23219,Richmond City,804-819-4000,http://www.rbha.org,37.539087,-77.4407049,MH
RichmondSouthsideTreatmentCenter,9609 Jefferson Davis Highway,NA,Richmond,VA,23237,,804 275-1116,,37.394109,-77.429087,OTP
RMCGreenbrierNephrology,117 Mall Rd,NA,Covington,VA,24426,,304-438-6188,,37.77288944,-79.96756374,HC
"RobinQuesenberryOlsen,MD",Sentara Careplex Hospital,"4000 Coliseum Drive, Suite 400",Hampton,VA,23666,HAMPTON CITY,757-736-1000,,37.0568,-76.3902,BUPREN
RockbridgeAreaCommunityServsBoard,241 Greenhouse Road,NA,Lexington,VA,24450,Lexington City,540-463-3141,http://www.racsb.org,37.8034988,-79.4254311,MH
RockfishRiverElementary,200 Chapel Hollow Rd,NA,Afton,VA,22920,,434-361-1791,,37.94495798,-78.83868702,HC
"RonaldVincentMejzak,DO",Virginia Beach Psychiatric Center,1100 First Colonial Road,Virginia Beach,VA,23454,,309-361-0875,,36.8662,-76.0285,BUPREN
RPMC -RichmondPrivateMethadoneClinic,4926 West Broad St.,NA,Richmond,VA,23230,,804 673-5241,,37.583996,-77.496126,OTP
"RubyTurnerHaynes,NP",425 W Washington Street,NA,Suffolk,VA,23434,NORFOLK CITY,757-809-5376,,36.8529,-76.2743,BUPREN
RustburgCommunityHealth,925 Village Hwy,NA,Rustburg,VA,24588,,434-528-0005,,37.27773602,-79.09835629,HC
"SabrinaLynnMitchell,NP",1389 Dante Road,NA,St. Paul,VA,24283,SCOTT,276-762-0770,,36.8176,-82.4946,BUPREN
"SabrinaShanayHughes,NP",13613 Greyfield Drive,NA,Chester,VA,23831,CHESTERFIELD,804-691-4515,,37.3267,-77.4436,BUPREN
SafeHaven,2864 Hull St,NA,Richmond,VA,23224,,804-231-7137,,37.51070147,-77.46013477,HC
"SaharaPatriciaDominguez,NP",789 Piney Forest Road,NA,Danville,VA,24540,PISCATAQUIS,,,36.6143,-79.4066,BUPREN
SaintJosephsVilla,8000 Brook Road,Seton House,Richmond,VA,23227,Henrico,804-553-3200,http://www.neverstopbelieving.org,37.6318904,-77.4605621,MH
SaltvilleElementarySchool,1013 E Main St,NA,Saltville,VA,24370,,276-496-4492,,36.8880699,-81.75413892,HC
SALTVILLEMEDICALCENTER,308 W Main St,NA,Saltville,VA,24370,,276-496-4433,http://svchs.com,36.87648644,-81.76938921,HC
"SamanthaAngelicaSweitzer,NP",CVHS Petersburg Recovery Center,541 S. Sycamore St.,Petersburg,VA,23803,,804-835-6100,,37.2193,-77.3999,BUPREN
"SandraCarterHill,NP",8589 Anderson Court,NA,Mechanicsville,VA,23116,HANOVER,804-387-0973,,37.7006,-77.3984,BUPREN
SandstoneCare,11415 Isaac Newton Square South,NA,Reston,VA,20190,Fairfax,703-260-9359,http://www.sandstonecare.com/locations/reston-rehab-center/,38.9519543,-77.3373201,SU
SandstoneCareAlexandria,5400 Shawnee Road,Suite 101,Alexandria,VA,22312,Fairfax,571-556-7505,http://www.sandstonecare.com/locations/alexandria-treatment-center/,38.8057742,-77.1677037,MH
"Saphia Beckles,NP",224 Great Bridge Blvd,NA,Chesapeake,VA,23320,HAMPTON CITY,757-547-9334,,37.0556,-76.3877,BUPREN
"SarahAnnEngle, ",Kaiser Permanente Springfield Medical Center,6501 Loisdale Court,Springfield,VA,22150,FAIRFAX,,,38.7762,-77.178,BUPREN
"SarikaKPatel,PA",Salem VA Medical Center,1970 Roanoke Boulevard,Salem,VA,24153,,540-982-2463,,37.2743,-80.0185,BUPREN
SCHMigrantOutreach,867 Fairmont Ave,NA,Winchester,VA,22601,,304-263-4999,http://www.shencommhealth.com/,39.19732257,-78.16484345,HC
SCHWinchester,1330 Amherst St,NA,Winchester,VA,22601,,540-722-2369 x1062,http://www.shencommhealth.com/www.winchesterfamilyhealth.com,39.19049111,-78.18401437,HC
"ScottKinchenMatthews,MD",CleanSlate Addiction Treatment Centers,"1510 N. 28th Street, Suite 101",Richmond,VA,23223,ERIE,716-688-9641,,37.5407,-77.4066,BUPREN
SDHSFamilyDentistry,1418 6th St,NA,Victoria,VA,23974,,434-696-4180,,36.99360313,-78.22541426,HC
"Shandra Tyus,NP",816 Greenbrier Circle,Suite 209,Chesapeake,VA,23320,,757-436-2444,,36.792,-76.2288,BUPREN
"Shannon Garrett,NP",3908 Nine Mile Road,NA,Richmond,VA,23223,HENRICO,804-727-8100,,37.5417,-77.3806,BUPREN
"ShannonRoseDavidson,NP",1510 N. 28th street,Suite 101,Richmond,VA,23224,RICHMOND CITY,804-521-0050,,37.5196,-77.449,BUPREN
"ShanteVenishaTucker,NP","2006 Bremo Road, Suite 101",NA,Richmond,VA,23226,HENRICO,804-288-1881,,37.5904,-77.5086,BUPREN
"SharonLynnClark,NP",4262 S. Amherst Highway,NA,Madison Heights,VA,24572,AMHERST,434-528-4640,,37.4601,-79.1201,BUPREN
"Shereka Jenkins,NP",825 Diligence Drive,Suite 206,Newport News,VA,23606,NEWPORT NEWS CITY,757-310-6900,,37.085,-76.4628,BUPREN
"SherryKayHall,NP",11921 Freedom Dr.,Suite 550,Reston,VA,20190,FAIRFAX,703-783-4375,,38.9591,-77.3578,BUPREN
"SidneyLeeSparks,NP",2011 Second Street,NA,Richlands,VA,24641,TAZEWELL,276-345-9900,,37.0965,-81.8022,BUPREN
"Sohayla Raja, ",1812 W. Plaza Drive,NA,Winchester,VA,22601,,443-831-1235,,39.1686,-78.1728,BUPREN
SoutheasternVirginia,7401 Warwick Blvd,NA,Newport News,VA,23607,,757-975-5200,,37.01344753,-76.44918077,HC
SoutheasternVirginia,300 Medical Dr,NA,Hampton,VA,23666,,757-788-0300,,37.05557603,-76.38824593,HC
SouthsideBehavioralHealth,424 Hamilton Boulevard,NA,South Boston,VA,24592,Halifax,434-572-2936,http://www.southsidebh.org,36.7136367,-78.9158733,MH
SouthsideBehavioralHealth,450 Washington Street,NA,Boydton,VA,23917,Mecklenburg,434-738-0406,http://www.southsidebh.org,36.6678665,-78.3877556,MH
SouthsideBehavioralHealth,2087 Lawrenceville Plank Road,NA,Lawrenceville,VA,23868,Brunswick,434-848-4121,http://www.southsidebh.org,36.7671857,-77.830586,MH
SouthSideMedicalCenter,101 Cowardin Ave STE 102,NA,Richmond,VA,23224,,804-780-0840,http://www.cahealthnet.org,37.51952325,-77.44926252,HC
SouthwestVirginia,13191 Glenbrook Ave,NA,Meadowview,VA,24361,,276-944-3682,http://svchs.com,36.76076337,-81.85872647,HC
"StanishaNatriceWilliams,NP",1711 Church Street,Suite B,Norfolk,VA,23504,,757-590-4428,,36.8635,-76.2799,BUPREN
"StauntonTreatmentCenter,LLC",15 Green Hills Drive,NA,Verona,VA,24482,,540 217-6366,,38.1906425,-79.0248586,OTP
ST.CHARLESCLINIC,241 Monarch Rd,NA,Saint Charles,VA,24282,,276-383-4428,,36.80623302,-83.05589878,HC
ST.CHARLESRESPIRATORY,213 Monarch Rd,NA,Saint Charles,VA,24282,,276-383-4428,,36.80589103,-83.05631506,HC
Sterling,21641 Ridgetop Cir STE 105,NA,Sterling,VA,20166,,703-840-4704,,39.02581592,-77.4085543,HC
"Steven Baker,NP",310 Cloverleaf Square Suite B2,NA,Big Stone Gap,VA,24219,WISE,276-409-5055,,36.8649,-82.7632,BUPREN
"StevenBernardEisenstein,MD",161 Bush River Drive,Farmville,Va,VA,23901,PRINCE EDWARD,434-392-6455,,37.2802,-78.355,BUPREN
"StevenDeanBridges,MD",526 North Henry Street,NA,Alexandria,VA,22314,ALEXANDRIA CITY,703-348-9110,,38.8109,-77.0505,BUPREN
StoneMountainHealth,512 Dryden Loop,NA,Dryden,VA,24243,,276-546-5310,,36.77532976,-82.94912301,HC
STONEYBROOKPHYSICIANS,15425 Warwick Blvd STE H,NA,Newport News,VA,23608,,757-874-8400,http://pich.org,37.15029736,-76.55437927,HC
STONYCREEKCOMMUNITY,12454 Hartley St,NA,Stony Creek,VA,23882,,434-246-6100,http://lelder@stonycreek.org,36.94745597,-77.40037817,HC
"SulmanAzizMirza, ",46175 Westlake Drive,Suite 410,Sterling,VA,20165,LOUDOUN,571-293-1551,,39.0342,-77.4031,BUPREN
"SungCheol Kim,NP",501 North 2nd Street,NA,Richmond,VA,23219,RICHMOND CITY,804-628-6777,,37.5465,-77.438,BUPREN
SurryMedicalCenter,440 Colonial Trl W,NA,Dendron,VA,23839,,804-834-8871,,37.12469748,-76.85016297,HC
"SusanLeighHorne,NP",113 Short Street Suite 1,NA,Pounding Mill,VA,24637,TAZEWELL,540-202-2554,,37.0642,-81.7446,BUPREN
"SusanTracyRoberts, ",1661 Turner Spur Road,NA,Fancy Gap,VA,24328,CARROLL,276-728-0735,,36.6866,-80.6496,BUPREN
"TammiseJosetteHastingsStine,NP",1711 Church St Suite B,NA,Norfolk,VA,23504,,757-590-4428,,36.8635,-76.2799,BUPREN
"TammyAnnBranham,NP",329 Bonham Road,NA,Bristol,VA,24201,,276-644-9899,,36.6233,-82.13,BUPREN
"TammyAnnBranham,NP",8008 Main Street,NA,Pound,VA,24279,WISE,276-796-4586,,37.1251,-82.617,BUPREN
"TammyAnnBranham,NP","1014 Park Avenue, NW",NA,Norton,VA,24273,,276-409-5554,,36.9324,-82.634,BUPREN
"TammyRJones,NP",110 Wright Street,NA,Marion,VA,24354,SMYTH,276-783-7154,,36.8303,-81.5079,BUPREN
"TanyaDawnKeller,NP",754 East Main Street,NA,Lebanon,VA,24266,RUSSELL,276-415-9600,,36.9022,-82.0646,BUPREN
"TaraTowlerGuida,PA",505 S Independence Boulevard,NA,Virginia Beach,VA,23452,VIRGINIA BEACH CITY,757-933-3130,,36.825,-76.1299,BUPREN
TazewellCommunityHealth,386 Ben Bolt Ave,NA,Tazewell,VA,24651,,276-979-9899,http://svchs.com,37.12594122,-81.48972357,HC
Tazewell -NewDayRecovery,388 Ben Bolt Ave STE 4,NA,Tazewell,VA,24651,,276-979-9899,,37.123746,-81.48901295,HC
"TeashiaGaleRoeske, ",1301 First Colonial Road,NA,Virginia Beach,VA,23454,VIRGINIA BEACH CITY,757-222-1230,,36.869,-76.0326,BUPREN
"TeddieJoeSnodgrass, ",105 Falling Rock Road,NA,Saltville,VA,24370,SMYTH,808-342-7843,,36.9029,-81.7691,BUPREN
"TeresaElaineBurnett,NP",316 Warren Avenue,Suite 1,Front Royal,VA,20186,WARREN,540-497-1454,,38.9232,-78.1929,BUPREN
"Teresa Gibson,NP",102 Highland A,Suite 303,Roanoke,VA,24095,,540-874-5873,,37.2238,-79.7288,BUPREN
"Teresa Tyson,NP",208 Front Street W,NA,Coeburn,VA,24230,WISE,276-455-5556,,36.9418,-82.4719,BUPREN
"TerrindaStevetteAlston, ",355 Crawford Street,Suite 300,Portsmouth,VA,23704,PORTSMOUTH CITY,757-396-6333,,36.838,-76.2975,BUPREN
"ThaddeusMarkhamGarland,MD",10521 Rosehaven Street,Suite 100,Farifax,VA,22030,FAIRFAX,888-285-2269,,38.8758,-77.3081,BUPREN
THEHEALINGPLACE,700 Dinwiddie Ave,NA,Richmond,VA,23224,,804-783-2505 x230,,37.5174305,-77.43463903,HC
"TheodoraClaudetteRobinson,NP",4401 Decatur Drive,NA,Woodbridge,VA,22193,PRINCE WILLIAM,703-338-9036,,38.6237,-77.3421,BUPREN
"TheresaTickleOwens,NP","710 West Ridge Road, Suite 220",NA,Wytheville,VA,24382,WYTHE,276-223-3200,,36.9533,-81.0967,BUPREN
TheSouthsideCommunity,180 E Belt Blvd,NA,Richmond,VA,23224,,804-292-3011,,37.50612658,-77.48151566,HC
"ThomasBradleyMurray,MD",1215 Lee St.,NA,Charlottesville,VA,22903,ACCOMACK,434-443-0560,,37.6889,-75.7263,BUPREN
"ThomasGerardKraemer, ",1957 west main street,NA,salem,VA,24153,,540-541-1168,,37.2898,-80.0919,BUPREN
"ThomasGreshamHollandsworth,MD",25074 Serenity Lane,NA,Onancock,VA,23417,ACCOMACK,757-414-0400,,37.7,-75.7385,BUPREN
"Thomas Kannon,NP",1919 Commerce Dr,Suite 320,Hampton,VA,23666,CHESAPEAKE CITY,757-223-0500,,36.7508,-76.225,BUPREN
THOMPSONFAMILYHEALTH,1721 Lovers Gap Rd,NA,Vansant,VA,24656,,276-597-7081,,37.22216065,-82.099789,HC
ThomsonDriveDental,1927 Thomson Dr,NA,Lynchburg,VA,24501,,434-200-3366,,37.41813802,-79.17511491,HC
ThriveworksCounseling,1657 West Broad Street,Suite 200,Richmond,VA,23220,Richmond City,804-277-4137,http://,37.5550563,-77.4585154,MH
"TiffineySmithThompson,NP",615 N. Birdneck Road,Ste. 109,Virginia Beach,VA,23451,VIRGINIA BEACH CITY,757-422-0684,,36.8527,-75.9952,BUPREN
"TikeamaLatoyaBuckingham,NP",2790 Godwin Blvd,Suite 210,Suffolk,VA,23434,,757-942-4442,,36.7729,-76.5812,BUPREN
TimberRidgeSchool,1463 New Hope Road,NA,Cross Junction,VA,22625,Frederick,540-888-3456,http://www.timberridgeschool.org,39.376208,-78.311558,MH
"TimothyEverettYarboro, ",2100 Washington Boulevard Floor 2,Department of Human Services,Arlington,VA,22204,ARLINGTON,703-228-5587,,38.8735,-77.0832,BUPREN
"TinaJBMyer,PMHNP",3042 Valley Avenue,NA,Winchester,VA,22601,WINCHESTER CITY,800-959-6280,,39.1435,-78.1886,BUPREN
"TinaMarieWebb, ",306 S. Main Street,NA,Rural Retreat,VA,24368,SMYTH,276-686-4007,,36.8919,-81.2751,BUPREN
T.K.MCKEEHOSPITAL,319 5th Ave,NA,Saltville,VA,24370,,276-496-4492,http://svchs.com,36.88091854,-81.75716504,HC
"TracieBarksdaleHampton, ",101 Cleveland Avenue,Suite D,Martinsville,VA,24112,HENRY,276-336-3326,,36.7364,-79.9595,BUPREN
Tri-AreaCommunityHealth,180 Ferrum Mountain Rd,NA,Ferrum,VA,24088,,540-365-4469,http://www.triareahealth.org,36.92670624,-80.01917272,HC
Tri-AreaCommunityHealth,140 Christiansburg Pike NE,NA,Floyd,VA,24091,,540-745-9290,,36.91795117,-80.30911147,HC
Tri-AreaCommunityHealth,18877 Jeb Stuart Hwy,NA,Stuart,VA,24171,,276-694-4466,,36.64616088,-80.25134063,HC
Tri-AreaCommunityHealth,14558 Danville Pike,NA,Laurel Fork,VA,24352,,276-398-2292,http://www.triareahealth.com,36.71830375,-80.50825879,HC
Tri-AreaCommunityHealth,14168 Danville Pike,NA,Laurel Fork,VA,24352,,276-398-2292,,36.71839453,-80.51478234,HC
Tri-AreaCommunityHealth,109 Carroll Dr,NA,Fries,VA,24330,,866-942-0401,,36.71160179,-80.96936578,HC
Tri-AreaCommunityHealth -,6436 Troutdale Hwy,NA,Troutdale,VA,24378,,866-942-0401,,36.65284985,-81.40553674,HC
"TuyetanhNguyenEichholz, ",1300 Jefferson Park Ave,5th Floor,Charlottesville,VA,22903,ROCKBRIDGE,434-982-1700,,37.8037,-79.405,BUPREN
TyeRiverElementarySchool,5198 Thomas Nelson Hwy,NA,Arrington,VA,22922,,434-263-8960,,37.709965,-78.91292302,HC
UMFS,13525 Leland Road,NA,Centreville,VA,20120,Fairfax,703-222-3558 x102,http://www.umfs.org,38.8431373,-77.4149267,MH
UnitedMethodistFamilyServices,3900 West Broad Street,NA,Richmond,VA,23230,Henrico,804-353-4461 x1100,http://www.umfs.org/services/residential-treatment/cfhc/,37.5731196,-77.4804217,MH
"ValdaReginaCrowder, ",1390 Chain Bridge Road,#A107,McLean,VA,22101,FAIRFAX,202-669-1607,,38.9362,-77.1766,BUPREN
ValleyHealthSMHBehavioralHealth,759 South Main Street,Suite 102,Woodstock,VA,22664,Shenandoah,540-536-4881,http://www.valleyhealthlink.com,38.8703378,-78.5125725,MH
VAMEDHealthGroupLLC,320 North Hawksbill Street,Suite 204,Luray,VA,22835,Page,540-215-2211,http://www.vamedicaid.net,38.6696876,-78.4617944,SU
VAMEDHealthGroupLLC,2281 Valley Avenue,NA,Winchester,VA,22601,Winchester City,540-215-2211,http://www.vamedicaid.net,39.1612256,-78.1861128,SU
VanPeltElementarySchool,200 Spring Hill Ter,NA,Bristol,VA,24201,,276-496-4492,,36.62176036,-82.13877574,HC
Vansant RespiratoryCare,1060 Anchorage Cir,NA,Vansant,VA,24656,,276-498-1625,,37.23884521,-82.07471948,HC
VBMC -VirginiaBeachMethadoneClinic,"1728 Virginia Beach Blvd., Suite 113",NA,Virginia Beach,VA,23454,,757 437-0411,,36.842872,-76.023254,OTP
VERNONJ.HARRISEASTEND,719 N 25th St,NA,Richmond,VA,23223,,804-780-0840,http://www.cahealthnet.org,37.53575816,-77.41484005,HC
VICTORIAELEMENTARYSCHOOL,1521 8th St,NA,Victoria,VA,23974,,434-696-2163,http://www.sdhsinc.com,36.99567027,-78.22578656,HC
"VictoriaMarieMcKay,NP",603 Jefferson Davis Hwy,NA,Fredericksburg,VA,22501,SPOTSYLVANIA,540-384-2028,,38.2395,-77.4992,BUPREN
"VictoriaMarieMcKay,NP",621 Jefferson Davis Hsy,Suite 201,Fredericksburg,VA,22401,SPOTSYLVANIA,540-372-2028,,38.2395,-77.4992,BUPREN
VirginiaBeachFamily,936 General Booth Blvd,NA,Virginia Beach,VA,23451,,757-425-3610,,36.80862353,-75.99040007,HC
VirginiaBeachFamily,940 General Booth Blvd,NA,Virginia Beach,VA,23451,,757-425-3610,,36.80821014,-75.99053778,HC
VirginiaBeachHousing,104 N Witchduck Rd,NA,Virginia Beach,VA,23462,,757-591-0643,,36.84155448,-76.15815858,HC
VIrginiaHighSchool,650 Long Crescent Dr,NA,Bristol,VA,24201,,276-496-4492,http://SVCHS.com,36.62498426,-82.17620787,HC
"VirginiaTreatmentCenter,LLC",3208 Hershberger Road,NA,Roanoke,VA,24017,,540 366-5248,,37.303757,-79.981263,OTP
WarwickBoulevard,9294 Warwick Blvd,NA,Newport News,VA,23607,,757-591-0643,http://www.pich.org,37.02123265,-76.45185736,HC
WaverlyMedicalCenter,344 W Main St,NA,Waverly,VA,23890,,804-834-8871,,37.03577977,-77.0961782,HC
"WendyAnneCalender-Howlett, ","3143 Magic Hollow,  Suite 200",NA,Virginia Beach,VA,23453,,757-385-8222,,36.8047,-76.0793,BUPREN
"WendyAnnGraefe,CNM",Sentara Norfolk General Hospital,600 Gresham Drive,Norfolk,VA,23507,NORFOLK CITY,757-739-9239,,36.8623,-76.3032,BUPREN
"WendyLouiseBarker, ",255 Riverside Drive,NA,Bassett,VA,24055,HENRY,276-296-0030,,36.7338,-79.9606,BUPREN
WESTERNLEECOUNTYHEALTH,1446 Dr Thomas Walker Rd,NA,Ewing,VA,24248,,276-445-4826,,36.63524718,-83.43505241,HC
WesternPrimaryHealthCare,9444 Taney Rd,NA,Manassas,VA,20110,,703-680-7950,,38.74113024,-77.47305556,HC
WesternTidewaterCommunityServices,200 East 2nd Avenue,NA,Franklin,VA,23851,Franklin City,757-562-2208,http://www.wtcsb.org,36.67845,-76.921976,MH
WesternTidewaterCommunityServices,1801 South Church Street,NA,Smithfield,VA,23430,Isle of Wight,757-357-7458,http://www.wtcsb.org,36.965702,-76.6062951,MH
WesternTidewaterCommunityServices,135 South Saratoga Street,NA,Suffolk,VA,23434,Suffolk City,757-935-5160,http://www.wtcsb.org,36.7281926,-76.5853499,MH
WesterreConferenceCenter,3831 Westerre Pkwy,NA,Henrico,VA,23233,,434-581-4701,,37.64383031,-77.58080115,HC
WILLIAMA.DAVISCLINIC,1389 Dante Rd,NA,Saint Paul,VA,24283,,276-762-0770,,36.92522536,-82.28586968,HC
"WilliamB.Wolf,MD",4024 Plank Road,NA,Fredericksburg,VA,22407,SPOTSYLVANIA,800-805-6989,,38.2899,-77.5282,BUPREN
"WilliamB.Wolf,MD",21257 foxcroft rd,NA,Middleburg,VA,20117,FAUQUIER,301-529-9653,,38.9173,-77.8616,BUPREN
WinchesterCommunityMHCenterInc,105 Stony Pointe Way,Suite 210,Strasburg,VA,22657,Shenandoah,540-535-1112,http://winchestercmhc.com/,38.9812422,-78.3485316,MH
WinchesterCommunityMHCenterInc,36 Ricketts Drive,NA,Winchester,VA,22601,Winchester City,540-535-1112,http://winchestercmhc.com,39.1652632,-78.1722137,MH
"WinterLaurenMelvin,NP",2117 Smith Ave,Suite F,Cheseapeake,VA,23320,VIRGINIA BEACH CITY,757-904-3319,,36.9056,-76.1224,BUPREN
WoodbridgeMethadoneTreatmentCenter (WMTC),8427 Dorsey Circle,NA,Manassas,VA,20110,,703 330-7517,,38.769505,-77.48628,OTP
WytheYouthAndFamilyServices,540 West Main Street,NA,Wytheville,VA,24382,Wythe,276-223-3291,http://www.mtrogerscsb.com,36.9469714,-81.0877898,MH
"Xin Wang,NP",10520 Judicial Drive,NA,Fairfax,VA,22030,FAIRFAX,703-246-3321,,38.8443,-77.311,BUPREN
"YahairaLynnTarrats,NP",5991 Indian Trail,NA,Suffolk,VA,23437,,757-618-5953,,36.7257,-76.7519,BUPREN
"Yvonne Washington-Turay,NP",521 N. QUINCY ST,NA,Arlington,VA,22203,ARLINGTON,703-841-0703,,38.877,-77.1076,BUPREN
Access Now,2821 Emerywood Parkway,Suite 200,Richmond,VA,23294,,804-622-8145,https://accessnowrva.org/,37.6081248,-77.525434,"specialty, rehab"
Crossover Healthcare Ministry (Richmond clinic),108 Cowardin Avenue,NA,Richmond,VA,23224,,804-655-2794,https://accessnowrva.org/,37.5195404,-77.4498215,"primary, specialty"
Crossover Healthcare Ministry (Henrico clinic),8600 Quioccasin Rd.,NA,Richmond,VA,23229,,804-655-2794,https://accessnowrva.org/,37.6025048,-77.5652831,"primary, specialty"
"Global Health and Education, Inc",4440 Springfield Road,NA,Glen Allen,VA,23059,,804- 712-3873,https://accessnowrva.org/,37.6504532,-77.5618205,non-communicable diseases
GoochlandCares,2999 River Road West,NA,Goochland,VA,23063,,804- 556-6260,https://accessnowrva.org/,37.6864441,-77.8867013,"primary, mental, emergency"
Hanover Interfaith Free Clinics,125 Beverly Road,NA,Ashland,VA,23005,,804-798-8890,https://accessnowrva.org/,37.7576612,-77.4919323,"primary, dental, vision"
Health Brigade,1010 North Thompson Street,NA,Richmond,VA,23230,,804-358-6343,https://accessnowrva.org/,37.5676569,-77.4793059,"primary, mental"
PathwaysÕ Free Specialty Clinic,1200 West Washington Street,NA,Petersburg,VA,23803,,804-862-1104,https://accessnowrva.org/,37.2218894,-77.4230786,primary
Chesapeake Care Clinic,2145 South Military Highway,NA,Chesapeake,VA,23320,,757-545-5700,https://accessnowrva.org/,36.780313,-76.2652456,"primary, dental"
Guadalupe Free Clinic,700 McKinney Blvd,Suite 1100,Colonial Beach,VA,22443,,804-224-0571,https://accessnowrva.org/,38.2539627,-76.9777175,"primary, dental, behavioral, labs"
Gloucester-Matthews Care Clinic,6031 Industrial Parkway,NA,Gloucester,VA,23061,,804-210-1368,https://accessnowrva.org/,37.3688456,-76.533085,"primary, dental, mental"
Northern Neck-Middlesex Free Health Clinic- Middlesex,1544 Regent Road,NA,Syringa,VA,23169,,804-435-0575,https://accessnowrva.org/,37.5761866,-76.4546367,primary
Northern Neck-Middlesex Free Health Clinic- Kilmarnock,51 William B Graham Court,NA,Kilmarnock,VA,22482,,804-435-0575,https://accessnowrva.org/,37.7036332,-76.3896376,"primary, dental"
Old Dominion University Community Cares,1881 University Drive,NA,Virginia Beach,VA,23453,,757-422-2737,https://accessnowrva.org/,36.7812624,-76.0965667,primary
Park Place Health and Dental Clinic,606 West 29th Street,NA,Norfolk,VA,23508,,757-683-2692,https://accessnowrva.org/,36.876039,-76.2912753,dental
Adams Compassionate Health Care Network,4431 Brookfield Corporate Drive,Unit F,Chantilly,VA,20151,,703-542-3366,https://accessnowrva.org/,38.8853946,-77.4384806,"primary, preventative"
Grace Community Clinic,14631 Lee Highway,Suite 313,Centreville,VA,20121,,703-650-9099,https://accessnowrva.org/,38.8345166,-77.4541729,"primary, pediatrics, cardiology"
Mason and Partners Clinic - Culmore,3400 Charles Street,NA,Falls Church,VA,22041,,703-993-5880,https://accessnowrva.org/,38.8533178,-77.1363373,"primary, sexually transmitted disease, depression"
Augusta Regional Dental Clinic,342 Mule Academy Road,NA,Fishersville,VA,22939,,540-221-6635,https://accessnowrva.org/,38.0940914,-78.9803014,dental
Shenandoah Community Health Clinic,124 Valley Vista Drive,NA,Woodstock,VA,22664,,540-459-1700,https://accessnowrva.org/,38.8679821,-78.5158346,"primary, dental, mental"
Bristol Regional Speech and Hearing Center,359 Commonwealth Ave,Suite 100,Bristol,VA,24201,,276-669-6331,https://accessnowrva.org/,36.599542,-82.1887428,"audiology, speech & language therapy"
Brock Hughes Medical Center,450 West Monroe Street,NA,Wytheville,VA,24382,,276-223-0558,https://accessnowrva.org/,36.9482523,-81.0876028,"primary, pharmaceutical, preventive"
Community Access Network - 5th Street,"800 5th Street Martin Luther King, Jr. Blvd",NA,Lynchburg,VA,24504,,434-200-3366,https://accessnowrva.org/,37.4137536,-79.1422464,"primary, pediatrics"
Community Access Network - Park View,2420 Memorial Avenue,NA,Lynchburg,VA,24501,,434-200-3367,https://accessnowrva.org/,37.402828,-79.1671181,"primary, pediatrics"
The Barry Robinson Center,443 Kempsville Road,NA,Norfolk,VA,23502,,757-663-4169,https://www.barryrobinson.org/,36.8476155,-76.194123,
Aster Springs,12790 Kain Road,NA,Glen Allen,VA,23059,,804-979-2800,NA,37.6801131,-77.6367535,
Sandstone Care Teen & Young Adult Treatment Center,13132 Pennypacker Ln,NA,Fairfax,VA,22033,,703-397-8450,NA,38.8735749,-77.4013852,
Embark Behavior Health,1934 Old Gallows Road,NA,Vienna,VA,22182,,571-364-7191,NA,38.9119272,-77.2224625,
Discovery Mood & Anxiety Program,10340 Democracy Lane,Suite 204,Fairfax,VA,22030,,833- 583-0169,NA,38.8496654,-77.301338,
Sandstone Care Teen & Young Adult Treatment Center,5400 Shawnee Rd,Suite 101,Alexandria,VA,22312,,571-556-7505,https://www.sandstonecare.com/locations/alexandria-treatment-center/,38.8057742,-77.1677037,